Name,Company,Business address,Suburb,State,Postcode,Region,Phone,Link,Provider number,Latitude,Longitude
32 And Sunny,32 And Sunny,"Level 24, Three International Towers 300 Barangaroo Avenue",Sydney,NSW,2000,Sydney,0425 259 381,https://www.sira.nsw.gov.au/information-search/rehab-provider/detail?id=892,,,
365 Rehab,365 Rehab,4/6A The Crescent,Kingsgrove,NSW,2208,Sydney South,1300 742 365,https://www.sira.nsw.gov.au/information-search/rehab-provider/detail?id=1051,,,
Ability Rehabilitation Services,Ability Rehabilitation Services,78 John Street,Camden,NSW,2570,Sydney West,02 4656 1819,https://www.sira.nsw.gov.au/information-search/rehab-provider/detail?id=1047,,,
Ache Group - Sydney,Ache Group,"Suite 2, Level 6 2 Barrack Street",Sydney,NSW,2000,Sydney Central,02 8089 0262,https://www.sira.nsw.gov.au/information-search/rehab-provider/detail?id=1039,,,
Actevate - Brookvale,Actevate,1/507 Pittwater Road,Brookvale,NSW,2100,Sydney North,1300 663 155,https://www.sira.nsw.gov.au/information-search/rehab-provider/detail?id=1007,,,
Actevate - Campbelltown,Actevate,"Suite 3.02, 1 Centennial Drive",Campbelltown,NSW,2560,Sydney South,1300 663 155,https://www.sira.nsw.gov.au/information-search/rehab-provider/detail?id=1009,,,
Actevate - Canberra,Actevate,"Level 2, 7 Neptune Street",Woden,ACT,2606,Act,1300 663 155,https://www.sira.nsw.gov.au/information-search/rehab-provider/detail?id=1014,,,
Actevate - Liverpool,Actevate,79 Bathurst Street,Liverpool,NSW,2170,Sydney West,1300 663 155,https://www.sira.nsw.gov.au/information-search/rehab-provider/detail?id=1011,,,
Actevate - Newcastle,Actevate,1 Tudor Street,Newcastle,NSW,2300,Hunter,1300 663 155,https://www.sira.nsw.gov.au/information-search/rehab-provider/detail?id=1012,,,
Actevate - Nowra,Actevate,109 Ryans Lane,Pyree,NSW,2540,Illawarra Shoalhaven,1300 663 155,https://www.sira.nsw.gov.au/information-search/rehab-provider/detail?id=1016,,,
Actevate - Parramatta,Actevate,"Suite 4, Level 3 1 Horwood Place",Parramatta,NSW,2150,Sydney West,1300 663 155,https://www.sira.nsw.gov.au/information-search/rehab-provider/detail?id=1008,,,
Actevate - Penrith,Actevate,102 Derby Street,Penrith,NSW,2750,"Nepean, Blue Mountains",1300 663 155,https://www.sira.nsw.gov.au/information-search/rehab-provider/detail?id=1010,,,
Actevate - Sydney,Actevate,"Level 13, 447 Kent Street",Sydney,NSW,2000,Sydney Central,1300 663 155,https://www.sira.nsw.gov.au/information-search/rehab-provider/detail?id=524,,,
Actevate - Toronto,Actevate,Shop 1/32 Victory Parade,Toronto,NSW,2283,Hunter,1300 663 155,https://www.sira.nsw.gov.au/information-search/rehab-provider/detail?id=1013,,,
Actevate - Wollongong,Actevate,"Unit 19, 21 Princes Highway",Fairy Meadow,NSW,2519,Illawarra Shoalhaven,1300 663 155,https://www.sira.nsw.gov.au/information-search/rehab-provider/detail?id=1015,,,
Active Occupational Health Services,Active Occupational Health Services,"Suite 1, Level 13 66 Goulburn Street",Sydney,NSW,2000,Sydney Central,02 9821 3321,https://www.sira.nsw.gov.au/information-search/rehab-provider/detail?id=305,,,
Actual Rehab Pty Ltd,Actual Rehab Pty Ltd,Po Box 3223,Umina Beach,NSW,2257,Central Coast,0487 136 306,https://www.sira.nsw.gov.au/information-search/rehab-provider/detail?id=978,,,
Acumen Health - Coffs Harbour,Acumen Health,"Suite 2, Level 2 43 Gordon Street",Coffs Harbour,NSW,2450,Mid North Coast,1300 622 734,https://www.sira.nsw.gov.au/information-search/rehab-provider/detail?id=824,,,
Acumen Health - Liverpool,Acumen Health,"The Reilly Centre Suite 6D, 389-393 Hume Highway",Liverpool,NSW,2170,Sydney West,1300 622 734,https://www.sira.nsw.gov.au/information-search/rehab-provider/detail?id=823,,,
Acumen Health - Parramatta,Acumen Health,Suite 30 30 Cowper Street,Parramatta,NSW,2150,Sydney West,1300 622 734,https://www.sira.nsw.gov.au/information-search/rehab-provider/detail?id=820,,,
Acumen Health - South Melbourne Vic,Acumen Health,"Level 4, Building E 100 Dorcas Street",South Melbourne,VIC,3205,Victoria,1300 622 734,https://www.sira.nsw.gov.au/information-search/rehab-provider/detail?id=822,,,
"Acumen Health - Spring Hill, Qld",Acumen Health,"Suite 204, Level 2 67 Astor Terrace",Spring Hill,QLD,4000,Queensland,1300 622 734,https://www.sira.nsw.gov.au/information-search/rehab-provider/detail?id=821,,,
Acumen Health - Belconnen Act,Acumen Health,"Level 1, Suite 1.02B 54 Marcus Clarke Street",Canberra,ACT,2601,Act,1300 622 734,https://www.sira.nsw.gov.au/information-search/rehab-provider/detail?id=762,,,
Acumen Health - Gosford,Acumen Health,Level 3 107 Mann Street,Gosford,NSW,2250,Central Coast,1300 622 734,https://www.sira.nsw.gov.au/information-search/rehab-provider/detail?id=859,,,
Acumen Health - Kotara,Acumen Health,Unit 2A 70 Northcott Drive,Kotara,NSW,2289,Central Coast,1300 622 734,https://www.sira.nsw.gov.au/information-search/rehab-provider/detail?id=505,,,
Acumen Health - Lismore,Acumen Health,"Suite 2, 36-38 Conway Street",Lismore,NSW,2480,Northern Rivers,02 8746 3499,https://www.sira.nsw.gov.au/information-search/rehab-provider/detail?id=763,,,
Acumen Health - North Sydney,Acumen Health,Level 13 201 Miller Street,North Sydney,NSW,2060,"Sydney Central, Sydney North",1300 622 734,https://www.sira.nsw.gov.au/information-search/rehab-provider/detail?id=657,,,
Acumen Health - Port Macquarie,Acumen Health,17 Hollingworth Street,Port Macquarie,NSW,2444,Mid North Coast,1300 436 432,https://www.sira.nsw.gov.au/information-search/rehab-provider/detail?id=1043,,,
Acumen Health - Tweed Heads,Acumen Health,Shops 11 & 12 2-8 Blundell Boulevard,Tweed Heads,NSW,2485,Far North Coast,1300 436 432,https://www.sira.nsw.gov.au/information-search/rehab-provider/detail?id=1044,,,
Acumen Health - Wollongong,Acumen Health,"Level 4, Suite 7 43 Burelli Street",Wollongong,NSW,2500,Illawarra Shoalhaven,1300 622,https://www.sira.nsw.gov.au/information-search/rehab-provider/detail?id=764,,,
Advanced Personnel Management - Albury,Advanced Personnel Management,"Suite 5A, 620 Macaulay Street",Albury,NSW,2640,Riverina,02 6021 0811,https://www.sira.nsw.gov.au/information-search/rehab-provider/detail?id=570,,,
Advanced Personnel Management - Canberra,Advanced Personnel Management,"Level 1, 39 London Circuit",Canberra,ACT,2601,Act,02 6262 7766,https://www.sira.nsw.gov.au/information-search/rehab-provider/detail?id=571,,,
Advanced Personnel Management - Coffs Harbour,Advanced Personnel Management,"Suite 101, Amp Centre 24 Gordon Street",Coffs Harbour,NSW,2450,Mid North Coast,02 6651 9044,https://www.sira.nsw.gov.au/information-search/rehab-provider/detail?id=572,,,
Advanced Personnel Management - Dee Why,Advanced Personnel Management,"Unit 3B, 32 Fisher Road",Dee Why,NSW,2099,Sydney North,1300 967 522,https://www.sira.nsw.gov.au/information-search/rehab-provider/detail?id=893,,,
Advanced Personnel Management - Lismore,Advanced Personnel Management,"Suite 8, Level 1, Conway Plaza 17 Conway Street",Lismore,NSW,2480,Far North Coast,02 6622 7263,https://www.sira.nsw.gov.au/information-search/rehab-provider/detail?id=573,,,
Advanced Personnel Management - Liverpool,Advanced Personnel Management,Suites 2 And 3 290 Macquarie Street,Liverpool,NSW,2170,Sydney West,1300 967 522,https://www.sira.nsw.gov.au/information-search/rehab-provider/detail?id=894,,,
Advanced Personnel Management - Maitland,Advanced Personnel Management,"Unit 5, 555 High Street",Maitland,NSW,2320,Hunter,02 4933 1091,https://www.sira.nsw.gov.au/information-search/rehab-provider/detail?id=576,,,
Advanced Personnel Management - Newcastle,Advanced Personnel Management,Unit 8B 235A Darby Street,Cooks Hill,NSW,2300,Hunter,02 4927 0244,https://www.sira.nsw.gov.au/information-search/rehab-provider/detail?id=578,,,
Advanced Personnel Management - Parramatta,Advanced Personnel Management,"Suite 4, Ground Floor, 1-3 Fitzwilliam Street",Parramatta,NSW,2150,Sydney West,1300 967 522,https://www.sira.nsw.gov.au/information-search/rehab-provider/detail?id=580,,,
Advanced Personnel Management - Sydney,Advanced Personnel Management,"Suite 2, Level 2 56 Clarence Street",Sydney,NSW,2000,Sydney Central,02 8296 5700,https://www.sira.nsw.gov.au/information-search/rehab-provider/detail?id=408,,,
Advanced Personnel Management - Tweed Heads,Advanced Personnel Management,2-8 Blundell Boulevard,Tweed Heads,NSW,2485,Far North Coast,1300 967 522,https://www.sira.nsw.gov.au/information-search/rehab-provider/detail?id=979,,,
Advanced Personnel Management - Wollongong,Advanced Personnel Management,"Suite 1, Level 3, Nrma Building 221-229 Crown Street",Wollongong,NSW,2500,Illawarra Shoalhaven,02 4225 7044,https://www.sira.nsw.gov.au/information-search/rehab-provider/detail?id=582,,,
Advanced Rehabilitation Management Service,Advanced Rehabilitation Management Service,20 Noorebar Avenue,Griffith,NSW,2680,Riverina,02 6964 8995,https://www.sira.nsw.gov.au/information-search/rehab-provider/detail?id=413,,,
Align Work Health,Align Work Health,549 David Street,Albury,NSW,2640,Riverina,02 6023 4644,https://www.sira.nsw.gov.au/information-search/rehab-provider/detail?id=451,,,
Ascent Rehabilitation Pty Ltd,Ascent Rehabilitation Pty Ltd,"Level 1, Suite 5, Ethos House 28 Ainslie Place",Canberra,ACT,2600,Act,02 6156 4109,https://www.sira.nsw.gov.au/information-search/rehab-provider/detail?id=1032,,,
At Work Occupational Health & Safety,At Work Occupational Health & Safety,31 Lemongrove Road,Penrith,NSW,2750,Nepean Blue Mountains,02 4721 5098,https://www.sira.nsw.gov.au/information-search/rehab-provider/detail?id=409,,,
Atlas Rehab,Atlas Rehab,Level 2 215-219 George Street,Liverpool,NSW,2170,Sydney West,1300 667 544,https://www.sira.nsw.gov.au/information-search/rehab-provider/detail?id=755,,,
Ausrehab - Alexandria,Ausrehab,Suite 226 90-96 Bourke Road,Alexandria,NSW,2015,Sydney,Ph: 1300 391 947 / Fax: 02 7201 5019 / Email: office@ausrehab.com / https://www.ausrehab.com,https://www.sira.nsw.gov.au/information-search/rehab-provider/detail?id=977,,,
Ausrehab - Blacktown,Ausrehab,"Level 1, 8 Patrick Street",Blacktown,NSW,2148,Sydney West,Ph: 1300 391 947 / Fax: 02 7201 5019 / Email: office@ausrehab.com / https://www.ausrehab.com,https://www.sira.nsw.gov.au/information-search/rehab-provider/detail?id=981,,,
Ausrehab - Hurstville,Ausrehab,"Suite 201, Level 2, 8 Woodville Street",Hurstville,NSW,2220,Sydney South,Ph: 1300 391 947 / Fax: 02 7201 5019 / Email: office@ausrehab.com / https://www.ausrehab.com,https://www.sira.nsw.gov.au/information-search/rehab-provider/detail?id=982,,,
Axis Injury Management - Charlestown,Axis Injury Management,Level 1 20 Smith Street,Charlestown,NSW,2290,Central Coast & Hunter,02 4927 0577,https://www.sira.nsw.gov.au/information-search/rehab-provider/detail?id=456,,,
Back2work Solutions,Back2work Solutions,"Suite 1.02, Level 1 20 Clarke Street",Crows Nest,NSW,2065,Sydney North,0431 092 499,https://www.sira.nsw.gov.au/information-search/rehab-provider/detail?id=989,,,
Balance Rehab Pty Ltd - Blacktown,Balance Rehab Pty Ltd,"Level 1, 8 Patrick Street",Blacktown,NSW,2200,Sydney West,0417 475 700,https://www.sira.nsw.gov.au/information-search/rehab-provider/detail?id=267,,,
Balance Rehab Pty Ltd - Chullora,Balance Rehab Pty Ltd,7/4 Brunker Road,Chullora,NSW,2190,Sydney West,0417 475 700,https://www.sira.nsw.gov.au/information-search/rehab-provider/detail?id=910,,,
Benchmark Rehab - Macquarie Park,Benchmark Rehab,"Suite 208, 32 Delhi Road",Macquarie Park,NSW,2113,Sydney,0459 042 141,https://www.sira.nsw.gov.au/information-search/rehab-provider/detail?id=980,,,
Beneco,Beneco,"Level 5, 1F Homebush Bay Drive",Rhodes,NSW,2138,Sydney Central,1300 023 632,https://www.sira.nsw.gov.au/information-search/rehab-provider/detail?id=515,,,
Better Recovery Group,Better Recovery Group,"Shop 1G, 241 Castlereagh Street",Sydney,NSW,2000,Sydney Central,02 8313 7954,https://www.sira.nsw.gov.au/information-search/rehab-provider/detail?id=984,,,
Born Fit - Fairfield,Born Fit,1/17 Kenyon Street,Fairfield,NSW,2165,Sydney West,0410 699 081,https://www.sira.nsw.gov.au/information-search/rehab-provider/detail?id=1035,,,
Born Fit - Miranda,Born Fit,"Level 4, Suite 210, 29 Kiora Road",Miranda,NSW,2228,Sydney South,0410 699 081,https://www.sira.nsw.gov.au/information-search/rehab-provider/detail?id=1034,,,
Career Management Services - Martin Place,Career Management Services,52 Martin Place,Sydney,NSW,2000,Sydney Central,1300 588 088,https://www.sira.nsw.gov.au/information-search/rehab-provider/detail?id=960,,,
Career Management Services - Newcastle,Career Management Services,61-63 Parry Street,Newcastle West,NSW,2302,Hunter,1300 588 088,https://www.sira.nsw.gov.au/information-search/rehab-provider/detail?id=961,,,
Career Management Services - Wynyard,Career Management Services,33 George Street Wynyard,Sydney,NSW,2000,Sydney Central,1300 588 088,https://www.sira.nsw.gov.au/information-search/rehab-provider/detail?id=959,,,
Carfi,Carfi,Suite 401 93 Pacific Highway,North Sydney,NSW,2060,Sydney North,1300 737 403,https://www.sira.nsw.gov.au/information-search/rehab-provider/detail?id=732,,,
Changing Ways Consulting,Changing Ways Consulting,284 Church Street,Parramatta,NSW,2150,Sydney West,1300 652 920,https://www.sira.nsw.gov.au/information-search/rehab-provider/detail?id=990,,,
Corporeal Health - Sydney,Corporeal Health,"Level 24, 300 Barangaroo Avenue",Sydney,NSW,2000,Sydney Central,08 9622 5940,https://www.sira.nsw.gov.au/information-search/rehab-provider/detail?id=1040,,,
Cs Health - Gunnedah,Cs Health,Cnr Reservoir Street And Anzac Parade,Gunnedah,NSW,2380,North Eastern Nsw,1800 274 633,https://www.sira.nsw.gov.au/information-search/rehab-provider/detail?id=996,,,
Cs Health - Lithgow,Cs Health,3 Proto Avenue,Lithgow,NSW,2790,Nepean Blue Mountains,02 6350 1050,https://www.sira.nsw.gov.au/information-search/rehab-provider/detail?id=561,,,
Cs Health - Mudgee,Cs Health,18 Sydney Road,Mudgee,NSW,2850,Western Nsw,02 6370 6100,https://www.sira.nsw.gov.au/information-search/rehab-provider/detail?id=731,,,
Cs Health - Singleton,Cs Health,1 Civic Avenue,Singleton,NSW,2330,Hunter,02 6571 9900,https://www.sira.nsw.gov.au/information-search/rehab-provider/detail?id=17,,,
Cs Health - Speers Point,Cs Health,143 Main Road,Speers Point,NSW,2284,Hunter,02 4948 3100,https://www.sira.nsw.gov.au/information-search/rehab-provider/detail?id=16,,,
Cs Health - Woonona,Cs Health,558-580 Princes Highway,Woonona,NSW,2517,Illawarra Shoalhaven,02 4286 5400,https://www.sira.nsw.gov.au/information-search/rehab-provider/detail?id=560,,,
Direct Solutions Rehabilitation & Occupational Services,Direct Solutions Rehabilitation & Occupational Services,5 Stockton Avenue,Moorebank,NSW,2170,Sydney South West,1300 024 380,https://www.sira.nsw.gov.au/information-search/rehab-provider/detail?id=491,,,
Dynamic Health Partners,Dynamic Health Partners,5 Jacana Close,East Maitland,NSW,2323,Hunter,0423 099 607,https://www.sira.nsw.gov.au/information-search/rehab-provider/detail?id=895,,,
Ergosmart Consulting,Ergosmart Consulting,"Level 1, 18 National Circuit",Barton,ACT,2600,"Act, Southern Highlands, Sydney",1300 522 090,https://www.sira.nsw.gov.au/information-search/rehab-provider/detail?id=526,,,
Expert Rehab,Expert Rehab,Level 1/244 Macquarie Street,Liverpool,NSW,2170,Sydney West,0468 722 112,https://www.sira.nsw.gov.au/information-search/rehab-provider/detail?id=1049,,,
Fastrack Health - Brookvale,Fastrack Health,6 Elizabeth Place,Brookvale,NSW,2100,Sydney North,0413 515 119,https://www.sira.nsw.gov.au/information-search/rehab-provider/detail?id=768,,,
Fastrack Health - Campbelltown,Fastrack Health,"Suite 16A, 42 Parkside Crescent",Campbelltown,NSW,2560,Sydney South West,0413 515 119,https://www.sira.nsw.gov.au/information-search/rehab-provider/detail?id=769,,,
Future Fit Injury Management,Future Fit Injury Management,"Suite 3, 34 Albert Street",North Parramatta,NSW,2151,Sydney West,1800 573 144,https://www.sira.nsw.gov.au/information-search/rehab-provider/detail?id=708,,,
Greenlight Hc - Hamilton,Greenlight Hc,"Suite 2, 73A Elizabeth Street",Tighes Hill,NSW,2297,Hunter,1300 312 049,https://www.sira.nsw.gov.au/information-search/rehab-provider/detail?id=666,,,
Greenlight Hc - North Ryde,Greenlight Hc,Level 5 7 Eden Park Drive,Macquarie Park,NSW,2113,Sydney North,02 9888 3358,https://www.sira.nsw.gov.au/information-search/rehab-provider/detail?id=707,,,
Greenlight Hc - Parramatta,Greenlight Hc,"Suite 303, Level 3, 69 Phillip Street",Parramatta,NSW,2150,Sydney West,1300 312 049,https://www.sira.nsw.gov.au/information-search/rehab-provider/detail?id=758,,,
Head2work,Head2work,Unit 9 29 Governor Macquarie Drive,Chipping Norton,NSW,2170,Sydney South West,02 9602 4922,https://www.sira.nsw.gov.au/information-search/rehab-provider/detail?id=392,,,
"Health & Wellness Rehab - Phillip, Act",Health & Wellness Rehab,"Suite 3, 13 Napier Close",Deakin,ACT,2600,Act,0401 858 329,https://www.sira.nsw.gov.au/information-search/rehab-provider/detail?id=1038,,,
Health Ability,Health Ability,92A Longueville Road,Lane Cove,NSW,2066,Sydney North,02 9098 5500,https://www.sira.nsw.gov.au/information-search/rehab-provider/detail?id=777,,,
Hoys Work Health,Hoys Work Health,32 First Avenue,Sawtell,NSW,2452,"Far North Coast, Mid North Coast, New England, North Coast, Northern Rivers",02 6658 3878,https://www.sira.nsw.gov.au/information-search/rehab-provider/detail?id=277,,,
Imac Injury Management And Assessment Centre,Imac Injury Management And Assessment Centre,Suite 3 16 Sorrell Street,Parramatta,NSW,2150,Sydney West,02 9869 7122,https://www.sira.nsw.gov.au/information-search/rehab-provider/detail?id=362,,,
Inmotion Rehab - Narellan,Inmotion Rehab,3/38 Exchange Parade,Narellan,NSW,2567,South Coast Nsw,1300 466 684,https://www.sira.nsw.gov.au/information-search/rehab-provider/detail?id=739,,,
Inmotion Rehab - Wollongong,Inmotion Rehab,24 Atchison Street,Wollongong,NSW,2500,Illawarra Shoalhaven,02 4243 7820,https://www.sira.nsw.gov.au/information-search/rehab-provider/detail?id=943,,,
Interact Injury Management - Albury/Wodonga,Interact Injury Management,460 Swift Street,Albury,NSW,2640,Riverina,02 6061 0210,https://www.sira.nsw.gov.au/information-search/rehab-provider/detail?id=837,,,
Interact Injury Management - Belconnen Act,Interact Injury Management,Level 2 40 Cameron Avenue,Belconnen,ACT,2617,Act,02 6110 1400,https://www.sira.nsw.gov.au/information-search/rehab-provider/detail?id=760,,,
Interact Injury Management - Coffs Harbour,Interact Injury Management,"Suite 2, Level 2 43 Gordon Street",Coffs Harbour,NSW,2450,Mid North Coast,02 6600 2700,https://www.sira.nsw.gov.au/information-search/rehab-provider/detail?id=542,,,
Interact Injury Management - Dubbo,Interact Injury Management,Suite 1 64-70 Wingewarra Street,Dubbo,NSW,2830,Central West,02 6885 2139,https://www.sira.nsw.gov.au/information-search/rehab-provider/detail?id=417,,,
Interact Injury Management - Lismore,Interact Injury Management,Suite 2 36/38 Conway Street,Lismore,NSW,2480,Northern Rivers,02 6616 2000,https://www.sira.nsw.gov.au/information-search/rehab-provider/detail?id=450,,,
Interact Injury Management - Liverpool,Interact Injury Management,"Suite 2, Ground Floor 21 Pirie Street",Liverpool,NSW,2170,Sydney West,02 9093 4400,https://www.sira.nsw.gov.au/information-search/rehab-provider/detail?id=669,,,
Interact Injury Management - Newcastle,Interact Injury Management,"Suite 2, Level 3 45 Watt Street",Newcastle,NSW,2300,Hunter,02 4911 9900,https://www.sira.nsw.gov.au/information-search/rehab-provider/detail?id=701,,,
Interact Injury Management - North Sydney,Interact Injury Management,Level 13 201 Miller Street,North Sydney,NSW,2060,Sydney North,02 9093 4400,https://www.sira.nsw.gov.au/information-search/rehab-provider/detail?id=664,,,
Interact Injury Management - Orange,Interact Injury Management,Suite 2 65 Hill Street,Orange,NSW,2800,Central West,02 6616 2000,https://www.sira.nsw.gov.au/information-search/rehab-provider/detail?id=264,,,
Interact Injury Management - Port Macquarie,Interact Injury Management,17 Hollingworth Street,Port Macquarie,NSW,2444,Mid North Coast,02 6500 9000,https://www.sira.nsw.gov.au/information-search/rehab-provider/detail?id=323,,,
Interact Injury Management - Tamworth,Interact Injury Management,"Shop 1, 511 Peel Street",Tamworth,NSW,2340,North West Slopes & Plains,02 6700 1200,https://www.sira.nsw.gov.au/information-search/rehab-provider/detail?id=458,,,
Interact Injury Management - Tweed Heads,Interact Injury Management,5/1 Sands Street,Tweed Heads,NSW,2485,Northern Rivers,02 6616 2000,https://www.sira.nsw.gov.au/information-search/rehab-provider/detail?id=640,,,
Interact Injury Management - Wollongong,Interact Injury Management,"Level 1, 1 Burelli Street",Wollongong,NSW,2500,Illawarra Shoalhaven,1300 618 868,https://www.sira.nsw.gov.au/information-search/rehab-provider/detail?id=776,,,
Interactive Health Solutions,Interactive Health Solutions,8 Old Sydney Road,Seaforth,NSW,2092,Sydney North,02 8084 0503,https://www.sira.nsw.gov.au/information-search/rehab-provider/detail?id=743,,,
Interstate Providers,Interstate Providers,For Providers To Use When Using Out Of State Services,,,,,,https://www.sira.nsw.gov.au/information-search/rehab-provider/detail?id=518,,,
Ioh Health - Ingleburn,Ioh Health,Suite 2/34 Carlisle Street,Ingleburn,NSW,2565,Sydney South West,02 4620 7244,https://www.sira.nsw.gov.au/information-search/rehab-provider/detail?id=924,,,
Ioh Health - Parramatta,Ioh Health,28 Ross Street,Parramatta,NSW,2150,Sydney West,02 9890 3655,https://www.sira.nsw.gov.au/information-search/rehab-provider/detail?id=304,,,
Ioh Health - Penrith,Ioh Health,"Level 1, 396 High Street",Penrith,NSW,2750,"Nepean, Blue Mountains",02 9890 3655,https://www.sira.nsw.gov.au/information-search/rehab-provider/detail?id=942,,,
Ioh Health - South Coast,Ioh Health,107 Scenic Drive,Nowra,NSW,2541,South Coast Nsw,02 4210 7222,https://www.sira.nsw.gov.au/information-search/rehab-provider/detail?id=303,,,
Ioh Health - Southern Highlands,Ioh Health,5/10 Davy Street,Mittagong,NSW,2575,Southern Highlands,02 4861 7641,https://www.sira.nsw.gov.au/information-search/rehab-provider/detail?id=925,,,
Ioh Health - Wollongong,Ioh Health,32 Swan Street,Wollongong,NSW,2500,Illawarra Shoalhaven,02 4210 7222,https://www.sira.nsw.gov.au/information-search/rehab-provider/detail?id=27,,,
Ipar Rehabilitation - Albury,Ipar Rehabilitation,556 David Street,Albury,NSW,2640,Riverina,03 8648 0900,https://www.sira.nsw.gov.au/information-search/rehab-provider/detail?id=704,,,
Ipar Rehabilitation - Ballina,Ipar Rehabilitation,"Suite 8, 31 Cherry Street",Ballina,NSW,2478,Far North Coast,02 6627 2666,https://www.sira.nsw.gov.au/information-search/rehab-provider/detail?id=765,,,
Ipar Rehabilitation - Blacktown,Ipar Rehabilitation,45-51 Main Street,Blacktown,NSW,2148,Sydney West,02 9689 0900,https://www.sira.nsw.gov.au/information-search/rehab-provider/detail?id=884,,,
Ipar Rehabilitation - Brisbane,Ipar Rehabilitation,"Level 1, 10 Eagle Street",Brisbane,QLD,4000,Queensland,07 3253 5000,https://www.sira.nsw.gov.au/information-search/rehab-provider/detail?id=752,,,
Ipar Rehabilitation - Brookvale,Ipar Rehabilitation,Suite 148 117 Old Pittwater Road,Brookvale,NSW,2100,Sydney North,02 8272 2222,https://www.sira.nsw.gov.au/information-search/rehab-provider/detail?id=886,,,
Ipar Rehabilitation - Campbelltown,Ipar Rehabilitation,108 Queen Street,Campbelltown,NSW,2560,Sydney South West,02 9689 0900,https://www.sira.nsw.gov.au/information-search/rehab-provider/detail?id=885,,,
Ipar Rehabilitation - Canberra,Ipar Rehabilitation,4/1 Phipps Close,Deakin,ACT,2600,Act,02 6287 0700,https://www.sira.nsw.gov.au/information-search/rehab-provider/detail?id=756,,,
Ipar Rehabilitation - Central Coast,Ipar Rehabilitation,"Suite 3, 4 Bounty Close",Tuggerah,NSW,2259,Central Coast,02 4355 4367,https://www.sira.nsw.gov.au/information-search/rehab-provider/detail?id=750,,,
Ipar Rehabilitation - Coffs Harbour,Ipar Rehabilitation,201-203/24 Moonee Street,Coffs Harbour,NSW,2450,Mid North Coast,02 6691 2600,https://www.sira.nsw.gov.au/information-search/rehab-provider/detail?id=751,,,
Ipar Rehabilitation - Goulburn,Ipar Rehabilitation,3/56-63 Clifford Street,Goulburn,NSW,2580,Southern Highlands,02 6287 0700,https://www.sira.nsw.gov.au/information-search/rehab-provider/detail?id=887,,,
Ipar Rehabilitation - Liverpool,Ipar Rehabilitation,"Level 8, 35 Scott Street",Liverpool,NSW,2170,Sydney West,02 8272 2222,https://www.sira.nsw.gov.au/information-search/rehab-provider/detail?id=826,,,
Ipar Rehabilitation - Mildura,Ipar Rehabilitation,272 Eleventh Street,Mildura,VIC,3500,Victoria,03 5022 8091,https://www.sira.nsw.gov.au/information-search/rehab-provider/detail?id=705,,,
Ipar Rehabilitation - Miranda,Ipar Rehabilitation,"Suite 124, Level 1 29 Kiora Road",Miranda,NSW,2228,Sydney South,02 9689 0900,https://www.sira.nsw.gov.au/information-search/rehab-provider/detail?id=918,,,
Ipar Rehabilitation - Newcastle,Ipar Rehabilitation,"Otp House, Level 2, 14 Bradford Close",Kotara,NSW,2289,Hunter,02 4903 3200,https://www.sira.nsw.gov.au/information-search/rehab-provider/detail?id=682,,,
Ipar Rehabilitation - Nowra,Ipar Rehabilitation,"Shop 3, Ground Floor 24 Berry Street",Nowra,NSW,2541,Illawarra Shoalhaven,02 4221 0600,https://www.sira.nsw.gov.au/information-search/rehab-provider/detail?id=888,,,
Ipar Rehabilitation - Orange,Ipar Rehabilitation,"Suite 3, Level 1, 21-29 William Street",Orange,NSW,2800,Central West,02 9689 0900,https://www.sira.nsw.gov.au/information-search/rehab-provider/detail?id=854,,,
Ipar Rehabilitation - Parramatta,Ipar Rehabilitation,"Level 1, 107 Phillip Street",Parramatta,NSW,2150,Sydney West,02 9689 0900,https://www.sira.nsw.gov.au/information-search/rehab-provider/detail?id=674,,,
Ipar Rehabilitation - Penrith,Ipar Rehabilitation,"Suite 2.04B, 38 Somerset Street",Kingswood,NSW,2747,"Nepean, Blue Mountains",02 4731 5009,https://www.sira.nsw.gov.au/information-search/rehab-provider/detail?id=283,,,
Ipar Rehabilitation - Port Macquarie,Ipar Rehabilitation,Shop 4/136 William Street,Port Macquarie,NSW,2444,Mid North Coast,02 6651 5111,https://www.sira.nsw.gov.au/information-search/rehab-provider/detail?id=855,,,
Ipar Rehabilitation - Sydney,Ipar Rehabilitation,Level 16 1 Market Street,Sydney,NSW,2000,Sydney Central,02 8272 2200,https://www.sira.nsw.gov.au/information-search/rehab-provider/detail?id=483,,,
Ipar Rehabilitation - Tamworth,Ipar Rehabilitation,2/14-16 Bourke Street,Tamworth,NSW,2340,North West Slopes & Plains,02 6766 1444,https://www.sira.nsw.gov.au/information-search/rehab-provider/detail?id=678,,,
Ipar Rehabilitation - Wagga Wagga,Ipar Rehabilitation,9/152 Fitzmaurice Street,Wagga Wagga,NSW,2650,Riverina,03 8648 0900,https://www.sira.nsw.gov.au/information-search/rehab-provider/detail?id=856,,,
Ipar Rehabilitation - Wollongong,Ipar Rehabilitation,"Level 1, 1 Burelli Street",Wollongong,NSW,2500,Illawarra Shoalhaven,02 9869 0900,https://www.sira.nsw.gov.au/information-search/rehab-provider/detail?id=736,,,
Iprana Health Consulting,Iprana Health Consulting,"Suite 306, Building A, 1 Burbank Place",Baulkham Hills,NSW,2153,Sydney West,02 8027 3435,https://www.sira.nsw.gov.au/information-search/rehab-provider/detail?id=1030,,,
Jk Corporate Resourcing,Jk Corporate Resourcing,Level 7 111 Phillip Street,Parramatta,NSW,2150,Sydney West,1300 652 920,https://www.sira.nsw.gov.au/information-search/rehab-provider/detail?id=734,,,
Kairros - Armidale,Kairros,117 Faulkner Street,Armidale,NSW,2350,Northern Tablelands,02 9098 2660,https://www.sira.nsw.gov.au/information-search/rehab-provider/detail?id=1050,,,
Kairros - Ballina,Kairros,8/31 Cherry Street,Ballina,NSW,2478,Far North Coast,02 9098 2660,https://www.sira.nsw.gov.au/information-search/rehab-provider/detail?id=965,,,
Kairros - Blacktown,Kairros,28 Patrick Street,Blacktown,NSW,2148,Sydney West,02 9098 2660,https://www.sira.nsw.gov.au/information-search/rehab-provider/detail?id=839,,,
Kairros - Brisbane Qld,Kairros,4/113 Wickham Terrace,Brisbane City,QLD,4000,Queensland,02 9098 2660,https://www.sira.nsw.gov.au/information-search/rehab-provider/detail?id=971,,,
Kairros - Buderim,Kairros,3/49 Burnett Street,Buderim,QLD,4556,Queensland,02 9098 2660,https://www.sira.nsw.gov.au/information-search/rehab-provider/detail?id=1054,,,
Kairros - Chatswood,Kairros,Level 2 12 Thomas Street,Chatswood,NSW,2067,Sydney North,02 9098 2660,https://www.sira.nsw.gov.au/information-search/rehab-provider/detail?id=928,,,
Kairros - Coffs Harbour,Kairros,2 / 64 Albany Street,Coffs Harbour,NSW,2450,Mid North Coast,02 9098 2660,https://www.sira.nsw.gov.au/information-search/rehab-provider/detail?id=842,,,
Kairros - Dubbo,Kairros,1/207 Brisbane Street,Dubbo,NSW,2830,Central West,02 9098 2660,https://www.sira.nsw.gov.au/information-search/rehab-provider/detail?id=845,,,
Kairros - Gosford,Kairros,"Gateway Centre, Level 1, Suite 12 237 Mann Street",Gosford,NSW,2250,Central Coast,02 9098 2660,https://www.sira.nsw.gov.au/information-search/rehab-provider/detail?id=927,,,
Kairros - Goulburn,Kairros,3/53 Clifford Street,Goulburn,NSW,2580,Illawarra Shoalhaven,02 9098 2660,https://www.sira.nsw.gov.au/information-search/rehab-provider/detail?id=969,,,
Kairros - Lismore,Kairros,Ground Floor 4 Carrington Street,Lismore,NSW,2480,Far North Coast,02 9098 2660,https://www.sira.nsw.gov.au/information-search/rehab-provider/detail?id=964,,,
Kairros - Liverpool,Kairros,"Suite 203, 161 Bigge Street",Liverpool,NSW,2170,Sydney West,02 9601 0666,https://www.sira.nsw.gov.au/information-search/rehab-provider/detail?id=556,,,
Kairros - Manuka Act,Kairros,"Energyfit, 2, 1 Franklin Street",Manuka,ACT,2603,Act,02 9098 2660,https://www.sira.nsw.gov.au/information-search/rehab-provider/detail?id=968,,,
Kairros - Newcastle,Kairros,"Suite 5, Floor 2 15 Lambton Road",Broadmeadow,NSW,2292,Hunter,02 9098 2660,https://www.sira.nsw.gov.au/information-search/rehab-provider/detail?id=840,,,
Kairros - Nowra,Kairros,108B Kinghorne Street,Nowra,NSW,2541,South Coast Nsw,02 9098 2660,https://www.sira.nsw.gov.au/information-search/rehab-provider/detail?id=847,,,
Kairros - Orange,Kairros,Suite 4 179-181 Byng Street,Orange,NSW,2800,Central West,02 9098 2660,https://www.sira.nsw.gov.au/information-search/rehab-provider/detail?id=846,,,
Kairros - Penrith,Kairros,"Level 2, Suite 2002, Borec House 29 - 57 Station Street",Penrith,NSW,2750,"Nepean, Blue Mountains",02 9098 2660,https://www.sira.nsw.gov.au/information-search/rehab-provider/detail?id=967,,,
Kairros - Port Macquarie,Kairros,2 / 146-148 Gordon Street,Port Macquarie,NSW,2444,Mid North Coast,02 9098 2660,https://www.sira.nsw.gov.au/information-search/rehab-provider/detail?id=843,,,
Kairros - South Tamworth,Kairros,74A Robert Street,South Tamworth,NSW,2340,North West Slopes & Plains,02 9098 2660,https://www.sira.nsw.gov.au/information-search/rehab-provider/detail?id=966,,,
Kairros - Southport Qld,Kairros,"Level 2, 2205 Southport Central 5 Lawson Street",Southport,QLD,4215,Queensland,02 9098 2660,https://www.sira.nsw.gov.au/information-search/rehab-provider/detail?id=970,,,
Kairros - Sydney,Kairros,"Suite 2, Level 15 1 Market Street",Sydney,NSW,2000,Sydney Central,02 9098 2660,https://www.sira.nsw.gov.au/information-search/rehab-provider/detail?id=287,,,
Kairros - Tuggerah,Kairros,Suite 4 3 Bounty Close,Tuggerah,NSW,2259,Central Coast,02 9098 2660,https://www.sira.nsw.gov.au/information-search/rehab-provider/detail?id=841,,,
Kairros - Wagga Wagga,Kairros,66-70 Coleman Street,Wagga Wagga,NSW,2650,Riverina,02 9098 2660,https://www.sira.nsw.gov.au/information-search/rehab-provider/detail?id=1037,,,
Kairros - Wollongong,Kairros,43 Burelli Street,Wollongong,NSW,2500,Illawarra Shoalhaven,02 9098 2660,https://www.sira.nsw.gov.au/information-search/rehab-provider/detail?id=844,,,
Keystone Professionals,Keystone Professionals,"Unit 8, 6 Chaplin Drive",Lane Cove,NSW,2066,Sydney North,02 9427 3030,https://www.sira.nsw.gov.au/information-search/rehab-provider/detail?id=465,,,
Kinnect - Albury,Kinnect,"Level 1, 566 David Street",Albury,NSW,2640,Riverina,1300 546 632,https://www.sira.nsw.gov.au/information-search/rehab-provider/detail?id=1006,,,
Kinnect - Ballina,Kinnect,"Shop 3, 92 Tamar Street",Ballina,NSW,2478,Far North Coast,1300 546 632,https://www.sira.nsw.gov.au/information-search/rehab-provider/detail?id=997,,,
Kinnect - Bathurst,Kinnect,123 Howick Street,Bathurst,NSW,2795,Central West,1300 546 632,https://www.sira.nsw.gov.au/information-search/rehab-provider/detail?id=1003,,,
Kinnect - Brisbane,Kinnect,123 Logan Road,Woolloongabba,QLD,4102,Queensland,1300 546 632,https://www.sira.nsw.gov.au/information-search/rehab-provider/detail?id=825,,,
Kinnect - Coffs Harbour,Kinnect,44 Gordon Street,Coffs Harbour,NSW,2450,Mid North Coast,1300 546 632,https://www.sira.nsw.gov.au/information-search/rehab-provider/detail?id=999,,,
Kinnect - Dubbo,Kinnect,62 Windsor Parade,Dubbo,NSW,2830,Central West,1300 546 632,https://www.sira.nsw.gov.au/information-search/rehab-provider/detail?id=1001,,,
Kinnect - Mascot,Kinnect,Suite 10/56 Church Avenue,Mascot,NSW,2020,Sydney,1300 546 632,https://www.sira.nsw.gov.au/information-search/rehab-provider/detail?id=870,,,
Kinnect - Mermaid Beach,Kinnect,"Level 3, Suite 3, 2400 Gold Coast Highway",Mermaid Beach,QLD,4218,Queensland,1300 546 632,https://www.sira.nsw.gov.au/information-search/rehab-provider/detail?id=988,,,
Kinnect - Newcastle,Kinnect,"Suite 3, 4 Honeysuckle Drive",Newcastle,NSW,2300,Hunter,1300 546 632,https://www.sira.nsw.gov.au/information-search/rehab-provider/detail?id=818,,,
Kinnect - North Ryde,Kinnect,"Suite 2, Level 2 64 Talavera Road",Macquarie Park,NSW,2113,Sydney North,1300 546 632,https://www.sira.nsw.gov.au/information-search/rehab-provider/detail?id=809,,,
Kinnect - Nowra,Kinnect,107 Scenic Drive,Nowra,NSW,2541,Illawarra Shoalhaven,1300 546 632,https://www.sira.nsw.gov.au/information-search/rehab-provider/detail?id=1004,,,
Kinnect - Orange,Kinnect,110/227 Summer Street,Orange,NSW,2800,Central West,1300 546 632,https://www.sira.nsw.gov.au/information-search/rehab-provider/detail?id=1002,,,
Kinnect - Port Macquarie,Kinnect,152 Greenmeadows Drive,Port Macquarie,NSW,2444,Mid North Coast,1300 546 632,https://www.sira.nsw.gov.au/information-search/rehab-provider/detail?id=1000,,,
Kinnect - Sydney,Kinnect,"Level 1, 115 Pitt Street",Sydney,NSW,2000,Sydney,1300 546 632,https://www.sira.nsw.gov.au/information-search/rehab-provider/detail?id=802,,,
Kinnect - Tamworth,Kinnect,279B Marius Street,Tamworth,NSW,2340,North West Slopes & Plains,1300 546 632,https://www.sira.nsw.gov.au/information-search/rehab-provider/detail?id=998,,,
Kinnect - Wagga Wagga,Kinnect,8 Tanda Place,Glenfield Park,NSW,2650,Riverina,1300 546 632,https://www.sira.nsw.gov.au/information-search/rehab-provider/detail?id=1005,,,
Kinnect - West Gosford,Kinnect,171 Mann Street,Gosford,NSW,2250,Central Coast,1300 546 632,https://www.sira.nsw.gov.au/information-search/rehab-provider/detail?id=817,,,
Kinnect - Wollongong,Kinnect,325 Crown Street,Wollongong,NSW,2500,Illawarra Shoalhaven,1300 546 632,https://www.sira.nsw.gov.au/information-search/rehab-provider/detail?id=819,,,
Konekt - Albury,Konekt,"Suites 3 And 4, 622 Macauley Street",Albury,NSW,2640,Riverina,1300 723 375,https://www.sira.nsw.gov.au/information-search/rehab-provider/detail?id=241,,,
Konekt - Wollongong,Konekt,"Level 3, 43 Burelli Street",Wollongong,NSW,2500,Illawarra Shoalhaven,1300 723 375,https://www.sira.nsw.gov.au/information-search/rehab-provider/detail?id=243,,,
"Konekt - Nerang, Gold Coast",Konekt,"Suite 29, 207 Currumburra Road",Ashmore,QLD,4214,Qld,07 3230 8333,https://www.sira.nsw.gov.au/information-search/rehab-provider/detail?id=799,,,
Konekt - Ballina,Konekt,"Shop 1, 183 River Street",Ballina,NSW,2478,Northern Rivers,02 6623 7900,https://www.sira.nsw.gov.au/information-search/rehab-provider/detail?id=255,,,
Konekt - Batemans Bay,Konekt,"Unit 1, 43 Orient Street",Batemans Bay,NSW,2536,South Coast,1300 723 375,https://www.sira.nsw.gov.au/information-search/rehab-provider/detail?id=797,,,
Konekt - Brisbane,Konekt,"Level 3, 67 Astor Terrace",Spring Hill,QLD,4004,Queensland,07 3230 8333,https://www.sira.nsw.gov.au/information-search/rehab-provider/detail?id=449,,,
Konekt - Broken Hill,Konekt,257/259 Argent Street,Broken Hill,NSW,2880,Western Nsw,08 8214 4000,https://www.sira.nsw.gov.au/information-search/rehab-provider/detail?id=798,,,
Konekt - Canberra,Konekt,"Level 1, Suite 1.02, 54 Marcus Clarke Street",Canberra,ACT,2601,Act,1300 723 375,https://www.sira.nsw.gov.au/information-search/rehab-provider/detail?id=238,,,
Konekt - Coffs Harbour,Konekt,"Suite 202, Level 1, 24 Gordon Street",Coffs Harbour,NSW,2450,Mid North Coast,07 3230 8333,https://www.sira.nsw.gov.au/information-search/rehab-provider/detail?id=307,,,
Konekt - Liverpool,Konekt,"Suite 2, Level 5, 45-47 Scott Street",Liverpool,NSW,2170,Sydney West,1300 723 375,https://www.sira.nsw.gov.au/information-search/rehab-provider/detail?id=445,,,
Konekt - Newcastle,Konekt,121 Maitland Road,Mayfield,NSW,2304,Hunter,02 4903 5210,https://www.sira.nsw.gov.au/information-search/rehab-provider/detail?id=239,,,
Konekt - North Sydney,Konekt,"Suite 1, Level 13, 201 Miller Street",North Sydney,NSW,2060,Sydney North,02 9307 4007,https://www.sira.nsw.gov.au/information-search/rehab-provider/detail?id=316,,,
Konekt - Nowra,Konekt,Unit 201 Berry Street,Nowra,NSW,2541,Illawarra Shoalhaven,1300 723 375,https://www.sira.nsw.gov.au/information-search/rehab-provider/detail?id=688,,,
Konekt - Orange,Konekt,319/315-323 Summer Street,Orange,NSW,2800,Central West,1300 723 375,https://www.sira.nsw.gov.au/information-search/rehab-provider/detail?id=800,,,
Konekt - Parramatta,Konekt,"Suite 4, Ground Floor, 1-3 Fitzwilliam Street",Parramatta,NSW,2150,Sydney West,02 8843 0900,https://www.sira.nsw.gov.au/information-search/rehab-provider/detail?id=383,,,
Konekt - Penrith,Konekt,"Suite 4, 333 High Street",Penrith,NSW,2750,Nepean Blue Mountains,02 4777 9700,https://www.sira.nsw.gov.au/information-search/rehab-provider/detail?id=474,,,
Konekt - Port Macquarie,Konekt,"Shop 1 & 2, 147 Gordon Street",Port Macquarie,NSW,2444,Mid North Coast,1300 723 375,https://www.sira.nsw.gov.au/information-search/rehab-provider/detail?id=469,,,
Konekt - Tamworth,Konekt,239 Peel Street,Tamworth,NSW,2340,North West Slopes & Plains,1300 723 375,https://www.sira.nsw.gov.au/information-search/rehab-provider/detail?id=471,,,
Konekt - Tuggerah,Konekt,"U1c, 152-154 Pacific Highway",Tuggerah,NSW,2259,Central Coast,02 4356 4000,https://www.sira.nsw.gov.au/information-search/rehab-provider/detail?id=663,,,
Konekt - Wagga Wagga,Konekt,91 Peter Street,Wagga Wagga,NSW,2650,Riverina,1300 723 375,https://www.sira.nsw.gov.au/information-search/rehab-provider/detail?id=569,,,
Lifeworks Health Services,Lifeworks Health Services,Suite 3.15 5 Celebration Drive,Baulkham Hills,NSW,2153,Sydney West,1300 350 421,https://www.sira.nsw.gov.au/information-search/rehab-provider/detail?id=368,,,
Linked Rehab,Linked Rehab,"Level 1, 331 High Street",Penrith,NSW,2750,"Nepean, Blue Mountains",0420 633 129,https://www.sira.nsw.gov.au/information-search/rehab-provider/detail?id=1036,,,
Mayo Injury Management Service,Mayo Injury Management Service,Mayo Private Hospital 2 Potoroo Drive,Taree,NSW,2430,Mid North Coast,02 6552 0022,https://www.sira.nsw.gov.au/information-search/rehab-provider/detail?id=438,,,
Mend Services - Newcastle,Mend Services,165 Lambton Road,Broadmeadow,NSW,2292,Hunter,02 4979 0104,https://www.sira.nsw.gov.au/information-search/rehab-provider/detail?id=548,,,
Mend Services - Forest Lodge,Mend Services,"Level 1, 52 Parramatta Road",Forest Lodge,NSW,2037,Sydney Central,02 9660 8611,https://www.sira.nsw.gov.au/information-search/rehab-provider/detail?id=429,,,
Mend Services - Gosford,Mend Services,"Level 1, 4 Stockyard Place",Gosford,NSW,2250,Central Coast,02 9660 8611,https://www.sira.nsw.gov.au/information-search/rehab-provider/detail?id=547,,,
Mend Services - Norwest,Mend Services,"Master Builders Association Building, 5 Burbank Place",Norwest,NSW,2153,Sydney West,1300 176 774,https://www.sira.nsw.gov.au/information-search/rehab-provider/detail?id=1053,,,
Mend Services - Oran Park,Mend Services,"Level 2, 351 Oran Park Drive",Oran Park,NSW,2570,Sydney West,02 9660 8611,https://www.sira.nsw.gov.au/information-search/rehab-provider/detail?id=359,,,
Mend Services - Wollongong,Mend Services,66 Auburn Street,Wollongong,NSW,2500,Illawarra Shoalhaven,02 9660 8611,https://www.sira.nsw.gov.au/information-search/rehab-provider/detail?id=430,,,
Mp Safety Management,Mp Safety Management,Suite 3.203 7 Sefton Road,Thornleigh,NSW,2120,Sydney North,1300 855 458,https://www.sira.nsw.gov.au/information-search/rehab-provider/detail?id=340,,,
Northern Occ Rehab,Northern Occ Rehab,19 Earls Court,Goonellabah,NSW,2480,Northern Rivers,0404 801 074,https://www.sira.nsw.gov.au/information-search/rehab-provider/detail?id=935,,,
Ors - Corrimal,Ors,Units 1 And 2 17-421 Princes Highway,Corrimal,NSW,2518,Illawarra Shoalhaven,1800 000 677,https://www.sira.nsw.gov.au/information-search/rehab-provider/detail?id=1026,,,
Ors - Fyshwick,Ors,"Suite 5, 7 Geelong Street",Fyshwick,ACT,2609,Act,1800 000 677,https://www.sira.nsw.gov.au/information-search/rehab-provider/detail?id=929,,,
Ors - Gold Coast,Ors,"Level 13, 50 Cavill Avenue",Gold Coast Mc,QLD,4217,Far North Coast,1800 000 677,https://www.sira.nsw.gov.au/information-search/rehab-provider/detail?id=1028,,,
Ors - Gosford,Ors,"Gateway Centre, Suite 11, Level 2 237 Mann Street",Gosford,NSW,2250,Central Coast,1800 000 677,https://www.sira.nsw.gov.au/information-search/rehab-provider/detail?id=926,,,
Ors - Lane Cove,Ors,2 Lincoln Street,Lane Cove West,NSW,2066,Sydney North,1800 000 677,https://www.sira.nsw.gov.au/information-search/rehab-provider/detail?id=944,,,
Ors - Maitland,Ors,2/12 Ken Tubman Drive,Maitland,NSW,2320,Hunter,1800 000 677,https://www.sira.nsw.gov.au/information-search/rehab-provider/detail?id=973,,,
Ors - Mascot,Ors,"Unit 3B, 5 - 9 Ricketty Street",Mascot,NSW,2020,Sydney,1800 000 677,https://www.sira.nsw.gov.au/information-search/rehab-provider/detail?id=972,,,
Ors - Newcastle,Ors,Units 1 & 2 33 Newton Street,Broadmeadow,NSW,2292,Hunter,1800 000 677,https://www.sira.nsw.gov.au/information-search/rehab-provider/detail?id=566,,,
Ors - Port Macquarie,Ors,2/34 Jindalee Road,Port Macquarie,NSW,2444,Mid North Coast,1800 000 677,https://www.sira.nsw.gov.au/information-search/rehab-provider/detail?id=987,,,
Ors - Villawood,Ors,Suite 2.02 44 Mandarin Street,Fairfield East,NSW,2163,Sydney West,1800 000 677,https://www.sira.nsw.gov.au/information-search/rehab-provider/detail?id=418,,,
Ors - Wagga Wagga,Ors,1/45 Fitzmaurice Street,Wagga Wagga,NSW,2650,Riverina,1800 000 677,https://www.sira.nsw.gov.au/information-search/rehab-provider/detail?id=1027,,,
Perceptive Health,Perceptive Health,68 Matcham Road,Matcham,NSW,2250,Central Coast,02 8091 3318,https://www.sira.nsw.gov.au/information-search/rehab-provider/detail?id=994,,,
Perma Recovery,Perma Recovery,"Level 22, Westfield Tower Two 101 Grafton Street",Bondi Junction,NSW,2022,Sydney East,0493 685 228,https://www.sira.nsw.gov.au/information-search/rehab-provider/detail?id=1052,,,
Pinnacle Rehab,Pinnacle Rehab,"Level 4, 39-41 Chandos Street",St Leonards,NSW,1585,Sydney North,1300 591 438,https://www.sira.nsw.gov.au/information-search/rehab-provider/detail?id=670,,,
Platinum Rehabilitation Group,Platinum Rehabilitation Group,"Level 2, Suite 14 145-149 Forest Road",Hurstville,NSW,2220,Sydney South,02 9579 3114,https://www.sira.nsw.gov.au/information-search/rehab-provider/detail?id=871,,,
Prestige Health Services Australia (Phsa) - Sutherland,Prestige Health Services Australia (Phsa),Suite 2 33 Belmont Street,Sutherland,NSW,2232,Sydney,1300 522 141,https://www.sira.nsw.gov.au/information-search/rehab-provider/detail?id=806,,,
Prestige Health Services Australia (Phsa) - Warners Bay,Prestige Health Services Australia (Phsa),4/335 Hillsborough Road,Warners Bay,NSW,2282,Central Coast & Hunter,0488 292 490,https://www.sira.nsw.gov.au/information-search/rehab-provider/detail?id=923,,,
Proactiv People - Sydney,Proactiv People,2 Epson Road,Rosebery,NSW,2018,Sydney Central,0405 552 448,https://www.sira.nsw.gov.au/information-search/rehab-provider/detail?id=869,,,
Prowork Consultants,Prowork Consultants,78 Reynolds Avenue,Bankstown,NSW,2200,Sydney West,02 9790 8651,https://www.sira.nsw.gov.au/information-search/rehab-provider/detail?id=478,,,
Prudence Rehab,Prudence Rehab,"Suite 3, Level 4, 56 Clarence Street",Sydney,NSW,2000,Sydney,02 9283 5552,https://www.sira.nsw.gov.au/information-search/rehab-provider/detail?id=695,,,
"Recare Services - Cabarita, Tweed Coast",Recare Services,Shop 6 51 Tweed Coast Road,Cabarita Beach,NSW,2488,Far North Coast; Mid North Coast,02 8004 0828,https://www.sira.nsw.gov.au/information-search/rehab-provider/detail?id=882,,,
Recare Services - Gosford,Recare Services,1 Hill Street,Gosford,NSW,2250,Central Coast,02 8004 0828,https://www.sira.nsw.gov.au/information-search/rehab-provider/detail?id=883,,,
Recare Services - Pagewood,Recare Services,"Eastgardens Medical Centre, Westfield Cnr Bunnerong Road & Wentworth Avenue",Pagewood,NSW,2035,Sydney East,02 9344 7122,https://www.sira.nsw.gov.au/information-search/rehab-provider/detail?id=803,,,
Recare Services - Pottsville,Recare Services,Shop 5 8 Coronation Avenue,Pottsville,NSW,2489,Mid North Coast,02 8004 0828,https://www.sira.nsw.gov.au/information-search/rehab-provider/detail?id=881,,,
Recare Services - Wentworthville,Recare Services,"Level 4, 73-75 Dunmore Street",Wentworthville,NSW,2145,Sydney West,02 8004 0828,https://www.sira.nsw.gov.au/information-search/rehab-provider/detail?id=947,,,
Recovery Partners - Blacktown,Recovery Partners,"Suite 3, Level 3 85 Flushcombe Road",Blacktown,NSW,2148,Sydney West,02 9622 0075,https://www.sira.nsw.gov.au/information-search/rehab-provider/detail?id=648,,,
Recovery Partners - Brisbane,Recovery Partners,"Level 13, 269 Wickham Street",Fortitude Valley,QLD,4006,Queensland,1300 647 789,https://www.sira.nsw.gov.au/information-search/rehab-provider/detail?id=868,,,
Recovery Partners - Broadmeadow,Recovery Partners,66 Belford Street,Broadmeadow,NSW,2292,Hunter,1300 647 789,https://www.sira.nsw.gov.au/information-search/rehab-provider/detail?id=713,,,
Recovery Partners - Campbelltown,Recovery Partners,Suite 214 4 Hyde Parade,Campbelltown,NSW,2560,"Sydney South, Sydney South West",1300 647 789,https://www.sira.nsw.gov.au/information-search/rehab-provider/detail?id=867,,,
Recovery Partners - Canberra,Recovery Partners,"Suite 2W, Level 1 46 Hibberson Street",Gungahlin,ACT,2912,Act,1300 647 789,https://www.sira.nsw.gov.au/information-search/rehab-provider/detail?id=712,,,
Recovery Partners - Sutherland,Recovery Partners,"Suite 203, Ground Floor 3-5 Stapleton Avenue",Sutherland,NSW,2232,Sydney South,02 9532 0988,https://www.sira.nsw.gov.au/information-search/rehab-provider/detail?id=533,,,
Recovery Partners - Sydney,Recovery Partners,Suite 2.09 58 Pitt Street,Sydney,NSW,2000,Sydney Central,1300 647 789,https://www.sira.nsw.gov.au/information-search/rehab-provider/detail?id=753,,,
Recovery Partners - Wollongong,Recovery Partners,"Suite 1, Level 1 1 Rawson Street",Wollongong,NSW,2500,Illawarra Shoalhaven,1300 647 789,https://www.sira.nsw.gov.au/information-search/rehab-provider/detail?id=649,,,
Rehab Co - Albury,Rehab Co,432 Swift Street,Albury,NSW,2640,Riverina,02 6042 0600,https://www.sira.nsw.gov.au/information-search/rehab-provider/detail?id=499,,,
Rehab Co - Canberra,Rehab Co,26 Maryborough Street,Fyshwick,ACT,2609,"Act, Southern Highlands, Tablelands",02 6126 2000,https://www.sira.nsw.gov.au/information-search/rehab-provider/detail?id=501,,,
Rehab Co - Coffs Harbour,Rehab Co,Suite 30 The Jetty Village Shopping Centre 361 Harbour Drive,Coffs Harbour,NSW,2450,Mid North Coast,02 6699 3555,https://www.sira.nsw.gov.au/information-search/rehab-provider/detail?id=866,,,
Rehab Co - Griffith,Rehab Co,1/20 Banna Avenue,Griffith,NSW,2680,Riverina,02 6961 0700,https://www.sira.nsw.gov.au/information-search/rehab-provider/detail?id=500,,,
Rehab Co - Lismore,Rehab Co,"Suite 1F, 186 Molesworth Street",Lismore,NSW,2480,Northern Rivers,1300 575 652,https://www.sira.nsw.gov.au/information-search/rehab-provider/detail?id=932,,,
Rehab Co - Newcastle,Rehab Co,9/710 Hunter Street,Newcastle West,NSW,2302,"Hunter, Central Coast",02 4942 0700,https://www.sira.nsw.gov.au/information-search/rehab-provider/detail?id=783,,,
Rehab Co - Sydney,Rehab Co,"Level 4, 376 Bay Street",Brighton-Le-Sands,NSW,2216,"Sydney South, Sydney East, Sydney West",02 9503 9500,https://www.sira.nsw.gov.au/information-search/rehab-provider/detail?id=720,,,
Rehab Co - Tamworth,Rehab Co,121 Marius Street,Tamworth,NSW,2340,"North West Slopes & Plains, New England",02 6763 0000,https://www.sira.nsw.gov.au/information-search/rehab-provider/detail?id=865,,,
Rehab Co - Wagga Wagga,Rehab Co,50 Peter Street,Wagga Wagga,NSW,2650,Riverina,02 6923 0500,https://www.sira.nsw.gov.au/information-search/rehab-provider/detail?id=321,,,
Rehab Co - Wollongong,Rehab Co,90 Smith Street,Wollongong,NSW,2500,"Illawarra Shoalhaven, South Coast",02 4222 3500,https://www.sira.nsw.gov.au/information-search/rehab-provider/detail?id=721,,,
Rehab Co - Wyong,Rehab Co,"Kanwal Medical Complex Suite C30, 654 Pacific Highway",Kanwal,NSW,2259,Central Coast,02 4390 5279,https://www.sira.nsw.gov.au/information-search/rehab-provider/detail?id=877,,,
Rehab Dynamics,Rehab Dynamics,"Suite 510, 118 Church Street",Parramatta,NSW,2150,Sydney South West,02 9790 8407,https://www.sira.nsw.gov.au/information-search/rehab-provider/detail?id=311,,,
Rehab Focus Enterprise,Rehab Focus Enterprise,305 /160 Rowe Street,Eastwood,NSW,2122,Sydney,0433 160 212,https://www.sira.nsw.gov.au/information-search/rehab-provider/detail?id=521,,,
Rehab Management - Campbelltown,Rehab Management,"Ground Floor, Suite 4, 121 Queen Street",Campbelltown,NSW,2560,Sydney South West,1300 762 989,https://www.sira.nsw.gov.au/information-search/rehab-provider/detail?id=588,,,
Rehab Management - Albury,Rehab Management,602 Olive Street,Albury,NSW,2640,Riverina,1300 762 989,https://www.sira.nsw.gov.au/information-search/rehab-provider/detail?id=784,,,
Rehab Management - Central Coast,Rehab Management,"Suite C, 201 Mann Street",Gosford,NSW,2250,Central Coast,1300 762 989,https://www.sira.nsw.gov.au/information-search/rehab-provider/detail?id=595,,,
Rehab Management - Chatswood,Rehab Management,"Level 6, 10 Help Street",Chatswood,NSW,2067,Sydney North,1300 762 989,https://www.sira.nsw.gov.au/information-search/rehab-provider/detail?id=592,,,
Rehab Management - Coffs Harbour,Rehab Management,"Unit 3, 6 Elbow Street",Coffs Harbour,NSW,2450,Far North Coast; Mid North Coast,1300 762 989,https://www.sira.nsw.gov.au/information-search/rehab-provider/detail?id=780,,,
Rehab Management - Griffith,Rehab Management,233-237 Banna Avenue,Griffith,ACT,2603,"Act, Southern Highlands, Tablelands",1300 762 989,https://www.sira.nsw.gov.au/information-search/rehab-provider/detail?id=785,,,
Rehab Management - Hurstville,Rehab Management,"Suite 103, Level 1, 430 Forest Road",Hurstville,NSW,2220,Sydney South,1300 762 989,https://www.sira.nsw.gov.au/information-search/rehab-provider/detail?id=963,,,
Rehab Management - Lismore,Rehab Management,"Ground Floor, 49 Carrington Street",Lismore,NSW,2480,Northern Rivers,1300 762 989,https://www.sira.nsw.gov.au/information-search/rehab-provider/detail?id=786,,,
Rehab Management - Liverpool,Rehab Management,"Level 7, Suite 2, 269-273 Bigge Street",Liverpool,NSW,2170,Sydney West,1300 762 989,https://www.sira.nsw.gov.au/information-search/rehab-provider/detail?id=717,,,
Rehab Management - Maitland,Rehab Management,2A/52 Ken Tubman Drive,Maitland,NSW,2320,Hunter,1300 762 989,https://www.sira.nsw.gov.au/information-search/rehab-provider/detail?id=597,,,
Rehab Management - Miranda,Rehab Management,"Suite 303, 29 Kiora Road",Miranda,NSW,2228,Sydney South,1300 762 989,https://www.sira.nsw.gov.au/information-search/rehab-provider/detail?id=962,,,
Rehab Management - Newcastle,Rehab Management,"Lot 3, 142-158 Pacific Highway",Charlestown,NSW,2290,Hunter,1300 762 989,https://www.sira.nsw.gov.au/information-search/rehab-provider/detail?id=594,,,
Rehab Management - North Parramatta,Rehab Management,"Level 2, Suite 2.03 90-92 Phillip Street",Parramatta,NSW,2150,Sydney West,1300 762 989,https://www.sira.nsw.gov.au/information-search/rehab-provider/detail?id=372,,,
Rehab Management - Nowra,Rehab Management,81 North Street,Nowra,NSW,2541,South Coast Nsw,1300 762 989,https://www.sira.nsw.gov.au/information-search/rehab-provider/detail?id=787,,,
Rehab Management - Orange,Rehab Management,296-298 Summer Street,Orange,NSW,2800,Central West,1300 762 989,https://www.sira.nsw.gov.au/information-search/rehab-provider/detail?id=782,,,
Rehab Management - Penrith,Rehab Management,"Suite 2001, Level 2, Borec House 21-23 Station Street",Penrith,NSW,2750,Nepean Blue Mountains,1300 762 989,https://www.sira.nsw.gov.au/information-search/rehab-provider/detail?id=718,,,
Rehab Management - Port Macquarie,Rehab Management,"Suite 10, Level 1 106 William Street",Port Macquarie,NSW,2444,Far North Coast; Mid North Coast,1300 762 989,https://www.sira.nsw.gov.au/information-search/rehab-provider/detail?id=781,,,
Rehab Management - Queanbeyan,Rehab Management,"Ground Floor, Unit 1 31 Thesiger Court",Deakin,ACT,2600,"Act, Southern Highlands, Tablelands",1300 762 989,https://www.sira.nsw.gov.au/information-search/rehab-provider/detail?id=788,,,
Rehab Management - Rockdale,Rehab Management,"Level 2, 10 King Street",Rockdale,NSW,2216,Sydney South,1300 762 989,https://www.sira.nsw.gov.au/information-search/rehab-provider/detail?id=719,,,
Rehab Management - Singleton,Rehab Management,"Shop 8, 54-56 John Street",Singleton,NSW,2330,Hunter,1300 762 989,https://www.sira.nsw.gov.au/information-search/rehab-provider/detail?id=596,,,
Rehab Management - Sydney,Rehab Management,Suite 15.04 - Level 15 680 George Street,Sydney,NSW,2000,Sydney Central,1300 762 989,https://www.sira.nsw.gov.au/information-search/rehab-provider/detail?id=591,,,
Rehab Management - Tamworth,Rehab Management,2/235 Peel Street,Tamworth,NSW,2340,North West Slopes & Plains,1300 762 989,https://www.sira.nsw.gov.au/information-search/rehab-provider/detail?id=789,,,
Rehab Management - Wagga Wagga,Rehab Management,Business Enterprise Centre 48 Trail Street,Wagga Wagga,NSW,2650,Riverina,1300 762 989,https://www.sira.nsw.gov.au/information-search/rehab-provider/detail?id=790,,,
Rehab Management - Wollongong,Rehab Management,"Suite 6 Level 3, 166 Keira Street",Wollongong,NSW,2520,Illawarra Shoalhaven,1300 762 989,https://www.sira.nsw.gov.au/information-search/rehab-provider/detail?id=593,,,
Rehab Options Provider Services,Rehab Options Provider Services,Unit 25/22-30 Northumberland Road,Caringbah,NSW,2229,Sydney South,02 8543 5888,https://www.sira.nsw.gov.au/information-search/rehab-provider/detail?id=1033,,,
Rehab Solutions,Rehab Solutions,63-67 The Crescent,Fairfield,NSW,2165,Sydney South West,02 9728 9988,https://www.sira.nsw.gov.au/information-search/rehab-provider/detail?id=87,,,
Rehabilitation Services By Altius - Brisbane,Rehabilitation Services By Altius,Level 11 231 North Quay,Brisbane,QLD,4000,Queensland,1300 782 183,https://www.sira.nsw.gov.au/information-search/rehab-provider/detail?id=748,,,
Rehabilitation Services By Altius - Brookvale,Rehabilitation Services By Altius,8/688 Pittwater Road,Brookvale,NSW,2100,Sydney North,1300 782 182,https://www.sira.nsw.gov.au/information-search/rehab-provider/detail?id=874,,,
Rehabilitation Services By Altius - Byron Bay,Rehabilitation Services By Altius,Suite 4 9 Fletcher Street,Byron Bay,NSW,2481,Far North Coast,1300 782 183,https://www.sira.nsw.gov.au/information-search/rehab-provider/detail?id=747,,,
Rehabilitation Services By Altius - Campbelltown,Rehabilitation Services By Altius,"Suite 128, 4 Hyde Parade",Campbelltown,NSW,2560,Sydney South West,1300 782 182,https://www.sira.nsw.gov.au/information-search/rehab-provider/detail?id=875,,,
Rehabilitation Services By Altius - Canberra,Rehabilitation Services By Altius,"Suite 10, Level 3 161 London Circuit",Canberra,NSW,2600,Act,1300 782 183,https://www.sira.nsw.gov.au/information-search/rehab-provider/detail?id=680,,,
Rehabilitation Services By Altius - Coffs Harbour,Rehabilitation Services By Altius,"Level 6, 24 Moonee Street",Coffs Harbour,NSW,2450,Mid North Coast,1300 782 183,https://www.sira.nsw.gov.au/information-search/rehab-provider/detail?id=860,,,
Rehabilitation Services By Altius - Geelong,Rehabilitation Services By Altius,"Suite 201, Level 2 Office 8, 6-24 Moorabool Street",Geelong,VIC,3220,Victoria,1300 782 183,https://www.sira.nsw.gov.au/information-search/rehab-provider/detail?id=749,,,
Rehabilitation Services By Altius - Lithgow,Rehabilitation Services By Altius,58 Main Street,Lithgow,NSW,2790,Nepean Blue Mountains,1300 782 183,https://www.sira.nsw.gov.au/information-search/rehab-provider/detail?id=699,,,
Rehabilitation Services By Altius - Miranda,Rehabilitation Services By Altius,Suite 1 / 38- 40 Urunga Parade,Miranda,NSW,2228,Sydney South,1300 782 183,https://www.sira.nsw.gov.au/information-search/rehab-provider/detail?id=863,,,
Rehabilitation Services By Altius - Orange,Rehabilitation Services By Altius,Suite 3 59 Hill Street,Orange,NSW,2800,Central West,1300 782 183,https://www.sira.nsw.gov.au/information-search/rehab-provider/detail?id=862,,,
Rehabilitation Services By Altius - Parramatta,Rehabilitation Services By Altius,"Level 4, 34 Charles Street",Parramatta,NSW,2150,Sydney West,1300 782 183,https://www.sira.nsw.gov.au/information-search/rehab-provider/detail?id=654,,,
Rehabilitation Services By Altius - Penrith,Rehabilitation Services By Altius,"Borec House, Suite 3003B, Level 3 29-57 Station Street",Penrith,NSW,2750,Nepean Blue Mountains,1300 782 182,https://www.sira.nsw.gov.au/information-search/rehab-provider/detail?id=876,,,
Rehabilitation Services By Altius - Port Macquarie,Rehabilitation Services By Altius,"Level 3, Suite 1 41-47 Horton Street",Port Macquarie,NSW,2444,Mid North Coast,1300 782 183,https://www.sira.nsw.gov.au/information-search/rehab-provider/detail?id=861,,,
Rehabilitation Services By Altius - Sydney,Rehabilitation Services By Altius,"Level 4, 507-509 Kent Street",Sydney,NSW,2000,Sydney Central,1300 782 183,https://www.sira.nsw.gov.au/information-search/rehab-provider/detail?id=405,,,
Rehabilitation Services By Altius - Tamworth,Rehabilitation Services By Altius,307 Peel Street,Tamworth,NSW,2340,New England,1300 782 183,https://www.sira.nsw.gov.au/information-search/rehab-provider/detail?id=745,,,
Rehabilitation Services By Altius - Tuggerah,Rehabilitation Services By Altius,6 Reliance Drive,Tuggerah,NSW,2259,Central Coast,1300 782 183,https://www.sira.nsw.gov.au/information-search/rehab-provider/detail?id=746,,,
Rehabilitation Services By Altius - Wollongong,Rehabilitation Services By Altius,"Level 3, 172-174 Keira Street",Wollongong,NSW,2500,Illawarra Shoalhaven,1300 782 183,https://www.sira.nsw.gov.au/information-search/rehab-provider/detail?id=700,,,
Rehabilitation Services By Altius - Young,Rehabilitation Services By Altius,19 Lovell Street,Young,NSW,2594,South West Nsw,1300 782 182,https://www.sira.nsw.gov.au/information-search/rehab-provider/detail?id=911,,,
Rehabilitation Services By Altius- Newcastle,Rehabilitation Services By Altius- Newcastle,"Suite 21, 19 Bolton Street",Newcastle,NSW,2300,Hunter,1300 782 183,https://www.sira.nsw.gov.au/information-search/rehab-provider/detail?id=679,,,
Rehabnet,Rehabnet,110 Moore Street,Liverpool,NSW,2170,Sydney South West,0412 710 186,https://www.sira.nsw.gov.au/information-search/rehab-provider/detail?id=697,,,
Resilia,Resilia,"Level 5, 20 Hunter Street",Sydney,NSW,2000,Sydney Central,02 8243 1500,https://www.sira.nsw.gov.au/information-search/rehab-provider/detail?id=702,,,
Rocket Rehab,Rocket Rehab,5 George Street,North Strathfield,NSW,2137,Sydney,0422 595 326,https://www.sira.nsw.gov.au/information-search/rehab-provider/detail?id=796,,,
Rtw Rehab,Rtw Rehab,"Level 1, Suite 1-3 1017-1019 Victoria Road",West Ryde,NSW,2114,Sydney North,1300 680 696,https://www.sira.nsw.gov.au/information-search/rehab-provider/detail?id=335,,,
Santegis - Albury,Santegis,460 Swift Street,Albury,NSW,2640,Riverina,1300 378 904,https://www.sira.nsw.gov.au/information-search/rehab-provider/detail?id=1022,,,
Santegis - Brisbane,Santegis,25 Bouquet Street,South Brisbane,QLD,4101,"Far North Coast, Qld",1300 378 904,https://www.sira.nsw.gov.au/information-search/rehab-provider/detail?id=1024,,,
Santegis - Canberra,Santegis,"Level 10, 1 Constitution Avenue",Canberra,ACT,2601,Act,1300 378 904,https://www.sira.nsw.gov.au/information-search/rehab-provider/detail?id=1025,,,
Santegis - Denistone,Santegis,61 Pennant Avenue,Denistone,NSW,2114,Sydney North,1300 378 904,https://www.sira.nsw.gov.au/information-search/rehab-provider/detail?id=986,,,
Santegis - Newcastle,Santegis,2 Portside Crescent,Maryville,NSW,2293,Hunter,1300 378 904,https://www.sira.nsw.gov.au/information-search/rehab-provider/detail?id=1020,,,
Santegis - Parramatta,Santegis,"Suite 21, 103 George Street",Parramatta,NSW,2150,Sydney West,1300 378 904,https://www.sira.nsw.gov.au/information-search/rehab-provider/detail?id=1017,,,
Santegis - Penrith,Santegis,"Suite 2, 387-389 High Street",Penrith,NSW,2750,"Nepean, Blue Mountains",1300 378 904,https://www.sira.nsw.gov.au/information-search/rehab-provider/detail?id=1018,,,
Santegis - Sydney,Santegis,G105/25 Brisbane Street,Surry Hills,NSW,2010,Sydney Central,1300 378 904,https://www.sira.nsw.gov.au/information-search/rehab-provider/detail?id=1019,,,
Santegis - Tamworth,Santegis,307 Peel Street,Tamworth,NSW,2340,North West Slopes & Plains,1300 378 904,https://www.sira.nsw.gov.au/information-search/rehab-provider/detail?id=1023,,,
Santegis - Wollongong,Santegis,"Level 1, 1 Burelli Street",Wollongong,NSW,2500,Illawarra Shoalhaven,1300 378 904,https://www.sira.nsw.gov.au/information-search/rehab-provider/detail?id=1021,,,
Sayf Recovery - Sydney,Sayf Recovery,903/50 Clarence Street,Sydney,NSW,2000,Sydney Central,0452 419 195,https://www.sira.nsw.gov.au/information-search/rehab-provider/detail?id=1029,,,
Sis Rehab,Sis Rehab,Unit 1 190 George Street,Parramatta,NSW,2150,Sydney West,02 9890 9330,https://www.sira.nsw.gov.au/information-search/rehab-provider/detail?id=514,,,
Skilled Health Pty Ltd,Skilled Health Pty Ltd,Suite 1 26 Castlereagh Street,Sydney,NSW,2000,Sydney,1300 970 970,https://www.sira.nsw.gov.au/information-search/rehab-provider/detail?id=687,,,
South East Injury Management - Bega,South East Injury Management,15 Canning Street,Bega,NSW,2550,South Coast Nsw,1300 734 742,https://www.sira.nsw.gov.au/information-search/rehab-provider/detail?id=771,,,
South East Injury Management - Cooma,South East Injury Management,62 Bombala Street,Cooma,NSW,2630,South East Nsw,1300 734 742,https://www.sira.nsw.gov.au/information-search/rehab-provider/detail?id=772,,,
South East Injury Management - Eden,South East Injury Management,Cnr Chandos Street & Imlays Street,Eden,NSW,2551,South Coast Nsw,1300 734 742,https://www.sira.nsw.gov.au/information-search/rehab-provider/detail?id=775,,,
South East Injury Management - Jindabyne,South East Injury Management,Thredbo Terrace,Jindabyne,NSW,2627,South East Nsw,1300 734 742,https://www.sira.nsw.gov.au/information-search/rehab-provider/detail?id=774,,,
South East Injury Management - Merimbula,South East Injury Management,3 Sapphire Coast Drive,Merimbula,NSW,2548,South Coast Nsw,1300 734 742,https://www.sira.nsw.gov.au/information-search/rehab-provider/detail?id=773,,,
Star Ims,Star Ims,"Suite 2, Level 3, 2012 Foveaux Street",Surry Hills,NSW,2000,Sydney,02 8029 0593,https://www.sira.nsw.gov.au/information-search/rehab-provider/detail?id=805,,,
Strategic Rehab Solutions,Strategic Rehab Solutions,Level 1/ 22-28 Edgeworth David Avenue,Hornsby,NSW,2077,Sydney North,02 9440 4988,https://www.sira.nsw.gov.au/information-search/rehab-provider/detail?id=536,,,
Sydney Occupational Services,Sydney Occupational Services,"Level 14, 3 Parramatta Square 153 Macquarie Street",Parramatta,NSW,2150,Sydney West,02 9615 9791,https://www.sira.nsw.gov.au/information-search/rehab-provider/detail?id=513,,,
Synergy Medical Pty Ltd,Synergy Medical Pty Ltd,1/179 Burwood Road,Burwood,NSW,2134,Sydney Central,02 9744 8809,https://www.sira.nsw.gov.au/information-search/rehab-provider/detail?id=485,,,
The Procare Group - Albury,The Procare Group,459 Kiewa Street,Albury,NSW,2640,Riverina,02 6021 6762,https://www.sira.nsw.gov.au/information-search/rehab-provider/detail?id=949,,,
"The Procare Group - Bundall, Qld",The Procare Group,47 Ashmore Road,Bundall,QLD,4217,Queensland,07 5538 8988,https://www.sira.nsw.gov.au/information-search/rehab-provider/detail?id=976,,,
"The Procare Group - Canberra, Act",The Procare Group,"Unit 7, 6 Phipps Close",Deakin,ACT,2600,Act,02 6171 7470,https://www.sira.nsw.gov.au/information-search/rehab-provider/detail?id=948,,,
The Procare Group - Coffs Harbour,The Procare Group,8/6 Elbow Street,Coffs Harbour,NSW,2450,Mid North Coast,02 5616 0065,https://www.sira.nsw.gov.au/information-search/rehab-provider/detail?id=950,,,
The Procare Group - Gosford,The Procare Group,Unit 4 / 3 Pioneer Avenue,Tuggerah,NSW,2259,Central Coast,02 4243 7633,https://www.sira.nsw.gov.au/information-search/rehab-provider/detail?id=951,,,
The Procare Group - Lismore,The Procare Group,"1 Cook Street, South Lismore, Nsw, 2480",South Lismore,NSW,2480,Northern Rivers,02 5699 9020,https://www.sira.nsw.gov.au/information-search/rehab-provider/detail?id=952,,,
The Procare Group - Macquarie Park,The Procare Group,7 Eden Park Drive,Macquarie Park,NSW,2113,Sydney,02 8935 9426 / 0417 457 392,https://www.sira.nsw.gov.au/information-search/rehab-provider/detail?id=974,,,
The Procare Group - Newcastle,The Procare Group,"Level 2, 47 Darby Street",Cooks Hill,NSW,2300,Hunter,02 9086 8080 / 02 4047 9980,https://www.sira.nsw.gov.au/information-search/rehab-provider/detail?id=879,,,
The Procare Group - Orange,The Procare Group,"Suite 9, Level 2, Centrepoint Arcade 226-232 Summer Street",Orange,NSW,2800,Nepean Blue Mountains,02 6397 3947,https://www.sira.nsw.gov.au/information-search/rehab-provider/detail?id=953,,,
The Procare Group - Parramatta,The Procare Group,"Level 3, 90 Phillip Street",Parramatta,NSW,2150,Sydney West,02 9086 8080 / 02 8379 2984,https://www.sira.nsw.gov.au/information-search/rehab-provider/detail?id=878,,,
The Procare Group - Penrith,The Procare Group,"Unit 2, 311 High Street",Penrith,NSW,2750,"Nepean, Blue Mountains",02 9086 8000,https://www.sira.nsw.gov.au/information-search/rehab-provider/detail?id=1046,,,
The Procare Group - Port Macquarie,The Procare Group,1/28 Gore Street,Port Macquarie,NSW,2444,Mid North Coast,02 5555 6993,https://www.sira.nsw.gov.au/information-search/rehab-provider/detail?id=954,,,
The Procare Group - Sydney,The Procare Group,"Level 1, Building 3 190 Bourke Street",Alexandria,NSW,2015,Sydney Central,02 9086 8080,https://www.sira.nsw.gov.au/information-search/rehab-provider/detail?id=497,,,
The Procare Group - Sydney Cbd,The Procare Group,"Level 6, 724 -728 George Street",Haymarket,NSW,2000,Sydney Central,02 9086 8000,https://www.sira.nsw.gov.au/information-search/rehab-provider/detail?id=955,,,
The Procare Group - Tamworth,The Procare Group,1/121 Carthage House Carthage Street,Tamworth,NSW,2340,North West Slopes & Plains,02 5700 5782,https://www.sira.nsw.gov.au/information-search/rehab-provider/detail?id=956,,,
The Procare Group - Tweed Heads,The Procare Group,5/1 Sands Street,Tweed Heads,NSW,2485,Far North Coast,02 9086 8000,https://www.sira.nsw.gov.au/information-search/rehab-provider/detail?id=975,,,
The Procare Group - Wollongong,The Procare Group,201/53-61 Crown Street,Wollongong,NSW,2500,Illawarra Shoalhaven,02 4243 7632,https://www.sira.nsw.gov.au/information-search/rehab-provider/detail?id=957,,,
The Recovre Group - Bathurst,The Recovre Group,2/2 Littlebourne Street,Kelso,NSW,2795,Central West,1300 550 276,https://www.sira.nsw.gov.au/information-search/rehab-provider/detail?id=646,,,
The Recovre Group - Campbelltown,The Recovre Group,Suite 3.08 4 Hyde Parade,Campbelltown,NSW,2560,Sydney South West,1300 550 276,https://www.sira.nsw.gov.au/information-search/rehab-provider/detail?id=330,,,
The Recovre Group - Canberra,The Recovre Group,Suite 5.03 Level 5 14 Moore Street,Canberra City,ACT,2600,Act,1300 550 276,https://www.sira.nsw.gov.au/information-search/rehab-provider/detail?id=225,,,
The Recovre Group - Central Coast,The Recovre Group,Nexus Business Hub 3 Amy Close,North Wyong,NSW,2259,Central Coast,1300 550 276,https://www.sira.nsw.gov.au/information-search/rehab-provider/detail?id=387,,,
The Recovre Group - Dubbo,The Recovre Group,Suite 2 150 Darling Street,Dubbo,NSW,2830,Central West,1300 550 276,https://www.sira.nsw.gov.au/information-search/rehab-provider/detail?id=274,,,
The Recovre Group - Newcastle,The Recovre Group,144 Parry Street,Newcastle West,NSW,2302,Hunter,1300 550 276,https://www.sira.nsw.gov.au/information-search/rehab-provider/detail?id=229,,,
The Recovre Group - Orange,The Recovre Group,135 Sale Street,Orange,NSW,2800,Central West,1300 550 276,https://www.sira.nsw.gov.au/information-search/rehab-provider/detail?id=399,,,
The Recovre Group - Parramatta,The Recovre Group,"Level 15, 60 Station Street East",Parramatta,NSW,2150,Sydney West,1300 550 276,https://www.sira.nsw.gov.au/information-search/rehab-provider/detail?id=590,,,
The Recovre Group - Sydney,The Recovre Group,One International Towers 100 Barangaroo Avenue,Sydney,NSW,2000,Sydney Central,1300 550 276,https://www.sira.nsw.gov.au/information-search/rehab-provider/detail?id=232,,,
The Recovre Group - Tamworth,The Recovre Group,307 Peel Street,East Tamworth,NSW,2340,North West Slopes & Plains,1300 550 276,https://www.sira.nsw.gov.au/information-search/rehab-provider/detail?id=233,,,
The Recovre Group - Wollongong,The Recovre Group,101 Crown Street,Wollongong,NSW,2500,Illawarra Shoalhaven,1300 550 276,https://www.sira.nsw.gov.au/information-search/rehab-provider/detail?id=273,,,
The Rehab Group,The Rehab Group,246 Pacific Highway,Crows Nest,NSW,2065,Sydney North,02 9904 2710,https://www.sira.nsw.gov.au/information-search/rehab-provider/detail?id=696,,,
The Rehabilitation Specialists - Act,The Rehabilitation Specialists,9/27 Yallourn Street,Fyshwick,ACT,2609,Act,1800 073 422,https://www.sira.nsw.gov.au/information-search/rehab-provider/detail?id=393,,,
The Rehabilitation Specialists - Sydney,The Rehabilitation Specialists,Stone And Chalk 477 Pitt Street,Haymarket,NSW,2000,Sydney Central,1800 073 422,https://www.sira.nsw.gov.au/information-search/rehab-provider/detail?id=920,,,
Work Options - Blacktown,Work Options,Tenancy 4023 Westpoint 17 Patrick Street,Blacktown,NSW,2148,Sydney West,02 9957 1300,https://www.sira.nsw.gov.au/information-search/rehab-provider/detail?id=638,,,
Work Options - Canberra,Work Options,"Level 4, 15 Moore Street",Canberra,ACT,2601,Act,02 6169 4185,https://www.sira.nsw.gov.au/information-search/rehab-provider/detail?id=945,,,
Work Options - Coffs Harbour,Work Options,"Room 5, Coffs Health Hub 4/30 Orlando Street",Coffs Harbour,NSW,2450,Mid North Coast,02 6651 5516,https://www.sira.nsw.gov.au/information-search/rehab-provider/detail?id=655,,,
Work Options - Newcastle,Work Options,"Suite 16, Level 2, Otp House 10 Bradford Close",Kotara,NSW,2289,Hunter,02 4952 4433,https://www.sira.nsw.gov.au/information-search/rehab-provider/detail?id=639,,,
Work Options - North Sydney,Work Options,"Suite 803, Level 8 146 Arthur Street",North Sydney,NSW,2060,Sydney North,02 9957 1300,https://www.sira.nsw.gov.au/information-search/rehab-provider/detail?id=412,,,
Work Options - Penrith,Work Options,Level 1 95 Station Street,Penrith,NSW,2750,"Nepean, Blue Mountains, Sydney West, Sydney South West, Sydney, Nsw",02 9957 1300,https://www.sira.nsw.gov.au/information-search/rehab-provider/detail?id=1042,,,
Work Options - Tamworth,Work Options,Level 1 307 Peel Street,Tamworth,NSW,2340,"Far North Coast, Mid North Coast, New England, North Coast, Northern Rivers, North West Slopes & Plains, North Eastern Nsw, Nsw",02 9957 1300,https://www.sira.nsw.gov.au/information-search/rehab-provider/detail?id=1041,,,
Work Options - Wollongong,Work Options,"Level 1, Burelli Street",Wollongong,NSW,2500,Illawarra Shoalhaven,02 4254 1072,https://www.sira.nsw.gov.au/information-search/rehab-provider/detail?id=946,,,
Work Rehab - Albury / Wodonga,Work Rehab,Regional Business Hub 15 High Street,Wodonga,VIC,3690,Riverina,1300 856 440,https://www.sira.nsw.gov.au/information-search/rehab-provider/detail?id=902,,,
Work Rehab - Batemans Bay,Work Rehab,12 Vesper Street,Batemans Bay,NSW,2536,South Coast,02 4415 1800,https://www.sira.nsw.gov.au/information-search/rehab-provider/detail?id=1045,,,
Work Rehab - Bathurst,Work Rehab,103 Piper Street,Bathurst,NSW,2795,Nepean Blue Mountains,1300 856 440,https://www.sira.nsw.gov.au/information-search/rehab-provider/detail?id=906,,,
Work Rehab - Campbelltown,Work Rehab,70 Topham Road,Smeaton Grange,NSW,2567,Southern Highlands,1300 856 440,https://www.sira.nsw.gov.au/information-search/rehab-provider/detail?id=907,,,
Work Rehab - Canberra,Work Rehab,Unit 1 22 Napier Close,Deakin,ACT,2600,Act,1300 856 440,https://www.sira.nsw.gov.au/information-search/rehab-provider/detail?id=897,,,
Work Rehab - Chatswood,Work Rehab,821 Pacific Highway,Chatswood,NSW,2067,Sydney North,1300 856 440,https://www.sira.nsw.gov.au/information-search/rehab-provider/detail?id=908,,,
Work Rehab - Coffs Harbour,Work Rehab,The Professional Centre 1/9 Park Avenue,Coffs Harbour,NSW,2450,Mid North Coast,1300 856 440,https://www.sira.nsw.gov.au/information-search/rehab-provider/detail?id=835,,,
Work Rehab - Dubbo,Work Rehab,1/80 Gipps Street,Dubbo,NSW,2830,Central West,1300 856 440,https://www.sira.nsw.gov.au/information-search/rehab-provider/detail?id=905,,,
Work Rehab - Hornsby,Work Rehab,"Suite 1A, Level 2 802 Pacific Highway",Gordon,NSW,2072,Sydney North,1300 856 440,https://www.sira.nsw.gov.au/information-search/rehab-provider/detail?id=830,,,
Work Rehab - Lismore,Work Rehab,50 Oliver Avenue,Goonellabah,NSW,2480,Northern Rivers,1300 856 440,https://www.sira.nsw.gov.au/information-search/rehab-provider/detail?id=900,,,
Work Rehab - Liverpool,Work Rehab,2/215-219 George Street,Liverpool,NSW,2170,Sydney West,1300 856 440,https://www.sira.nsw.gov.au/information-search/rehab-provider/detail?id=831,,,
Work Rehab - Maitland,Work Rehab,48 Melbourne Street,East Maitland,NSW,2323,Hunter,1300 856 440,https://www.sira.nsw.gov.au/information-search/rehab-provider/detail?id=898,,,
Work Rehab - Miranda,Work Rehab,"Suite 210, 29 Kiora Road",Miranda,NSW,2228,Sydney South,1300 856 440,https://www.sira.nsw.gov.au/information-search/rehab-provider/detail?id=778,,,
Work Rehab - Newcastle,Work Rehab,36 Johns Street,Warners Bay,NSW,2282,Hunter,1300 856 440,https://www.sira.nsw.gov.au/information-search/rehab-provider/detail?id=829,,,
Work Rehab - North Strathfield,Work Rehab,"Suite5, Level 2, 22 George Street",North Strathfield,NSW,2137,Sydney,1300 856 440,https://www.sira.nsw.gov.au/information-search/rehab-provider/detail?id=828,,,
Work Rehab - Orange,Work Rehab,Level 1 34 Sale Street,Bathurst,NSW,2795,Central West,1300 856 440,https://www.sira.nsw.gov.au/information-search/rehab-provider/detail?id=832,,,
Work Rehab - Parramatta,Work Rehab,91 Phillip Street,Parramatta,NSW,2150,Sydney West,1300 856 440,https://www.sira.nsw.gov.au/information-search/rehab-provider/detail?id=903,,,
Work Rehab - Penrith,Work Rehab,95B Station Street,Penrith,NSW,2750,Nepean Blue Mountains,1300 856 440,https://www.sira.nsw.gov.au/information-search/rehab-provider/detail?id=904,,,
Work Rehab - Port Macquarie,Work Rehab,Glasshouse Port Macquarie Cnr Clarence And Hay Streets,Port Macquarie,NSW,2444,Mid North Coast,1300 856 440,https://www.sira.nsw.gov.au/information-search/rehab-provider/detail?id=834,,,
Work Rehab - Singleton,Work Rehab,Ground Floor 254 John Street,Singleton,NSW,2330,Hunter,1300 856 440,https://www.sira.nsw.gov.au/information-search/rehab-provider/detail?id=899,,,
Work Rehab - Tamworth,Work Rehab,Shop 7 Atrium 345 Peel Street,Tamworth,NSW,2340,North West Slopes & Plains,1300 856 440,https://www.sira.nsw.gov.au/information-search/rehab-provider/detail?id=833,,,
Work Rehab - Wollongong,Work Rehab,1 Burelli Street,Wollongong,NSW,2500,Illawarra Shoalhaven,1300 856 440,https://www.sira.nsw.gov.au/information-search/rehab-provider/detail?id=779,,,
Work Rehab - Wyong,Work Rehab,3 Amy Close,Wyong,NSW,2259,Central Coast,1300 856 440,https://www.sira.nsw.gov.au/information-search/rehab-provider/detail?id=901,,,
Workactive Injury Management & Rehabilitation,Workactive Injury Management & Rehabilitation,194 Heathcote Road,Hammondville,NSW,2170,Sydney West,1300 196 752,https://www.sira.nsw.gov.au/information-search/rehab-provider/detail?id=403,,,
Workcare Group,Workcare Group,21 Darrell Road,Calala,NSW,2340,North West Slopes & Plains,0412 412 910,https://www.sira.nsw.gov.au/information-search/rehab-provider/detail?id=1048,,,
Workcom - Sydney,Workcom,44 Market Street,Sydney,NSW,2000,Sydney Central,1300 654 425,https://www.sira.nsw.gov.au/information-search/rehab-provider/detail?id=1031,,,
Workers Health Centre - Newcastle,Workers Health Centre,"Level 2, Suite 4, Devonshire House 406-408 King Street",Newcastle West,NSW,2302,Hunter,02 9749 7666,https://www.sira.nsw.gov.au/information-search/rehab-provider/detail?id=586,,,
Workers Health Centre - Parramatta,Workers Health Centre,"Level 4, Suite 2 20 - 24 Wentworth Street",Parramatta,NSW,2150,Sydney West,02 9749 7666,https://www.sira.nsw.gov.au/information-search/rehab-provider/detail?id=587,,,
Workfocus - Orange,Workfocus,Suite 4 179-181 Byng Street,Orange,NSW,2800,Central West,02 6361 6600,https://www.sira.nsw.gov.au/information-search/rehab-provider/detail?id=463,,,
Workfocus - Albury,Workfocus,118 Hovell Street,Albury,NSW,2640,Riverina,02 6239 8700,https://www.sira.nsw.gov.au/information-search/rehab-provider/detail?id=848,,,
Workfocus - Brisbane,Workfocus,"Level 12, 295 Ann Street",Brisbane,QLD,4000,Queensland,07 3366 2775,https://www.sira.nsw.gov.au/information-search/rehab-provider/detail?id=656,,,
Workfocus - Canberra,Workfocus,"Suite 343, 2 Endeavour House Captain Cook Crescent",Manuka,ACT,2603,Act,02 6239 8709,https://www.sira.nsw.gov.au/information-search/rehab-provider/detail?id=650,,,
Workfocus - Central Coast,Workfocus,"Suite 3, 11 Platinum Building 4 Ilya Avenue",Erina,NSW,2250,Central Coast,1300 570 181,https://www.sira.nsw.gov.au/information-search/rehab-provider/detail?id=549,,,
Workfocus - Deniliquin,Workfocus,282 George Street,Deniliquin,NSW,2710,Riverina,02 6239 8700,https://www.sira.nsw.gov.au/information-search/rehab-provider/detail?id=850,,,
Workfocus - Dubbo,Workfocus,1/207 Brisbane Street,Dubbo,NSW,2830,Central West,02 6361 6600,https://www.sira.nsw.gov.au/information-search/rehab-provider/detail?id=550,,,
Workfocus - Griffith,Workfocus,86 Yambil Street,Griffith,NSW,2680,Riverina,02 6239 8700,https://www.sira.nsw.gov.au/information-search/rehab-provider/detail?id=851,,,
Workfocus - Lismore,Workfocus,"Suite 9B, Conway Plaza 21 Conway Street",Lismore,NSW,2480,Northern Rivers,02 4929 6565,https://www.sira.nsw.gov.au/information-search/rehab-provider/detail?id=853,,,
Workfocus - Newcastle,Workfocus,"Level 2, 15 Lambton Road",Broadmeadow,NSW,2292,Hunter,02 4929 6565,https://www.sira.nsw.gov.au/information-search/rehab-provider/detail?id=425,,,
Workfocus - Nowra,Workfocus,108B Kinghorne Street,Nowra,NSW,2541,Illawarra Shoalhaven,02 4254 3300,https://www.sira.nsw.gov.au/information-search/rehab-provider/detail?id=849,,,
Workfocus - Port Macquarie,Workfocus,"C/- Level 3, 116 Hunter Street",Newcastle,NSW,2300,Mid North Coast,02 4929 6565,https://www.sira.nsw.gov.au/information-search/rehab-provider/detail?id=551,,,
Workfocus - Sydney,Workfocus,"Suite 1, Level 15 1 Market Street",Sydney,NSW,2000,Sydney Central,02 9098 2600,https://www.sira.nsw.gov.au/information-search/rehab-provider/detail?id=391,,,
Workfocus - Tamworth,Workfocus,Suite 14 & 15 Shop 7/345 Peel Street,Tamworth,NSW,2340,North West Slopes & Plains,02 4929 6565,https://www.sira.nsw.gov.au/information-search/rehab-provider/detail?id=552,,,
Workfocus - Wagga Wagga,Workfocus,66-70 Coleman Street,Wagga Wagga,NSW,2650,Riverina,02 6239 8700,https://www.sira.nsw.gov.au/information-search/rehab-provider/detail?id=852,,,
Workfocus - Wollongong,Workfocus,Level 5 304 Crown Street,Wollongong,NSW,2500,Illawarra Shoalhaven,02 4254 3300,https://www.sira.nsw.gov.au/information-search/rehab-provider/detail?id=553,,,
Workplace Oh&S Solutions,Workplace Oh&S Solutions,Po Box 523,Miranda,NSW,1409,"Act, Southern Highlands, Tablelands, Central Coast, Central West, Mid North Coast, Far North Coast, Hunter, Illawarra And Shoalhaven, Blue Mountains, North West Slopes And Plains, Riverina, South Coast, Sydney, Western Nsw",1800 013 429,https://www.sira.nsw.gov.au/information-search/rehab-provider/detail?id=540,,,
Workplace Rehabilitation Management,Workplace Rehabilitation Management,19 Brookhollow Avenue,Norwest Business Park,NSW,2153,"Sydney West, Sydney South West",1300 853 681,https://www.sira.nsw.gov.au/information-search/rehab-provider/detail?id=466,,,
Worksmart Rehabilitation Pty Ltd,Worksmart Rehabilitation Pty Ltd,520/368 Sussex Street,Sydney,NSW,2000,Sydney Central,02 8964 9234,https://www.sira.nsw.gov.au/information-search/rehab-provider/detail?id=455,,,
