Name,Company,Business address,Suburb,State,Postcode,Region,Phone,Link,Provider number,Latitude,Longitude
32 And Sunny,32 And Sunny,"Level 24, Three International Towers 300 Barangaroo Avenue",Sydney,NSW,2000,Sydney,0425 259 381,https://www.sira.nsw.gov.au/information-search/rehab-provider/detail?id=892,868,-33.8692957,151.2070786
365 Rehab,365 Rehab,4/6A The Crescent,Kingsgrove,NSW,2208,Sydney South,1300 742 365,https://www.sira.nsw.gov.au/information-search/rehab-provider/detail?id=1051,1026,-33.9433367,151.0926297
Ability Rehabilitation Services,Ability Rehabilitation Services,78 John Street,Camden,NSW,2570,Sydney West,02 4656 1819,https://www.sira.nsw.gov.au/information-search/rehab-provider/detail?id=1047,1022,-34.0175979,150.7164221
Ache Group - Sydney,Ache Group,"Suite 2, Level 6 2 Barrack Street",Sydney,NSW,2000,Sydney Central,02 8089 0262,https://www.sira.nsw.gov.au/information-search/rehab-provider/detail?id=1039,1014,-33.8692957,151.2070786
Actevate - Brookvale,Actevate,1/507 Pittwater Road,Brookvale,NSW,2100,Sydney North,1300 663 155,https://www.sira.nsw.gov.au/information-search/rehab-provider/detail?id=1007,981,-33.759633,151.2788768
Actevate - Campbelltown,Actevate,"Suite 3.02, 1 Centennial Drive",Campbelltown,NSW,2560,Sydney South,1300 663 155,https://www.sira.nsw.gov.au/information-search/rehab-provider/detail?id=1009,983,-34.0882935,150.81131
Actevate - Canberra,Actevate,"Level 2, 7 Neptune Street",Woden,ACT,2606,Act,1300 663 155,https://www.sira.nsw.gov.au/information-search/rehab-provider/detail?id=1014,988,-35.3498582,149.0940482
Actevate - Liverpool,Actevate,79 Bathurst Street,Liverpool,NSW,2170,Sydney West,1300 663 155,https://www.sira.nsw.gov.au/information-search/rehab-provider/detail?id=1011,985,-33.919405,150.9218583
Actevate - Newcastle,Actevate,1 Tudor Street,Newcastle,NSW,2300,Hunter,1300 663 155,https://www.sira.nsw.gov.au/information-search/rehab-provider/detail?id=1012,986,-32.9286867,151.7756084
Actevate - Nowra,Actevate,109 Ryans Lane,Pyree,NSW,2540,Illawarra Shoalhaven,1300 663 155,https://www.sira.nsw.gov.au/information-search/rehab-provider/detail?id=1016,990,-34.899401,150.6960933
Actevate - Parramatta,Actevate,"Suite 4, Level 3 1 Horwood Place",Parramatta,NSW,2150,Sydney West,1300 663 155,https://www.sira.nsw.gov.au/information-search/rehab-provider/detail?id=1008,982,-33.8132774,151.0072765
Actevate - Penrith,Actevate,102 Derby Street,Penrith,NSW,2750,"Nepean, Blue Mountains",1300 663 155,https://www.sira.nsw.gov.au/information-search/rehab-provider/detail?id=1010,984,-33.7539357,150.6793966
Actevate - Sydney,Actevate,"Level 13, 447 Kent Street",Sydney,NSW,2000,Sydney Central,1300 663 155,https://www.sira.nsw.gov.au/information-search/rehab-provider/detail?id=524,514,-33.8692957,151.2070786
Actevate - Toronto,Actevate,Shop 1/32 Victory Parade,Toronto,NSW,2283,Hunter,1300 663 155,https://www.sira.nsw.gov.au/information-search/rehab-provider/detail?id=1013,987,-33.013441,151.5942043
Actevate - Wollongong,Actevate,"Unit 19, 21 Princes Highway",Fairy Meadow,NSW,2519,Illawarra Shoalhaven,1300 663 155,https://www.sira.nsw.gov.au/information-search/rehab-provider/detail?id=1015,989,-34.3934364,150.8936267
Active Occupational Health Services,Active Occupational Health Services,"Suite 1, Level 13 66 Goulburn Street",Sydney,NSW,2000,Sydney Central,02 9821 3321,https://www.sira.nsw.gov.au/information-search/rehab-provider/detail?id=305,305,-33.8692957,151.2070786
Actual Rehab Pty Ltd,Actual Rehab Pty Ltd,Po Box 3223,Umina Beach,NSW,2257,Central Coast,0487 136 306,https://www.sira.nsw.gov.au/information-search/rehab-provider/detail?id=978,952,-33.5177778,151.3094444
Acumen Health - Coffs Harbour,Acumen Health,"Suite 2, Level 2 43 Gordon Street",Coffs Harbour,NSW,2450,Mid North Coast,1300 622 734,https://www.sira.nsw.gov.au/information-search/rehab-provider/detail?id=824,800,-30.2695516,153.1027547
Acumen Health - Liverpool,Acumen Health,"The Reilly Centre Suite 6D, 389-393 Hume Highway",Liverpool,NSW,2170,Sydney West,1300 622 734,https://www.sira.nsw.gov.au/information-search/rehab-provider/detail?id=823,799,-33.9314256,150.9091697
Acumen Health - Parramatta,Acumen Health,Suite 30 30 Cowper Street,Parramatta,NSW,2150,Sydney West,1300 622 734,https://www.sira.nsw.gov.au/information-search/rehab-provider/detail?id=820,796,-33.8132774,151.0072765
Acumen Health - South Melbourne Vic,Acumen Health,"Level 4, Building E 100 Dorcas Street",South Melbourne,VIC,3205,Victoria,1300 622 734,https://www.sira.nsw.gov.au/information-search/rehab-provider/detail?id=822,798,-37.83344,144.9570533
"Acumen Health - Spring Hill, Qld",Acumen Health,"Suite 204, Level 2 67 Astor Terrace",Spring Hill,QLD,4000,Queensland,1300 622 734,https://www.sira.nsw.gov.au/information-search/rehab-provider/detail?id=821,797,-27.465945,153.0216801
Acumen Health - Belconnen Act,Acumen Health,"Level 1, Suite 1.02B 54 Marcus Clarke Street",Canberra,ACT,2601,Act,1300 622 734,https://www.sira.nsw.gov.au/information-search/rehab-provider/detail?id=762,738,-35.2811197,149.1228719
Acumen Health - Gosford,Acumen Health,Level 3 107 Mann Street,Gosford,NSW,2250,Central Coast,1300 622 734,https://www.sira.nsw.gov.au/information-search/rehab-provider/detail?id=859,845,-33.4111469,151.3320154
Acumen Health - Kotara,Acumen Health,Unit 2A 70 Northcott Drive,Kotara,NSW,2289,Central Coast,1300 622 734,https://www.sira.nsw.gov.au/information-search/rehab-provider/detail?id=505,498,-32.940876,151.7104695
Acumen Health - Lismore,Acumen Health,"Suite 2, 36-38 Conway Street",Lismore,NSW,2480,Northern Rivers,02 8746 3499,https://www.sira.nsw.gov.au/information-search/rehab-provider/detail?id=763,739,-28.7788628,153.2816187
Acumen Health - North Sydney,Acumen Health,Level 13 201 Miller Street,North Sydney,NSW,2060,"Sydney Central, Sydney North",1300 622 734,https://www.sira.nsw.gov.au/information-search/rehab-provider/detail?id=657,637,-33.8400903,151.2107071
Acumen Health - Port Macquarie,Acumen Health,17 Hollingworth Street,Port Macquarie,NSW,2444,Mid North Coast,1300 436 432,https://www.sira.nsw.gov.au/information-search/rehab-provider/detail?id=1043,1018,-31.4374504,152.9052988
Acumen Health - Tweed Heads,Acumen Health,Shops 11 & 12 2-8 Blundell Boulevard,Tweed Heads,NSW,2485,Far North Coast,1300 436 432,https://www.sira.nsw.gov.au/information-search/rehab-provider/detail?id=1044,1019,-28.1786639,153.5369986
Acumen Health - Wollongong,Acumen Health,"Level 4, Suite 7 43 Burelli Street",Wollongong,NSW,2500,Illawarra Shoalhaven,1300 622,https://www.sira.nsw.gov.au/information-search/rehab-provider/detail?id=764,740,-34.4214498,150.8900387
Advanced Personnel Management - Albury,Advanced Personnel Management,"Suite 5A, 620 Macaulay Street",Albury,NSW,2640,Riverina,02 6021 0811,https://www.sira.nsw.gov.au/information-search/rehab-provider/detail?id=570,553,-36.0615713,146.9263087
Advanced Personnel Management - Canberra,Advanced Personnel Management,"Level 1, 39 London Circuit",Canberra,ACT,2601,Act,02 6262 7766,https://www.sira.nsw.gov.au/information-search/rehab-provider/detail?id=571,554,-35.2811197,149.1228719
Advanced Personnel Management - Coffs Harbour,Advanced Personnel Management,"Suite 101, Amp Centre 24 Gordon Street",Coffs Harbour,NSW,2450,Mid North Coast,02 6651 9044,https://www.sira.nsw.gov.au/information-search/rehab-provider/detail?id=572,555,-30.2695516,153.1027547
Advanced Personnel Management - Dee Why,Advanced Personnel Management,"Unit 3B, 32 Fisher Road",Dee Why,NSW,2099,Sydney North,1300 967 522,https://www.sira.nsw.gov.au/information-search/rehab-provider/detail?id=893,869,-33.7526555,151.2875707
Advanced Personnel Management - Lismore,Advanced Personnel Management,"Suite 8, Level 1, Conway Plaza 17 Conway Street",Lismore,NSW,2480,Far North Coast,02 6622 7263,https://www.sira.nsw.gov.au/information-search/rehab-provider/detail?id=573,557,-28.7788628,153.2816187
Advanced Personnel Management - Liverpool,Advanced Personnel Management,Suites 2 And 3 290 Macquarie Street,Liverpool,NSW,2170,Sydney West,1300 967 522,https://www.sira.nsw.gov.au/information-search/rehab-provider/detail?id=894,870,-33.9314256,150.9091697
Advanced Personnel Management - Maitland,Advanced Personnel Management,"Unit 5, 555 High Street",Maitland,NSW,2320,Hunter,02 4933 1091,https://www.sira.nsw.gov.au/information-search/rehab-provider/detail?id=576,558,-32.7316683,151.5511123
Advanced Personnel Management - Newcastle,Advanced Personnel Management,Unit 8B 235A Darby Street,Cooks Hill,NSW,2300,Hunter,02 4927 0244,https://www.sira.nsw.gov.au/information-search/rehab-provider/detail?id=578,559,-32.9286867,151.7756084
Advanced Personnel Management - Parramatta,Advanced Personnel Management,"Suite 4, Ground Floor, 1-3 Fitzwilliam Street",Parramatta,NSW,2150,Sydney West,1300 967 522,https://www.sira.nsw.gov.au/information-search/rehab-provider/detail?id=580,561,-33.8132774,151.0072765
Advanced Personnel Management - Sydney,Advanced Personnel Management,"Suite 2, Level 2 56 Clarence Street",Sydney,NSW,2000,Sydney Central,02 8296 5700,https://www.sira.nsw.gov.au/information-search/rehab-provider/detail?id=408,408,-33.8692957,151.2070786
Advanced Personnel Management - Tweed Heads,Advanced Personnel Management,2-8 Blundell Boulevard,Tweed Heads,NSW,2485,Far North Coast,1300 967 522,https://www.sira.nsw.gov.au/information-search/rehab-provider/detail?id=979,953,-28.1990409,153.5395606
Advanced Personnel Management - Wollongong,Advanced Personnel Management,"Suite 1, Level 3, Nrma Building 221-229 Crown Street",Wollongong,NSW,2500,Illawarra Shoalhaven,02 4225 7044,https://www.sira.nsw.gov.au/information-search/rehab-provider/detail?id=582,564,-34.4214498,150.8900387
Advanced Rehabilitation Management Service,Advanced Rehabilitation Management Service,20 Noorebar Avenue,Griffith,NSW,2680,Riverina,02 6964 8995,https://www.sira.nsw.gov.au/information-search/rehab-provider/detail?id=413,413,-34.2835647,146.0440959
Align Work Health,Align Work Health,549 David Street,Albury,NSW,2640,Riverina,02 6023 4644,https://www.sira.nsw.gov.au/information-search/rehab-provider/detail?id=451,445,-36.0802811,146.9209333
Ascent Rehabilitation Pty Ltd,Ascent Rehabilitation Pty Ltd,"Level 1, Suite 5, Ethos House 28 Ainslie Place",Canberra,ACT,2600,Act,02 6156 4109,https://www.sira.nsw.gov.au/information-search/rehab-provider/detail?id=1032,1007,-35.3069742,149.1133679
At Work Occupational Health & Safety,At Work Occupational Health & Safety,31 Lemongrove Road,Penrith,NSW,2750,Nepean Blue Mountains,02 4721 5098,https://www.sira.nsw.gov.au/information-search/rehab-provider/detail?id=409,409,-33.7479589,150.7053267
Atlas Rehab,Atlas Rehab,Level 2 215-219 George Street,Liverpool,NSW,2170,Sydney West,1300 667 544,https://www.sira.nsw.gov.au/information-search/rehab-provider/detail?id=755,730,-33.9314256,150.9091697
Ausrehab - Alexandria,Ausrehab,Suite 226 90-96 Bourke Road,Alexandria,NSW,2015,Sydney,Ph: 1300 391 947 / Fax: 02 7201 5019 / Email: office@ausrehab.com / https://www.ausrehab.com,https://www.sira.nsw.gov.au/information-search/rehab-provider/detail?id=977,951,-33.9084474,151.1990616
Ausrehab - Blacktown,Ausrehab,"Level 1, 8 Patrick Street",Blacktown,NSW,2148,Sydney West,Ph: 1300 391 947 / Fax: 02 7201 5019 / Email: office@ausrehab.com / https://www.ausrehab.com,https://www.sira.nsw.gov.au/information-search/rehab-provider/detail?id=981,955,-33.7518952,150.89233
Ausrehab - Hurstville,Ausrehab,"Suite 201, Level 2, 8 Woodville Street",Hurstville,NSW,2220,Sydney South,Ph: 1300 391 947 / Fax: 02 7201 5019 / Email: office@ausrehab.com / https://www.ausrehab.com,https://www.sira.nsw.gov.au/information-search/rehab-provider/detail?id=982,956,-33.9596937,151.0984098
Axis Injury Management - Charlestown,Axis Injury Management,Level 1 20 Smith Street,Charlestown,NSW,2290,Central Coast & Hunter,02 4927 0577,https://www.sira.nsw.gov.au/information-search/rehab-provider/detail?id=456,451,-32.9734926,151.6940233
Back2work Solutions,Back2work Solutions,"Suite 1.02, Level 1 20 Clarke Street",Crows Nest,NSW,2065,Sydney North,0431 092 499,https://www.sira.nsw.gov.au/information-search/rehab-provider/detail?id=989,963,-33.8256494,151.2003914
Balance Rehab Pty Ltd - Blacktown,Balance Rehab Pty Ltd,"Level 1, 8 Patrick Street",Blacktown,NSW,2200,Sydney West,0417 475 700,https://www.sira.nsw.gov.au/information-search/rehab-provider/detail?id=267,267,-33.9190296,151.0280657
Balance Rehab Pty Ltd - Chullora,Balance Rehab Pty Ltd,7/4 Brunker Road,Chullora,NSW,2190,Sydney West,0417 475 700,https://www.sira.nsw.gov.au/information-search/rehab-provider/detail?id=910,886,-33.9005866,151.0446483
Benchmark Rehab - Macquarie Park,Benchmark Rehab,"Suite 208, 32 Delhi Road",Macquarie Park,NSW,2113,Sydney,0459 042 141,https://www.sira.nsw.gov.au/information-search/rehab-provider/detail?id=980,954,-33.7922767,151.1272368
Beneco,Beneco,"Level 5, 1F Homebush Bay Drive",Rhodes,NSW,2138,Sydney Central,1300 023 632,https://www.sira.nsw.gov.au/information-search/rehab-provider/detail?id=515,507,-33.8380051,151.087653
Better Recovery Group,Better Recovery Group,"Shop 1G, 241 Castlereagh Street",Sydney,NSW,2000,Sydney Central,02 8313 7954,https://www.sira.nsw.gov.au/information-search/rehab-provider/detail?id=984,958,-33.8692957,151.2070786
Born Fit - Fairfield,Born Fit,1/17 Kenyon Street,Fairfield,NSW,2165,Sydney West,0410 699 081,https://www.sira.nsw.gov.au/information-search/rehab-provider/detail?id=1035,1010,-33.8709219,150.9519944
Born Fit - Miranda,Born Fit,"Level 4, Suite 210, 29 Kiora Road",Miranda,NSW,2228,Sydney South,0410 699 081,https://www.sira.nsw.gov.au/information-search/rehab-provider/detail?id=1034,1009,-34.0353003,151.1034653
Career Management Services - Martin Place,Career Management Services,52 Martin Place,Sydney,NSW,2000,Sydney Central,1300 588 088,https://www.sira.nsw.gov.au/information-search/rehab-provider/detail?id=960,934,-33.8670011,151.211011
Career Management Services - Newcastle,Career Management Services,61-63 Parry Street,Newcastle West,NSW,2302,Hunter,1300 588 088,https://www.sira.nsw.gov.au/information-search/rehab-provider/detail?id=961,935,-32.925113,151.7556897
Career Management Services - Wynyard,Career Management Services,33 George Street Wynyard,Sydney,NSW,2000,Sydney Central,1300 588 088,https://www.sira.nsw.gov.au/information-search/rehab-provider/detail?id=959,933,-33.8657568,151.2070453
Carfi,Carfi,Suite 401 93 Pacific Highway,North Sydney,NSW,2060,Sydney North,1300 737 403,https://www.sira.nsw.gov.au/information-search/rehab-provider/detail?id=732,711,-33.8400903,151.2107071
Changing Ways Consulting,Changing Ways Consulting,284 Church Street,Parramatta,NSW,2150,Sydney West,1300 652 920,https://www.sira.nsw.gov.au/information-search/rehab-provider/detail?id=990,962,-33.8129166,151.0039322
Corporeal Health - Sydney,Corporeal Health,"Level 24, 300 Barangaroo Avenue",Sydney,NSW,2000,Sydney Central,08 9622 5940,https://www.sira.nsw.gov.au/information-search/rehab-provider/detail?id=1040,1015,-33.8692957,151.2070786
Cs Health - Gunnedah,Cs Health,Cnr Reservoir Street And Anzac Parade,Gunnedah,NSW,2380,North Eastern Nsw,1800 274 633,https://www.sira.nsw.gov.au/information-search/rehab-provider/detail?id=996,970,-31.3133162,149.8345258
Cs Health - Lithgow,Cs Health,3 Proto Avenue,Lithgow,NSW,2790,Nepean Blue Mountains,02 6350 1050,https://www.sira.nsw.gov.au/information-search/rehab-provider/detail?id=561,611,-33.4869384,150.1512085
Cs Health - Mudgee,Cs Health,18 Sydney Road,Mudgee,NSW,2850,Western Nsw,02 6370 6100,https://www.sira.nsw.gov.au/information-search/rehab-provider/detail?id=731,710,-32.6050518,149.5982378
Cs Health - Singleton,Cs Health,1 Civic Avenue,Singleton,NSW,2330,Hunter,02 6571 9900,https://www.sira.nsw.gov.au/information-search/rehab-provider/detail?id=17,17,-32.5580123,151.177767
Cs Health - Speers Point,Cs Health,143 Main Road,Speers Point,NSW,2284,Hunter,02 4948 3100,https://www.sira.nsw.gov.au/information-search/rehab-provider/detail?id=16,16,-32.9596362,151.622866
Cs Health - Woonona,Cs Health,558-580 Princes Highway,Woonona,NSW,2517,Illawarra Shoalhaven,02 4286 5400,https://www.sira.nsw.gov.au/information-search/rehab-provider/detail?id=560,610,-34.3504647,150.9066433
Direct Solutions Rehabilitation & Occupational Services,Direct Solutions Rehabilitation & Occupational Services,5 Stockton Avenue,Moorebank,NSW,2170,Sydney South West,1300 024 380,https://www.sira.nsw.gov.au/information-search/rehab-provider/detail?id=491,485,-33.9360861,150.9474109
Dynamic Health Partners,Dynamic Health Partners,5 Jacana Close,East Maitland,NSW,2323,Hunter,0423 099 607,https://www.sira.nsw.gov.au/information-search/rehab-provider/detail?id=895,871,-32.7695938,151.5799397
Ergosmart Consulting,Ergosmart Consulting,"Level 1, 18 National Circuit",Barton,ACT,2600,"Act, Southern Highlands, Sydney",1300 522 090,https://www.sira.nsw.gov.au/information-search/rehab-provider/detail?id=526,517,-35.3069742,149.1133679
Expert Rehab,Expert Rehab,Level 1/244 Macquarie Street,Liverpool,NSW,2170,Sydney West,0468 722 112,https://www.sira.nsw.gov.au/information-search/rehab-provider/detail?id=1049,1024,-33.9314256,150.9091697
Fastrack Health - Brookvale,Fastrack Health,6 Elizabeth Place,Brookvale,NSW,2100,Sydney North,0413 515 119,https://www.sira.nsw.gov.au/information-search/rehab-provider/detail?id=768,744,-33.7616569,151.2699489
Fastrack Health - Campbelltown,Fastrack Health,"Suite 16A, 42 Parkside Crescent",Campbelltown,NSW,2560,Sydney South West,0413 515 119,https://www.sira.nsw.gov.au/information-search/rehab-provider/detail?id=769,745,-34.0882935,150.81131
Future Fit Injury Management,Future Fit Injury Management,"Suite 3, 34 Albert Street",North Parramatta,NSW,2151,Sydney West,1800 573 144,https://www.sira.nsw.gov.au/information-search/rehab-provider/detail?id=708,687,-33.7987604,151.0079393
Greenlight Hc - Hamilton,Greenlight Hc,"Suite 2, 73A Elizabeth Street",Tighes Hill,NSW,2297,Hunter,1300 312 049,https://www.sira.nsw.gov.au/information-search/rehab-provider/detail?id=666,646,-32.9066284,151.7526629
Greenlight Hc - North Ryde,Greenlight Hc,Level 5 7 Eden Park Drive,Macquarie Park,NSW,2113,Sydney North,02 9888 3358,https://www.sira.nsw.gov.au/information-search/rehab-provider/detail?id=707,688,-33.7922767,151.1272368
Greenlight Hc - Parramatta,Greenlight Hc,"Suite 303, Level 3, 69 Phillip Street",Parramatta,NSW,2150,Sydney West,1300 312 049,https://www.sira.nsw.gov.au/information-search/rehab-provider/detail?id=758,735,-33.8132774,151.0072765
Head2work,Head2work,Unit 9 29 Governor Macquarie Drive,Chipping Norton,NSW,2170,Sydney South West,02 9602 4922,https://www.sira.nsw.gov.au/information-search/rehab-provider/detail?id=392,392,-33.9314256,150.9091697
"Health & Wellness Rehab - Phillip, Act",Health & Wellness Rehab,"Suite 3, 13 Napier Close",Deakin,ACT,2600,Act,0401 858 329,https://www.sira.nsw.gov.au/information-search/rehab-provider/detail?id=1038,1013,-35.3069742,149.1133679
Health Ability,Health Ability,92A Longueville Road,Lane Cove,NSW,2066,Sydney North,02 9098 5500,https://www.sira.nsw.gov.au/information-search/rehab-provider/detail?id=777,752,-33.8124596,151.171609
Hoys Work Health,Hoys Work Health,32 First Avenue,Sawtell,NSW,2452,"Far North Coast, Mid North Coast, New England, North Coast, Northern Rivers",02 6658 3878,https://www.sira.nsw.gov.au/information-search/rehab-provider/detail?id=277,277,-30.3605982,153.1026119
Imac Injury Management And Assessment Centre,Imac Injury Management And Assessment Centre,Suite 3 16 Sorrell Street,Parramatta,NSW,2150,Sydney West,02 9869 7122,https://www.sira.nsw.gov.au/information-search/rehab-provider/detail?id=362,362,-33.8132774,151.0072765
Inmotion Rehab - Narellan,Inmotion Rehab,3/38 Exchange Parade,Narellan,NSW,2567,South Coast Nsw,1300 466 684,https://www.sira.nsw.gov.au/information-search/rehab-provider/detail?id=739,717,-34.0416519,150.7490643
Inmotion Rehab - Wollongong,Inmotion Rehab,24 Atchison Street,Wollongong,NSW,2500,Illawarra Shoalhaven,02 4243 7820,https://www.sira.nsw.gov.au/information-search/rehab-provider/detail?id=943,917,-34.4258304,150.8908973
Interact Injury Management - Albury/Wodonga,Interact Injury Management,460 Swift Street,Albury,NSW,2640,Riverina,02 6061 0210,https://www.sira.nsw.gov.au/information-search/rehab-provider/detail?id=837,813,-36.0790701,146.9199353
Interact Injury Management - Belconnen Act,Interact Injury Management,Level 2 40 Cameron Avenue,Belconnen,ACT,2617,Act,02 6110 1400,https://www.sira.nsw.gov.au/information-search/rehab-provider/detail?id=760,736,-35.2298543,149.0914917
Interact Injury Management - Coffs Harbour,Interact Injury Management,"Suite 2, Level 2 43 Gordon Street",Coffs Harbour,NSW,2450,Mid North Coast,02 6600 2700,https://www.sira.nsw.gov.au/information-search/rehab-provider/detail?id=542,531,-30.2695516,153.1027547
Interact Injury Management - Dubbo,Interact Injury Management,Suite 1 64-70 Wingewarra Street,Dubbo,NSW,2830,Central West,02 6885 2139,https://www.sira.nsw.gov.au/information-search/rehab-provider/detail?id=417,417,-32.2319157,148.6433952
Interact Injury Management - Lismore,Interact Injury Management,Suite 2 36/38 Conway Street,Lismore,NSW,2480,Northern Rivers,02 6616 2000,https://www.sira.nsw.gov.au/information-search/rehab-provider/detail?id=450,448,-28.7788628,153.2816187
Interact Injury Management - Liverpool,Interact Injury Management,"Suite 2, Ground Floor 21 Pirie Street",Liverpool,NSW,2170,Sydney West,02 9093 4400,https://www.sira.nsw.gov.au/information-search/rehab-provider/detail?id=669,649,-33.9314256,150.9091697
Interact Injury Management - Newcastle,Interact Injury Management,"Suite 2, Level 3 45 Watt Street",Newcastle,NSW,2300,Hunter,02 4911 9900,https://www.sira.nsw.gov.au/information-search/rehab-provider/detail?id=701,681,-32.9286867,151.7756084
Interact Injury Management - North Sydney,Interact Injury Management,Level 13 201 Miller Street,North Sydney,NSW,2060,Sydney North,02 9093 4400,https://www.sira.nsw.gov.au/information-search/rehab-provider/detail?id=664,645,-33.8400903,151.2107071
Interact Injury Management - Orange,Interact Injury Management,Suite 2 65 Hill Street,Orange,NSW,2800,Central West,02 6616 2000,https://www.sira.nsw.gov.au/information-search/rehab-provider/detail?id=264,264,-33.2899635,149.0813814
Interact Injury Management - Port Macquarie,Interact Injury Management,17 Hollingworth Street,Port Macquarie,NSW,2444,Mid North Coast,02 6500 9000,https://www.sira.nsw.gov.au/information-search/rehab-provider/detail?id=323,323,-31.4374504,152.9052988
Interact Injury Management - Tamworth,Interact Injury Management,"Shop 1, 511 Peel Street",Tamworth,NSW,2340,North West Slopes & Plains,02 6700 1200,https://www.sira.nsw.gov.au/information-search/rehab-provider/detail?id=458,453,-31.1062573,150.9181513
Interact Injury Management - Tweed Heads,Interact Injury Management,5/1 Sands Street,Tweed Heads,NSW,2485,Northern Rivers,02 6616 2000,https://www.sira.nsw.gov.au/information-search/rehab-provider/detail?id=640,623,-28.1713523,153.5424534
Interact Injury Management - Wollongong,Interact Injury Management,"Level 1, 1 Burelli Street",Wollongong,NSW,2500,Illawarra Shoalhaven,1300 618 868,https://www.sira.nsw.gov.au/information-search/rehab-provider/detail?id=776,753,-34.4214498,150.8900387
Interactive Health Solutions,Interactive Health Solutions,8 Old Sydney Road,Seaforth,NSW,2092,Sydney North,02 8084 0503,https://www.sira.nsw.gov.au/information-search/rehab-provider/detail?id=743,720,-33.7991858,151.2485998
Interstate Providers,Interstate Providers,For Providers To Use When Using Out Of State Services,,,,,,https://www.sira.nsw.gov.au/information-search/rehab-provider/detail?id=518,999,-24.7761086,134.755
Ioh Health - Ingleburn,Ioh Health,Suite 2/34 Carlisle Street,Ingleburn,NSW,2565,Sydney South West,02 4620 7244,https://www.sira.nsw.gov.au/information-search/rehab-provider/detail?id=924,899,-33.9912937,150.8582964
Ioh Health - Parramatta,Ioh Health,28 Ross Street,Parramatta,NSW,2150,Sydney West,02 9890 3655,https://www.sira.nsw.gov.au/information-search/rehab-provider/detail?id=304,304,-33.8074854,151.0066507
Ioh Health - Penrith,Ioh Health,"Level 1, 396 High Street",Penrith,NSW,2750,"Nepean, Blue Mountains",02 9890 3655,https://www.sira.nsw.gov.au/information-search/rehab-provider/detail?id=942,916,-33.7539357,150.6793966
Ioh Health - South Coast,Ioh Health,107 Scenic Drive,Nowra,NSW,2541,South Coast Nsw,02 4210 7222,https://www.sira.nsw.gov.au/information-search/rehab-provider/detail?id=303,303,-34.8688732,150.594609
Ioh Health - Southern Highlands,Ioh Health,5/10 Davy Street,Mittagong,NSW,2575,Southern Highlands,02 4861 7641,https://www.sira.nsw.gov.au/information-search/rehab-provider/detail?id=925,900,-34.4519737,150.4332054
Ioh Health - Wollongong,Ioh Health,32 Swan Street,Wollongong,NSW,2500,Illawarra Shoalhaven,02 4210 7222,https://www.sira.nsw.gov.au/information-search/rehab-provider/detail?id=27,27,-34.435937,150.8965923
Ipar Rehabilitation - Albury,Ipar Rehabilitation,556 David Street,Albury,NSW,2640,Riverina,03 8648 0900,https://www.sira.nsw.gov.au/information-search/rehab-provider/detail?id=704,683,-36.0802811,146.9209333
Ipar Rehabilitation - Ballina,Ipar Rehabilitation,"Suite 8, 31 Cherry Street",Ballina,NSW,2478,Far North Coast,02 6627 2666,https://www.sira.nsw.gov.au/information-search/rehab-provider/detail?id=765,741,-28.8660981,153.5607603
Ipar Rehabilitation - Blacktown,Ipar Rehabilitation,45-51 Main Street,Blacktown,NSW,2148,Sydney West,02 9689 0900,https://www.sira.nsw.gov.au/information-search/rehab-provider/detail?id=884,860,-33.7689409,150.9076721
Ipar Rehabilitation - Brisbane,Ipar Rehabilitation,"Level 1, 10 Eagle Street",Brisbane,QLD,4000,Queensland,07 3253 5000,https://www.sira.nsw.gov.au/information-search/rehab-provider/detail?id=752,729,-27.465945,153.0216801
Ipar Rehabilitation - Brookvale,Ipar Rehabilitation,Suite 148 117 Old Pittwater Road,Brookvale,NSW,2100,Sydney North,02 8272 2222,https://www.sira.nsw.gov.au/information-search/rehab-provider/detail?id=886,862,-33.7549183,151.2577347
Ipar Rehabilitation - Campbelltown,Ipar Rehabilitation,108 Queen Street,Campbelltown,NSW,2560,Sydney South West,02 9689 0900,https://www.sira.nsw.gov.au/information-search/rehab-provider/detail?id=885,861,-34.0643793,150.8167124
Ipar Rehabilitation - Canberra,Ipar Rehabilitation,4/1 Phipps Close,Deakin,ACT,2600,Act,02 6287 0700,https://www.sira.nsw.gov.au/information-search/rehab-provider/detail?id=756,733,-35.3263388,149.0947328
Ipar Rehabilitation - Central Coast,Ipar Rehabilitation,"Suite 3, 4 Bounty Close",Tuggerah,NSW,2259,Central Coast,02 4355 4367,https://www.sira.nsw.gov.au/information-search/rehab-provider/detail?id=750,727,-33.2417292,151.455269
Ipar Rehabilitation - Coffs Harbour,Ipar Rehabilitation,201-203/24 Moonee Street,Coffs Harbour,NSW,2450,Mid North Coast,02 6691 2600,https://www.sira.nsw.gov.au/information-search/rehab-provider/detail?id=751,728,-30.2695516,153.1027547
Ipar Rehabilitation - Goulburn,Ipar Rehabilitation,3/56-63 Clifford Street,Goulburn,NSW,2580,Southern Highlands,02 6287 0700,https://www.sira.nsw.gov.au/information-search/rehab-provider/detail?id=887,863,-34.7474471,149.7243039
Ipar Rehabilitation - Liverpool,Ipar Rehabilitation,"Level 8, 35 Scott Street",Liverpool,NSW,2170,Sydney West,02 8272 2222,https://www.sira.nsw.gov.au/information-search/rehab-provider/detail?id=826,802,-33.9314256,150.9091697
Ipar Rehabilitation - Mildura,Ipar Rehabilitation,272 Eleventh Street,Mildura,VIC,3500,Victoria,03 5022 8091,https://www.sira.nsw.gov.au/information-search/rehab-provider/detail?id=705,684,-34.1873902,142.1551796
Ipar Rehabilitation - Miranda,Ipar Rehabilitation,"Suite 124, Level 1 29 Kiora Road",Miranda,NSW,2228,Sydney South,02 9689 0900,https://www.sira.nsw.gov.au/information-search/rehab-provider/detail?id=918,893,-34.0353003,151.1034653
Ipar Rehabilitation - Newcastle,Ipar Rehabilitation,"Otp House, Level 2, 14 Bradford Close",Kotara,NSW,2289,Hunter,02 4903 3200,https://www.sira.nsw.gov.au/information-search/rehab-provider/detail?id=682,663,-32.940876,151.7104695
Ipar Rehabilitation - Nowra,Ipar Rehabilitation,"Shop 3, Ground Floor 24 Berry Street",Nowra,NSW,2541,Illawarra Shoalhaven,02 4221 0600,https://www.sira.nsw.gov.au/information-search/rehab-provider/detail?id=888,864,-34.871549,150.5987556
Ipar Rehabilitation - Orange,Ipar Rehabilitation,"Suite 3, Level 1, 21-29 William Street",Orange,NSW,2800,Central West,02 9689 0900,https://www.sira.nsw.gov.au/information-search/rehab-provider/detail?id=854,831,-33.2899635,149.0813814
Ipar Rehabilitation - Parramatta,Ipar Rehabilitation,"Level 1, 107 Phillip Street",Parramatta,NSW,2150,Sydney West,02 9689 0900,https://www.sira.nsw.gov.au/information-search/rehab-provider/detail?id=674,653,-33.8132774,151.0072765
Ipar Rehabilitation - Penrith,Ipar Rehabilitation,"Suite 2.04B, 38 Somerset Street",Kingswood,NSW,2747,"Nepean, Blue Mountains",02 4731 5009,https://www.sira.nsw.gov.au/information-search/rehab-provider/detail?id=283,283,-33.7552074,150.752074
Ipar Rehabilitation - Port Macquarie,Ipar Rehabilitation,Shop 4/136 William Street,Port Macquarie,NSW,2444,Mid North Coast,02 6651 5111,https://www.sira.nsw.gov.au/information-search/rehab-provider/detail?id=855,832,-31.4482673,152.8830412
Ipar Rehabilitation - Sydney,Ipar Rehabilitation,Level 16 1 Market Street,Sydney,NSW,2000,Sydney Central,02 8272 2200,https://www.sira.nsw.gov.au/information-search/rehab-provider/detail?id=483,480,-33.8692957,151.2070786
Ipar Rehabilitation - Tamworth,Ipar Rehabilitation,2/14-16 Bourke Street,Tamworth,NSW,2340,North West Slopes & Plains,02 6766 1444,https://www.sira.nsw.gov.au/information-search/rehab-provider/detail?id=678,659,-31.1062573,150.9181513
Ipar Rehabilitation - Wagga Wagga,Ipar Rehabilitation,9/152 Fitzmaurice Street,Wagga Wagga,NSW,2650,Riverina,03 8648 0900,https://www.sira.nsw.gov.au/information-search/rehab-provider/detail?id=856,833,-35.1047849,147.3691518
Ipar Rehabilitation - Wollongong,Ipar Rehabilitation,"Level 1, 1 Burelli Street",Wollongong,NSW,2500,Illawarra Shoalhaven,02 9869 0900,https://www.sira.nsw.gov.au/information-search/rehab-provider/detail?id=736,714,-34.4214498,150.8900387
Iprana Health Consulting,Iprana Health Consulting,"Suite 306, Building A, 1 Burbank Place",Baulkham Hills,NSW,2153,Sydney West,02 8027 3435,https://www.sira.nsw.gov.au/information-search/rehab-provider/detail?id=1030,1005,-33.7499366,150.99108
Jk Corporate Resourcing,Jk Corporate Resourcing,Level 7 111 Phillip Street,Parramatta,NSW,2150,Sydney West,1300 652 920,https://www.sira.nsw.gov.au/information-search/rehab-provider/detail?id=734,713,-33.8132774,151.0072765
Kairros - Armidale,Kairros,117 Faulkner Street,Armidale,NSW,2350,Northern Tablelands,02 9098 2660,https://www.sira.nsw.gov.au/information-search/rehab-provider/detail?id=1050,1025,-30.5145822,151.667077
Kairros - Ballina,Kairros,8/31 Cherry Street,Ballina,NSW,2478,Far North Coast,02 9098 2660,https://www.sira.nsw.gov.au/information-search/rehab-provider/detail?id=965,939,-28.8702924,153.5615732
Kairros - Blacktown,Kairros,28 Patrick Street,Blacktown,NSW,2148,Sydney West,02 9098 2660,https://www.sira.nsw.gov.au/information-search/rehab-provider/detail?id=839,816,-33.7723948,150.906235
Kairros - Brisbane Qld,Kairros,4/113 Wickham Terrace,Brisbane City,QLD,4000,Queensland,02 9098 2660,https://www.sira.nsw.gov.au/information-search/rehab-provider/detail?id=971,945,-27.4610564,153.0185099
Kairros - Buderim,Kairros,3/49 Burnett Street,Buderim,QLD,4556,Queensland,02 9098 2660,https://www.sira.nsw.gov.au/information-search/rehab-provider/detail?id=1054,1029,-26.6884301,153.047254
Kairros - Chatswood,Kairros,Level 2 12 Thomas Street,Chatswood,NSW,2067,Sydney North,02 9098 2660,https://www.sira.nsw.gov.au/information-search/rehab-provider/detail?id=928,903,-33.7964874,151.1802194
Kairros - Coffs Harbour,Kairros,2 / 64 Albany Street,Coffs Harbour,NSW,2450,Mid North Coast,02 9098 2660,https://www.sira.nsw.gov.au/information-search/rehab-provider/detail?id=842,819,-30.3045802,153.1213387
Kairros - Dubbo,Kairros,1/207 Brisbane Street,Dubbo,NSW,2830,Central West,02 9098 2660,https://www.sira.nsw.gov.au/information-search/rehab-provider/detail?id=845,822,-32.2524454,148.6028578
Kairros - Gosford,Kairros,"Gateway Centre, Level 1, Suite 12 237 Mann Street",Gosford,NSW,2250,Central Coast,02 9098 2660,https://www.sira.nsw.gov.au/information-search/rehab-provider/detail?id=927,902,-33.4111469,151.3320154
Kairros - Goulburn,Kairros,3/53 Clifford Street,Goulburn,NSW,2580,Illawarra Shoalhaven,02 9098 2660,https://www.sira.nsw.gov.au/information-search/rehab-provider/detail?id=969,943,-34.7486875,149.7125837
Kairros - Lismore,Kairros,Ground Floor 4 Carrington Street,Lismore,NSW,2480,Far North Coast,02 9098 2660,https://www.sira.nsw.gov.au/information-search/rehab-provider/detail?id=964,938,-28.7788628,153.2816187
Kairros - Liverpool,Kairros,"Suite 203, 161 Bigge Street",Liverpool,NSW,2170,Sydney West,02 9601 0666,https://www.sira.nsw.gov.au/information-search/rehab-provider/detail?id=556,552,-33.9314256,150.9091697
Kairros - Manuka Act,Kairros,"Energyfit, 2, 1 Franklin Street",Manuka,ACT,2603,Act,02 9098 2660,https://www.sira.nsw.gov.au/information-search/rehab-provider/detail?id=968,942,-35.3295068,149.1217019
Kairros - Newcastle,Kairros,"Suite 5, Floor 2 15 Lambton Road",Broadmeadow,NSW,2292,Hunter,02 9098 2660,https://www.sira.nsw.gov.au/information-search/rehab-provider/detail?id=840,817,-32.9224901,151.7310064
Kairros - Nowra,Kairros,108B Kinghorne Street,Nowra,NSW,2541,South Coast Nsw,02 9098 2660,https://www.sira.nsw.gov.au/information-search/rehab-provider/detail?id=847,824,-34.8827939,150.6013799
Kairros - Orange,Kairros,Suite 4 179-181 Byng Street,Orange,NSW,2800,Central West,02 9098 2660,https://www.sira.nsw.gov.au/information-search/rehab-provider/detail?id=846,823,-33.2899635,149.0813814
Kairros - Penrith,Kairros,"Level 2, Suite 2002, Borec House 29 - 57 Station Street",Penrith,NSW,2750,"Nepean, Blue Mountains",02 9098 2660,https://www.sira.nsw.gov.au/information-search/rehab-provider/detail?id=967,941,-33.7539357,150.6793966
Kairros - Port Macquarie,Kairros,2 / 146-148 Gordon Street,Port Macquarie,NSW,2444,Mid North Coast,02 9098 2660,https://www.sira.nsw.gov.au/information-search/rehab-provider/detail?id=843,820,-31.4482673,152.8830412
Kairros - South Tamworth,Kairros,74A Robert Street,South Tamworth,NSW,2340,North West Slopes & Plains,02 9098 2660,https://www.sira.nsw.gov.au/information-search/rehab-provider/detail?id=966,940,-31.1084849,150.9043632
Kairros - Southport Qld,Kairros,"Level 2, 2205 Southport Central 5 Lawson Street",Southport,QLD,4215,Queensland,02 9098 2660,https://www.sira.nsw.gov.au/information-search/rehab-provider/detail?id=970,944,-27.9636774,153.4070316
Kairros - Sydney,Kairros,"Suite 2, Level 15 1 Market Street",Sydney,NSW,2000,Sydney Central,02 9098 2660,https://www.sira.nsw.gov.au/information-search/rehab-provider/detail?id=287,287,-33.8692957,151.2070786
Kairros - Tuggerah,Kairros,Suite 4 3 Bounty Close,Tuggerah,NSW,2259,Central Coast,02 9098 2660,https://www.sira.nsw.gov.au/information-search/rehab-provider/detail?id=841,818,-33.2417292,151.455269
Kairros - Wagga Wagga,Kairros,66-70 Coleman Street,Wagga Wagga,NSW,2650,Riverina,02 9098 2660,https://www.sira.nsw.gov.au/information-search/rehab-provider/detail?id=1037,1012,-35.1229675,147.3631757
Kairros - Wollongong,Kairros,43 Burelli Street,Wollongong,NSW,2500,Illawarra Shoalhaven,02 9098 2660,https://www.sira.nsw.gov.au/information-search/rehab-provider/detail?id=844,821,-34.4269141,150.8982571
Keystone Professionals,Keystone Professionals,"Unit 8, 6 Chaplin Drive",Lane Cove,NSW,2066,Sydney North,02 9427 3030,https://www.sira.nsw.gov.au/information-search/rehab-provider/detail?id=465,459,-33.8163409,151.1709322
Kinnect - Albury,Kinnect,"Level 1, 566 David Street",Albury,NSW,2640,Riverina,1300 546 632,https://www.sira.nsw.gov.au/information-search/rehab-provider/detail?id=1006,980,-36.0615713,146.9263087
Kinnect - Ballina,Kinnect,"Shop 3, 92 Tamar Street",Ballina,NSW,2478,Far North Coast,1300 546 632,https://www.sira.nsw.gov.au/information-search/rehab-provider/detail?id=997,971,-28.8660981,153.5607603
Kinnect - Bathurst,Kinnect,123 Howick Street,Bathurst,NSW,2795,Central West,1300 546 632,https://www.sira.nsw.gov.au/information-search/rehab-provider/detail?id=1003,977,-33.4181355,149.5827384
Kinnect - Brisbane,Kinnect,123 Logan Road,Woolloongabba,QLD,4102,Queensland,1300 546 632,https://www.sira.nsw.gov.au/information-search/rehab-provider/detail?id=825,801,-27.4909441,153.0397582
Kinnect - Coffs Harbour,Kinnect,44 Gordon Street,Coffs Harbour,NSW,2450,Mid North Coast,1300 546 632,https://www.sira.nsw.gov.au/information-search/rehab-provider/detail?id=999,973,-30.2960973,153.118676
Kinnect - Dubbo,Kinnect,62 Windsor Parade,Dubbo,NSW,2830,Central West,1300 546 632,https://www.sira.nsw.gov.au/information-search/rehab-provider/detail?id=1001,975,-32.254483,148.6307577
Kinnect - Mascot,Kinnect,Suite 10/56 Church Avenue,Mascot,NSW,2020,Sydney,1300 546 632,https://www.sira.nsw.gov.au/information-search/rehab-provider/detail?id=870,847,-33.9291463,151.1889955
Kinnect - Mermaid Beach,Kinnect,"Level 3, Suite 3, 2400 Gold Coast Highway",Mermaid Beach,QLD,4218,Queensland,1300 546 632,https://www.sira.nsw.gov.au/information-search/rehab-provider/detail?id=988,968,-28.0384403,153.4265053
Kinnect - Newcastle,Kinnect,"Suite 3, 4 Honeysuckle Drive",Newcastle,NSW,2300,Hunter,1300 546 632,https://www.sira.nsw.gov.au/information-search/rehab-provider/detail?id=818,794,-32.9286867,151.7756084
Kinnect - North Ryde,Kinnect,"Suite 2, Level 2 64 Talavera Road",Macquarie Park,NSW,2113,Sydney North,1300 546 632,https://www.sira.nsw.gov.au/information-search/rehab-provider/detail?id=809,785,-33.7922767,151.1272368
Kinnect - Nowra,Kinnect,107 Scenic Drive,Nowra,NSW,2541,Illawarra Shoalhaven,1300 546 632,https://www.sira.nsw.gov.au/information-search/rehab-provider/detail?id=1004,978,-34.8688732,150.594609
Kinnect - Orange,Kinnect,110/227 Summer Street,Orange,NSW,2800,Central West,1300 546 632,https://www.sira.nsw.gov.au/information-search/rehab-provider/detail?id=1002,976,-33.2829577,149.0951777
Kinnect - Port Macquarie,Kinnect,152 Greenmeadows Drive,Port Macquarie,NSW,2444,Mid North Coast,1300 546 632,https://www.sira.nsw.gov.au/information-search/rehab-provider/detail?id=1000,974,-31.4564684,152.8973714
Kinnect - Sydney,Kinnect,"Level 1, 115 Pitt Street",Sydney,NSW,2000,Sydney,1300 546 632,https://www.sira.nsw.gov.au/information-search/rehab-provider/detail?id=802,779,-33.8692957,151.2070786
Kinnect - Tamworth,Kinnect,279B Marius Street,Tamworth,NSW,2340,North West Slopes & Plains,1300 546 632,https://www.sira.nsw.gov.au/information-search/rehab-provider/detail?id=998,972,-31.0872201,150.9297327
Kinnect - Wagga Wagga,Kinnect,8 Tanda Place,Glenfield Park,NSW,2650,Riverina,1300 546 632,https://www.sira.nsw.gov.au/information-search/rehab-provider/detail?id=1005,979,-35.1375728,147.3334152
Kinnect - West Gosford,Kinnect,171 Mann Street,Gosford,NSW,2250,Central Coast,1300 546 632,https://www.sira.nsw.gov.au/information-search/rehab-provider/detail?id=817,793,-33.4259506,151.3420493
Kinnect - Wollongong,Kinnect,325 Crown Street,Wollongong,NSW,2500,Illawarra Shoalhaven,1300 546 632,https://www.sira.nsw.gov.au/information-search/rehab-provider/detail?id=819,795,-34.4259789,150.8892519
Konekt - Albury,Konekt,"Suites 3 And 4, 622 Macauley Street",Albury,NSW,2640,Riverina,1300 723 375,https://www.sira.nsw.gov.au/information-search/rehab-provider/detail?id=241,241,-36.0615713,146.9263087
Konekt - Wollongong,Konekt,"Level 3, 43 Burelli Street",Wollongong,NSW,2500,Illawarra Shoalhaven,1300 723 375,https://www.sira.nsw.gov.au/information-search/rehab-provider/detail?id=243,243,-34.4214498,150.8900387
"Konekt - Nerang, Gold Coast",Konekt,"Suite 29, 207 Currumburra Road",Ashmore,QLD,4214,Qld,07 3230 8333,https://www.sira.nsw.gov.au/information-search/rehab-provider/detail?id=799,776,-27.9626644,153.3672812
Konekt - Ballina,Konekt,"Shop 1, 183 River Street",Ballina,NSW,2478,Northern Rivers,02 6623 7900,https://www.sira.nsw.gov.au/information-search/rehab-provider/detail?id=255,255,-28.8660981,153.5607603
Konekt - Batemans Bay,Konekt,"Unit 1, 43 Orient Street",Batemans Bay,NSW,2536,South Coast,1300 723 375,https://www.sira.nsw.gov.au/information-search/rehab-provider/detail?id=797,774,-35.7321019,150.2004158
Konekt - Brisbane,Konekt,"Level 3, 67 Astor Terrace",Spring Hill,QLD,4004,Queensland,07 3230 8333,https://www.sira.nsw.gov.au/information-search/rehab-provider/detail?id=449,324,-27.4614416,153.0257338
Konekt - Broken Hill,Konekt,257/259 Argent Street,Broken Hill,NSW,2880,Western Nsw,08 8214 4000,https://www.sira.nsw.gov.au/information-search/rehab-provider/detail?id=798,775,-31.9590942,141.4645841
Konekt - Canberra,Konekt,"Level 1, Suite 1.02, 54 Marcus Clarke Street",Canberra,ACT,2601,Act,1300 723 375,https://www.sira.nsw.gov.au/information-search/rehab-provider/detail?id=238,238,-35.2811197,149.1228719
Konekt - Coffs Harbour,Konekt,"Suite 202, Level 1, 24 Gordon Street",Coffs Harbour,NSW,2450,Mid North Coast,07 3230 8333,https://www.sira.nsw.gov.au/information-search/rehab-provider/detail?id=307,307,-30.2695516,153.1027547
Konekt - Liverpool,Konekt,"Suite 2, Level 5, 45-47 Scott Street",Liverpool,NSW,2170,Sydney West,1300 723 375,https://www.sira.nsw.gov.au/information-search/rehab-provider/detail?id=445,441,-33.9314256,150.9091697
Konekt - Newcastle,Konekt,121 Maitland Road,Mayfield,NSW,2304,Hunter,02 4903 5210,https://www.sira.nsw.gov.au/information-search/rehab-provider/detail?id=239,239,-32.9051163,151.746341
Konekt - North Sydney,Konekt,"Suite 1, Level 13, 201 Miller Street",North Sydney,NSW,2060,Sydney North,02 9307 4007,https://www.sira.nsw.gov.au/information-search/rehab-provider/detail?id=316,316,-33.8400903,151.2107071
Konekt - Nowra,Konekt,Unit 201 Berry Street,Nowra,NSW,2541,Illawarra Shoalhaven,1300 723 375,https://www.sira.nsw.gov.au/information-search/rehab-provider/detail?id=688,667,-34.879232,150.5996276
Konekt - Orange,Konekt,319/315-323 Summer Street,Orange,NSW,2800,Central West,1300 723 375,https://www.sira.nsw.gov.au/information-search/rehab-provider/detail?id=800,777,-33.2899635,149.0813814
Konekt - Parramatta,Konekt,"Suite 4, Ground Floor, 1-3 Fitzwilliam Street",Parramatta,NSW,2150,Sydney West,02 8843 0900,https://www.sira.nsw.gov.au/information-search/rehab-provider/detail?id=383,383,-33.8132774,151.0072765
Konekt - Penrith,Konekt,"Suite 4, 333 High Street",Penrith,NSW,2750,Nepean Blue Mountains,02 4777 9700,https://www.sira.nsw.gov.au/information-search/rehab-provider/detail?id=474,469,-33.7539357,150.6793966
Konekt - Port Macquarie,Konekt,"Shop 1 & 2, 147 Gordon Street",Port Macquarie,NSW,2444,Mid North Coast,1300 723 375,https://www.sira.nsw.gov.au/information-search/rehab-provider/detail?id=469,464,-31.4482673,152.8830412
Konekt - Tamworth,Konekt,239 Peel Street,Tamworth,NSW,2340,North West Slopes & Plains,1300 723 375,https://www.sira.nsw.gov.au/information-search/rehab-provider/detail?id=471,466,-31.0978285,150.9363406
Konekt - Tuggerah,Konekt,"U1c, 152-154 Pacific Highway",Tuggerah,NSW,2259,Central Coast,02 4356 4000,https://www.sira.nsw.gov.au/information-search/rehab-provider/detail?id=663,643,-33.2417292,151.455269
Konekt - Wagga Wagga,Konekt,91 Peter Street,Wagga Wagga,NSW,2650,Riverina,1300 723 375,https://www.sira.nsw.gov.au/information-search/rehab-provider/detail?id=569,576,-35.1172978,147.3676612
Lifeworks Health Services,Lifeworks Health Services,Suite 3.15 5 Celebration Drive,Baulkham Hills,NSW,2153,Sydney West,1300 350 421,https://www.sira.nsw.gov.au/information-search/rehab-provider/detail?id=368,368,-33.7499366,150.99108
Linked Rehab,Linked Rehab,"Level 1, 331 High Street",Penrith,NSW,2750,"Nepean, Blue Mountains",0420 633 129,https://www.sira.nsw.gov.au/information-search/rehab-provider/detail?id=1036,1011,-33.7539357,150.6793966
Mayo Injury Management Service,Mayo Injury Management Service,Mayo Private Hospital 2 Potoroo Drive,Taree,NSW,2430,Mid North Coast,02 6552 0022,https://www.sira.nsw.gov.au/information-search/rehab-provider/detail?id=438,438,-31.9581636,152.5121099
Mend Services - Newcastle,Mend Services,165 Lambton Road,Broadmeadow,NSW,2292,Hunter,02 4979 0104,https://www.sira.nsw.gov.au/information-search/rehab-provider/detail?id=548,537,-32.9236241,151.7231459
Mend Services - Forest Lodge,Mend Services,"Level 1, 52 Parramatta Road",Forest Lodge,NSW,2037,Sydney Central,02 9660 8611,https://www.sira.nsw.gov.au/information-search/rehab-provider/detail?id=429,429,-33.8810253,151.185993
Mend Services - Gosford,Mend Services,"Level 1, 4 Stockyard Place",Gosford,NSW,2250,Central Coast,02 9660 8611,https://www.sira.nsw.gov.au/information-search/rehab-provider/detail?id=547,536,-33.4111469,151.3320154
Mend Services - Norwest,Mend Services,"Master Builders Association Building, 5 Burbank Place",Norwest,NSW,2153,Sydney West,1300 176 774,https://www.sira.nsw.gov.au/information-search/rehab-provider/detail?id=1053,1028,-33.7499366,150.99108
Mend Services - Oran Park,Mend Services,"Level 2, 351 Oran Park Drive",Oran Park,NSW,2570,Sydney West,02 9660 8611,https://www.sira.nsw.gov.au/information-search/rehab-provider/detail?id=359,359,-34.0175979,150.7164221
Mend Services - Wollongong,Mend Services,66 Auburn Street,Wollongong,NSW,2500,Illawarra Shoalhaven,02 9660 8611,https://www.sira.nsw.gov.au/information-search/rehab-provider/detail?id=430,430,-34.4273328,150.8894892
Mp Safety Management,Mp Safety Management,Suite 3.203 7 Sefton Road,Thornleigh,NSW,2120,Sydney North,1300 855 458,https://www.sira.nsw.gov.au/information-search/rehab-provider/detail?id=340,340,-33.7300471,151.0763892
Northern Occ Rehab,Northern Occ Rehab,19 Earls Court,Goonellabah,NSW,2480,Northern Rivers,0404 801 074,https://www.sira.nsw.gov.au/information-search/rehab-provider/detail?id=935,909,-28.8181265,153.3452333
Ors - Corrimal,Ors,Units 1 And 2 17-421 Princes Highway,Corrimal,NSW,2518,Illawarra Shoalhaven,1800 000 677,https://www.sira.nsw.gov.au/information-search/rehab-provider/detail?id=1026,1001,-34.3789419,150.9036889
Ors - Fyshwick,Ors,"Suite 5, 7 Geelong Street",Fyshwick,ACT,2609,Act,1800 000 677,https://www.sira.nsw.gov.au/information-search/rehab-provider/detail?id=929,904,-35.320036,149.1752869
Ors - Gold Coast,Ors,"Level 13, 50 Cavill Avenue",Gold Coast Mc,QLD,4217,Far North Coast,1800 000 677,https://www.sira.nsw.gov.au/information-search/rehab-provider/detail?id=1028,1003,-28.0020417,153.4152187
Ors - Gosford,Ors,"Gateway Centre, Suite 11, Level 2 237 Mann Street",Gosford,NSW,2250,Central Coast,1800 000 677,https://www.sira.nsw.gov.au/information-search/rehab-provider/detail?id=926,901,-33.4111469,151.3320154
Ors - Lane Cove,Ors,2 Lincoln Street,Lane Cove West,NSW,2066,Sydney North,1800 000 677,https://www.sira.nsw.gov.au/information-search/rehab-provider/detail?id=944,918,-33.8163409,151.1709322
Ors - Maitland,Ors,2/12 Ken Tubman Drive,Maitland,NSW,2320,Hunter,1800 000 677,https://www.sira.nsw.gov.au/information-search/rehab-provider/detail?id=973,947,-32.7353269,151.5580183
Ors - Mascot,Ors,"Unit 3B, 5 - 9 Ricketty Street",Mascot,NSW,2020,Sydney,1800 000 677,https://www.sira.nsw.gov.au/information-search/rehab-provider/detail?id=972,946,-33.9291463,151.1889955
Ors - Newcastle,Ors,Units 1 & 2 33 Newton Street,Broadmeadow,NSW,2292,Hunter,1800 000 677,https://www.sira.nsw.gov.au/information-search/rehab-provider/detail?id=566,546,-32.9224901,151.7310064
Ors - Port Macquarie,Ors,2/34 Jindalee Road,Port Macquarie,NSW,2444,Mid North Coast,1800 000 677,https://www.sira.nsw.gov.au/information-search/rehab-provider/detail?id=987,967,-31.4518522,152.8845455
Ors - Villawood,Ors,Suite 2.02 44 Mandarin Street,Fairfield East,NSW,2163,Sydney West,1800 000 677,https://www.sira.nsw.gov.au/information-search/rehab-provider/detail?id=418,418,-33.8849112,150.9745188
Ors - Wagga Wagga,Ors,1/45 Fitzmaurice Street,Wagga Wagga,NSW,2650,Riverina,1800 000 677,https://www.sira.nsw.gov.au/information-search/rehab-provider/detail?id=1027,1002,-35.1047849,147.3691518
Perceptive Health,Perceptive Health,68 Matcham Road,Matcham,NSW,2250,Central Coast,02 8091 3318,https://www.sira.nsw.gov.au/information-search/rehab-provider/detail?id=994,964,-33.4058847,151.4392323
Perma Recovery,Perma Recovery,"Level 22, Westfield Tower Two 101 Grafton Street",Bondi Junction,NSW,2022,Sydney East,0493 685 228,https://www.sira.nsw.gov.au/information-search/rehab-provider/detail?id=1052,1027,-33.8921368,151.2501162
Pinnacle Rehab,Pinnacle Rehab,"Level 4, 39-41 Chandos Street",St Leonards,NSW,1585,Sydney North,1300 591 438,https://www.sira.nsw.gov.au/information-search/rehab-provider/detail?id=670,650,-33.8225666,151.1923402
Platinum Rehabilitation Group,Platinum Rehabilitation Group,"Level 2, Suite 14 145-149 Forest Road",Hurstville,NSW,2220,Sydney South,02 9579 3114,https://www.sira.nsw.gov.au/information-search/rehab-provider/detail?id=871,846,-33.9596937,151.0984098
Prestige Health Services Australia (Phsa) - Sutherland,Prestige Health Services Australia (Phsa),Suite 2 33 Belmont Street,Sutherland,NSW,2232,Sydney,1300 522 141,https://www.sira.nsw.gov.au/information-search/rehab-provider/detail?id=806,782,-34.0457659,151.0571269
Prestige Health Services Australia (Phsa) - Warners Bay,Prestige Health Services Australia (Phsa),4/335 Hillsborough Road,Warners Bay,NSW,2282,Central Coast & Hunter,0488 292 490,https://www.sira.nsw.gov.au/information-search/rehab-provider/detail?id=923,898,-32.9640662,151.6601061
Proactiv People - Sydney,Proactiv People,2 Epson Road,Rosebery,NSW,2018,Sydney Central,0405 552 448,https://www.sira.nsw.gov.au/information-search/rehab-provider/detail?id=869,844,-33.9180427,151.2063243
Prowork Consultants,Prowork Consultants,78 Reynolds Avenue,Bankstown,NSW,2200,Sydney West,02 9790 8651,https://www.sira.nsw.gov.au/information-search/rehab-provider/detail?id=478,473,-33.9102875,151.0302601
Prudence Rehab,Prudence Rehab,"Suite 3, Level 4, 56 Clarence Street",Sydney,NSW,2000,Sydney,02 9283 5552,https://www.sira.nsw.gov.au/information-search/rehab-provider/detail?id=695,676,-33.8692957,151.2070786
"Recare Services - Cabarita, Tweed Coast",Recare Services,Shop 6 51 Tweed Coast Road,Cabarita Beach,NSW,2488,Far North Coast; Mid North Coast,02 8004 0828,https://www.sira.nsw.gov.au/information-search/rehab-provider/detail?id=882,858,-28.3336119,153.5633078
Recare Services - Gosford,Recare Services,1 Hill Street,Gosford,NSW,2250,Central Coast,02 8004 0828,https://www.sira.nsw.gov.au/information-search/rehab-provider/detail?id=883,859,-33.4111469,151.3320154
Recare Services - Pagewood,Recare Services,"Eastgardens Medical Centre, Westfield Cnr Bunnerong Road & Wentworth Avenue",Pagewood,NSW,2035,Sydney East,02 9344 7122,https://www.sira.nsw.gov.au/information-search/rehab-provider/detail?id=803,780,-33.9419947,151.2378028
Recare Services - Pottsville,Recare Services,Shop 5 8 Coronation Avenue,Pottsville,NSW,2489,Mid North Coast,02 8004 0828,https://www.sira.nsw.gov.au/information-search/rehab-provider/detail?id=881,857,-28.3854679,153.5621988
Recare Services - Wentworthville,Recare Services,"Level 4, 73-75 Dunmore Street",Wentworthville,NSW,2145,Sydney West,02 8004 0828,https://www.sira.nsw.gov.au/information-search/rehab-provider/detail?id=947,921,-33.8095965,150.9764645
Recovery Partners - Blacktown,Recovery Partners,"Suite 3, Level 3 85 Flushcombe Road",Blacktown,NSW,2148,Sydney West,02 9622 0075,https://www.sira.nsw.gov.au/information-search/rehab-provider/detail?id=648,629,-33.7518952,150.89233
Recovery Partners - Brisbane,Recovery Partners,"Level 13, 269 Wickham Street",Fortitude Valley,QLD,4006,Queensland,1300 647 789,https://www.sira.nsw.gov.au/information-search/rehab-provider/detail?id=868,843,-27.449251,153.0394986
Recovery Partners - Broadmeadow,Recovery Partners,66 Belford Street,Broadmeadow,NSW,2292,Hunter,1300 647 789,https://www.sira.nsw.gov.au/information-search/rehab-provider/detail?id=713,692,-32.9242961,151.7402124
Recovery Partners - Campbelltown,Recovery Partners,Suite 214 4 Hyde Parade,Campbelltown,NSW,2560,"Sydney South, Sydney South West",1300 647 789,https://www.sira.nsw.gov.au/information-search/rehab-provider/detail?id=867,842,-34.0882935,150.81131
Recovery Partners - Canberra,Recovery Partners,"Suite 2W, Level 1 46 Hibberson Street",Gungahlin,ACT,2912,Act,1300 647 789,https://www.sira.nsw.gov.au/information-search/rehab-provider/detail?id=712,693,-35.1877472,149.1326138
Recovery Partners - Sutherland,Recovery Partners,"Suite 203, Ground Floor 3-5 Stapleton Avenue",Sutherland,NSW,2232,Sydney South,02 9532 0988,https://www.sira.nsw.gov.au/information-search/rehab-provider/detail?id=533,521,-34.0457659,151.0571269
Recovery Partners - Sydney,Recovery Partners,Suite 2.09 58 Pitt Street,Sydney,NSW,2000,Sydney Central,1300 647 789,https://www.sira.nsw.gov.au/information-search/rehab-provider/detail?id=753,731,-33.8692957,151.2070786
Recovery Partners - Wollongong,Recovery Partners,"Suite 1, Level 1 1 Rawson Street",Wollongong,NSW,2500,Illawarra Shoalhaven,1300 647 789,https://www.sira.nsw.gov.au/information-search/rehab-provider/detail?id=649,630,-34.4214498,150.8900387
Rehab Co - Albury,Rehab Co,432 Swift Street,Albury,NSW,2640,Riverina,02 6042 0600,https://www.sira.nsw.gov.au/information-search/rehab-provider/detail?id=499,492,-36.0790701,146.9199353
Rehab Co - Canberra,Rehab Co,26 Maryborough Street,Fyshwick,ACT,2609,"Act, Southern Highlands, Tablelands",02 6126 2000,https://www.sira.nsw.gov.au/information-search/rehab-provider/detail?id=501,494,-35.3256614,149.1750292
Rehab Co - Coffs Harbour,Rehab Co,Suite 30 The Jetty Village Shopping Centre 361 Harbour Drive,Coffs Harbour,NSW,2450,Mid North Coast,02 6699 3555,https://www.sira.nsw.gov.au/information-search/rehab-provider/detail?id=866,841,-30.2695516,153.1027547
Rehab Co - Griffith,Rehab Co,1/20 Banna Avenue,Griffith,NSW,2680,Riverina,02 6961 0700,https://www.sira.nsw.gov.au/information-search/rehab-provider/detail?id=500,493,-34.286976,146.0380131
Rehab Co - Lismore,Rehab Co,"Suite 1F, 186 Molesworth Street",Lismore,NSW,2480,Northern Rivers,1300 575 652,https://www.sira.nsw.gov.au/information-search/rehab-provider/detail?id=932,906,-28.7788628,153.2816187
Rehab Co - Newcastle,Rehab Co,9/710 Hunter Street,Newcastle West,NSW,2302,"Hunter, Central Coast",02 4942 0700,https://www.sira.nsw.gov.au/information-search/rehab-provider/detail?id=783,762,-32.9269879,151.7625837
Rehab Co - Sydney,Rehab Co,"Level 4, 376 Bay Street",Brighton-Le-Sands,NSW,2216,"Sydney South, Sydney East, Sydney West",02 9503 9500,https://www.sira.nsw.gov.au/information-search/rehab-provider/detail?id=720,699,-33.9514242,151.1418413
Rehab Co - Tamworth,Rehab Co,121 Marius Street,Tamworth,NSW,2340,"North West Slopes & Plains, New England",02 6763 0000,https://www.sira.nsw.gov.au/information-search/rehab-provider/detail?id=865,840,-31.0861518,150.9284087
Rehab Co - Wagga Wagga,Rehab Co,50 Peter Street,Wagga Wagga,NSW,2650,Riverina,02 6923 0500,https://www.sira.nsw.gov.au/information-search/rehab-provider/detail?id=321,321,-35.1172978,147.3676612
Rehab Co - Wollongong,Rehab Co,90 Smith Street,Wollongong,NSW,2500,"Illawarra Shoalhaven, South Coast",02 4222 3500,https://www.sira.nsw.gov.au/information-search/rehab-provider/detail?id=721,700,-34.4219056,150.8969745
Rehab Co - Wyong,Rehab Co,"Kanwal Medical Complex Suite C30, 654 Pacific Highway",Kanwal,NSW,2259,Central Coast,02 4390 5279,https://www.sira.nsw.gov.au/information-search/rehab-provider/detail?id=877,853,-33.2417292,151.455269
Rehab Dynamics,Rehab Dynamics,"Suite 510, 118 Church Street",Parramatta,NSW,2150,Sydney South West,02 9790 8407,https://www.sira.nsw.gov.au/information-search/rehab-provider/detail?id=311,311,-33.8132774,151.0072765
Rehab Focus Enterprise,Rehab Focus Enterprise,305 /160 Rowe Street,Eastwood,NSW,2122,Sydney,0433 160 212,https://www.sira.nsw.gov.au/information-search/rehab-provider/detail?id=521,511,-33.7892172,151.0844336
Rehab Management - Campbelltown,Rehab Management,"Ground Floor, Suite 4, 121 Queen Street",Campbelltown,NSW,2560,Sydney South West,1300 762 989,https://www.sira.nsw.gov.au/information-search/rehab-provider/detail?id=588,569,-34.0882935,150.81131
Rehab Management - Albury,Rehab Management,602 Olive Street,Albury,NSW,2640,Riverina,1300 762 989,https://www.sira.nsw.gov.au/information-search/rehab-provider/detail?id=784,763,-36.0740542,146.9193502
Rehab Management - Central Coast,Rehab Management,"Suite C, 201 Mann Street",Gosford,NSW,2250,Central Coast,1300 762 989,https://www.sira.nsw.gov.au/information-search/rehab-provider/detail?id=595,573,-33.4111469,151.3320154
Rehab Management - Chatswood,Rehab Management,"Level 6, 10 Help Street",Chatswood,NSW,2067,Sydney North,1300 762 989,https://www.sira.nsw.gov.au/information-search/rehab-provider/detail?id=592,570,-33.7964874,151.1802194
Rehab Management - Coffs Harbour,Rehab Management,"Unit 3, 6 Elbow Street",Coffs Harbour,NSW,2450,Far North Coast; Mid North Coast,1300 762 989,https://www.sira.nsw.gov.au/information-search/rehab-provider/detail?id=780,759,-30.2695516,153.1027547
Rehab Management - Griffith,Rehab Management,233-237 Banna Avenue,Griffith,ACT,2603,"Act, Southern Highlands, Tablelands",1300 762 989,https://www.sira.nsw.gov.au/information-search/rehab-provider/detail?id=785,764,-34.286976,146.0380131
Rehab Management - Hurstville,Rehab Management,"Suite 103, Level 1, 430 Forest Road",Hurstville,NSW,2220,Sydney South,1300 762 989,https://www.sira.nsw.gov.au/information-search/rehab-provider/detail?id=963,937,-33.9596937,151.0984098
Rehab Management - Lismore,Rehab Management,"Ground Floor, 49 Carrington Street",Lismore,NSW,2480,Northern Rivers,1300 762 989,https://www.sira.nsw.gov.au/information-search/rehab-provider/detail?id=786,765,-28.7788628,153.2816187
Rehab Management - Liverpool,Rehab Management,"Level 7, Suite 2, 269-273 Bigge Street",Liverpool,NSW,2170,Sydney West,1300 762 989,https://www.sira.nsw.gov.au/information-search/rehab-provider/detail?id=717,695,-33.9314256,150.9091697
Rehab Management - Maitland,Rehab Management,2A/52 Ken Tubman Drive,Maitland,NSW,2320,Hunter,1300 762 989,https://www.sira.nsw.gov.au/information-search/rehab-provider/detail?id=597,575,-32.7353269,151.5580183
Rehab Management - Miranda,Rehab Management,"Suite 303, 29 Kiora Road",Miranda,NSW,2228,Sydney South,1300 762 989,https://www.sira.nsw.gov.au/information-search/rehab-provider/detail?id=962,936,-34.0353003,151.1034653
Rehab Management - Newcastle,Rehab Management,"Lot 3, 142-158 Pacific Highway",Charlestown,NSW,2290,Hunter,1300 762 989,https://www.sira.nsw.gov.au/information-search/rehab-provider/detail?id=594,572,-32.9734926,151.6940233
Rehab Management - North Parramatta,Rehab Management,"Level 2, Suite 2.03 90-92 Phillip Street",Parramatta,NSW,2150,Sydney West,1300 762 989,https://www.sira.nsw.gov.au/information-search/rehab-provider/detail?id=372,372,-33.8132774,151.0072765
Rehab Management - Nowra,Rehab Management,81 North Street,Nowra,NSW,2541,South Coast Nsw,1300 762 989,https://www.sira.nsw.gov.au/information-search/rehab-provider/detail?id=787,766,-34.8719778,150.5984012
Rehab Management - Orange,Rehab Management,296-298 Summer Street,Orange,NSW,2800,Central West,1300 762 989,https://www.sira.nsw.gov.au/information-search/rehab-provider/detail?id=782,761,-33.2843078,149.1028535
Rehab Management - Penrith,Rehab Management,"Suite 2001, Level 2, Borec House 21-23 Station Street",Penrith,NSW,2750,Nepean Blue Mountains,1300 762 989,https://www.sira.nsw.gov.au/information-search/rehab-provider/detail?id=718,696,-33.7539357,150.6793966
Rehab Management - Port Macquarie,Rehab Management,"Suite 10, Level 1 106 William Street",Port Macquarie,NSW,2444,Far North Coast; Mid North Coast,1300 762 989,https://www.sira.nsw.gov.au/information-search/rehab-provider/detail?id=781,760,-31.4482673,152.8830412
Rehab Management - Queanbeyan,Rehab Management,"Ground Floor, Unit 1 31 Thesiger Court",Deakin,ACT,2600,"Act, Southern Highlands, Tablelands",1300 762 989,https://www.sira.nsw.gov.au/information-search/rehab-provider/detail?id=788,767,-35.3069742,149.1133679
Rehab Management - Rockdale,Rehab Management,"Level 2, 10 King Street",Rockdale,NSW,2216,Sydney South,1300 762 989,https://www.sira.nsw.gov.au/information-search/rehab-provider/detail?id=719,697,-33.9514242,151.1418413
Rehab Management - Singleton,Rehab Management,"Shop 8, 54-56 John Street",Singleton,NSW,2330,Hunter,1300 762 989,https://www.sira.nsw.gov.au/information-search/rehab-provider/detail?id=596,574,-32.6616548,151.0506202
Rehab Management - Sydney,Rehab Management,Suite 15.04 - Level 15 680 George Street,Sydney,NSW,2000,Sydney Central,1300 762 989,https://www.sira.nsw.gov.au/information-search/rehab-provider/detail?id=591,568,-33.8692957,151.2070786
Rehab Management - Tamworth,Rehab Management,2/235 Peel Street,Tamworth,NSW,2340,North West Slopes & Plains,1300 762 989,https://www.sira.nsw.gov.au/information-search/rehab-provider/detail?id=789,768,-31.0978285,150.9363406
Rehab Management - Wagga Wagga,Rehab Management,Business Enterprise Centre 48 Trail Street,Wagga Wagga,NSW,2650,Riverina,1300 762 989,https://www.sira.nsw.gov.au/information-search/rehab-provider/detail?id=790,769,-35.1144671,147.3386834
Rehab Management - Wollongong,Rehab Management,"Suite 6 Level 3, 166 Keira Street",Wollongong,NSW,2520,Illawarra Shoalhaven,1300 762 989,https://www.sira.nsw.gov.au/information-search/rehab-provider/detail?id=593,571,-34.4234499227884,150.89324809929315
Rehab Options Provider Services,Rehab Options Provider Services,Unit 25/22-30 Northumberland Road,Caringbah,NSW,2229,Sydney South,02 8543 5888,https://www.sira.nsw.gov.au/information-search/rehab-provider/detail?id=1033,1008,-34.0559517,151.1124286
Rehab Solutions,Rehab Solutions,63-67 The Crescent,Fairfield,NSW,2165,Sydney South West,02 9728 9988,https://www.sira.nsw.gov.au/information-search/rehab-provider/detail?id=87,87,-33.8726225,150.9559174
Rehabilitation Services By Altius - Brisbane,Rehabilitation Services By Altius,Level 11 231 North Quay,Brisbane,QLD,4000,Queensland,1300 782 183,https://www.sira.nsw.gov.au/information-search/rehab-provider/detail?id=748,725,-27.465945,153.0216801
Rehabilitation Services By Altius - Brookvale,Rehabilitation Services By Altius,8/688 Pittwater Road,Brookvale,NSW,2100,Sydney North,1300 782 182,https://www.sira.nsw.gov.au/information-search/rehab-provider/detail?id=874,850,-33.7549183,151.2577347
Rehabilitation Services By Altius - Byron Bay,Rehabilitation Services By Altius,Suite 4 9 Fletcher Street,Byron Bay,NSW,2481,Far North Coast,1300 782 183,https://www.sira.nsw.gov.au/information-search/rehab-provider/detail?id=747,724,-28.6508588,153.5997403
Rehabilitation Services By Altius - Campbelltown,Rehabilitation Services By Altius,"Suite 128, 4 Hyde Parade",Campbelltown,NSW,2560,Sydney South West,1300 782 182,https://www.sira.nsw.gov.au/information-search/rehab-provider/detail?id=875,851,-34.0882935,150.81131
Rehabilitation Services By Altius - Canberra,Rehabilitation Services By Altius,"Suite 10, Level 3 161 London Circuit",Canberra,NSW,2600,Act,1300 782 183,https://www.sira.nsw.gov.au/information-search/rehab-provider/detail?id=680,658,-35.3069742,149.1133679
Rehabilitation Services By Altius - Coffs Harbour,Rehabilitation Services By Altius,"Level 6, 24 Moonee Street",Coffs Harbour,NSW,2450,Mid North Coast,1300 782 183,https://www.sira.nsw.gov.au/information-search/rehab-provider/detail?id=860,836,-30.2695516,153.1027547
Rehabilitation Services By Altius - Geelong,Rehabilitation Services By Altius,"Suite 201, Level 2 Office 8, 6-24 Moorabool Street",Geelong,VIC,3220,Victoria,1300 782 183,https://www.sira.nsw.gov.au/information-search/rehab-provider/detail?id=749,726,-38.1459038,144.3475136
Rehabilitation Services By Altius - Lithgow,Rehabilitation Services By Altius,58 Main Street,Lithgow,NSW,2790,Nepean Blue Mountains,1300 782 183,https://www.sira.nsw.gov.au/information-search/rehab-provider/detail?id=699,679,-33.4836507,150.1424203
Rehabilitation Services By Altius - Miranda,Rehabilitation Services By Altius,Suite 1 / 38- 40 Urunga Parade,Miranda,NSW,2228,Sydney South,1300 782 183,https://www.sira.nsw.gov.au/information-search/rehab-provider/detail?id=863,839,-34.0353003,151.1034653
Rehabilitation Services By Altius - Orange,Rehabilitation Services By Altius,Suite 3 59 Hill Street,Orange,NSW,2800,Central West,1300 782 183,https://www.sira.nsw.gov.au/information-search/rehab-provider/detail?id=862,838,-33.2899635,149.0813814
Rehabilitation Services By Altius - Parramatta,Rehabilitation Services By Altius,"Level 4, 34 Charles Street",Parramatta,NSW,2150,Sydney West,1300 782 183,https://www.sira.nsw.gov.au/information-search/rehab-provider/detail?id=654,635,-33.8132774,151.0072765
Rehabilitation Services By Altius - Penrith,Rehabilitation Services By Altius,"Borec House, Suite 3003B, Level 3 29-57 Station Street",Penrith,NSW,2750,Nepean Blue Mountains,1300 782 182,https://www.sira.nsw.gov.au/information-search/rehab-provider/detail?id=876,852,-33.7539357,150.6793966
Rehabilitation Services By Altius - Port Macquarie,Rehabilitation Services By Altius,"Level 3, Suite 1 41-47 Horton Street",Port Macquarie,NSW,2444,Mid North Coast,1300 782 183,https://www.sira.nsw.gov.au/information-search/rehab-provider/detail?id=861,837,-31.4482673,152.8830412
Rehabilitation Services By Altius - Sydney,Rehabilitation Services By Altius,"Level 4, 507-509 Kent Street",Sydney,NSW,2000,Sydney Central,1300 782 183,https://www.sira.nsw.gov.au/information-search/rehab-provider/detail?id=405,405,-33.8692957,151.2070786
Rehabilitation Services By Altius - Tamworth,Rehabilitation Services By Altius,307 Peel Street,Tamworth,NSW,2340,New England,1300 782 183,https://www.sira.nsw.gov.au/information-search/rehab-provider/detail?id=745,722,-31.0978285,150.9363406
Rehabilitation Services By Altius - Tuggerah,Rehabilitation Services By Altius,6 Reliance Drive,Tuggerah,NSW,2259,Central Coast,1300 782 183,https://www.sira.nsw.gov.au/information-search/rehab-provider/detail?id=746,723,-33.3189499,151.4203839
Rehabilitation Services By Altius - Wollongong,Rehabilitation Services By Altius,"Level 3, 172-174 Keira Street",Wollongong,NSW,2500,Illawarra Shoalhaven,1300 782 183,https://www.sira.nsw.gov.au/information-search/rehab-provider/detail?id=700,680,-34.4214498,150.8900387
Rehabilitation Services By Altius - Young,Rehabilitation Services By Altius,19 Lovell Street,Young,NSW,2594,South West Nsw,1300 782 182,https://www.sira.nsw.gov.au/information-search/rehab-provider/detail?id=911,887,-34.31224,148.2984357
Rehabilitation Services By Altius- Newcastle,Rehabilitation Services By Altius- Newcastle,"Suite 21, 19 Bolton Street",Newcastle,NSW,2300,Hunter,1300 782 183,https://www.sira.nsw.gov.au/information-search/rehab-provider/detail?id=679,657,-32.9286867,151.7756084
Rehabnet,Rehabnet,110 Moore Street,Liverpool,NSW,2170,Sydney South West,0412 710 186,https://www.sira.nsw.gov.au/information-search/rehab-provider/detail?id=697,677,-33.9224571,150.9216763
Resilia,Resilia,"Level 5, 20 Hunter Street",Sydney,NSW,2000,Sydney Central,02 8243 1500,https://www.sira.nsw.gov.au/information-search/rehab-provider/detail?id=702,682,-33.8692957,151.2070786
Rocket Rehab,Rocket Rehab,5 George Street,North Strathfield,NSW,2137,Sydney,0422 595 326,https://www.sira.nsw.gov.au/information-search/rehab-provider/detail?id=796,773,-33.8634757,151.0888538
Rtw Rehab,Rtw Rehab,"Level 1, Suite 1-3 1017-1019 Victoria Road",West Ryde,NSW,2114,Sydney North,1300 680 696,https://www.sira.nsw.gov.au/information-search/rehab-provider/detail?id=335,335,-33.8146533,151.0887645
Santegis - Albury,Santegis,460 Swift Street,Albury,NSW,2640,Riverina,1300 378 904,https://www.sira.nsw.gov.au/information-search/rehab-provider/detail?id=1022,996,-36.0790701,146.9199353
Santegis - Brisbane,Santegis,25 Bouquet Street,South Brisbane,QLD,4101,"Far North Coast, Qld",1300 378 904,https://www.sira.nsw.gov.au/information-search/rehab-provider/detail?id=1024,998,-27.4712166,153.0129463
Santegis - Canberra,Santegis,"Level 10, 1 Constitution Avenue",Canberra,ACT,2601,Act,1300 378 904,https://www.sira.nsw.gov.au/information-search/rehab-provider/detail?id=1025,1000,-35.2811197,149.1228719
Santegis - Denistone,Santegis,61 Pennant Avenue,Denistone,NSW,2114,Sydney North,1300 378 904,https://www.sira.nsw.gov.au/information-search/rehab-provider/detail?id=986,960,-33.798892,151.09579
Santegis - Newcastle,Santegis,2 Portside Crescent,Maryville,NSW,2293,Hunter,1300 378 904,https://www.sira.nsw.gov.au/information-search/rehab-provider/detail?id=1020,994,-32.913607,151.7569455
Santegis - Parramatta,Santegis,"Suite 21, 103 George Street",Parramatta,NSW,2150,Sydney West,1300 378 904,https://www.sira.nsw.gov.au/information-search/rehab-provider/detail?id=1017,991,-33.8132774,151.0072765
Santegis - Penrith,Santegis,"Suite 2, 387-389 High Street",Penrith,NSW,2750,"Nepean, Blue Mountains",1300 378 904,https://www.sira.nsw.gov.au/information-search/rehab-provider/detail?id=1018,992,-33.7539357,150.6793966
Santegis - Sydney,Santegis,G105/25 Brisbane Street,Surry Hills,NSW,2010,Sydney Central,1300 378 904,https://www.sira.nsw.gov.au/information-search/rehab-provider/detail?id=1019,993,-33.8835383,151.2135729
Santegis - Tamworth,Santegis,307 Peel Street,Tamworth,NSW,2340,North West Slopes & Plains,1300 378 904,https://www.sira.nsw.gov.au/information-search/rehab-provider/detail?id=1023,997,-31.0978285,150.9363406
Santegis - Wollongong,Santegis,"Level 1, 1 Burelli Street",Wollongong,NSW,2500,Illawarra Shoalhaven,1300 378 904,https://www.sira.nsw.gov.au/information-search/rehab-provider/detail?id=1021,995,-34.4214498,150.8900387
Sayf Recovery - Sydney,Sayf Recovery,903/50 Clarence Street,Sydney,NSW,2000,Sydney Central,0452 419 195,https://www.sira.nsw.gov.au/information-search/rehab-provider/detail?id=1029,1004,-33.8659063,151.205181
Sis Rehab,Sis Rehab,Unit 1 190 George Street,Parramatta,NSW,2150,Sydney West,02 9890 9330,https://www.sira.nsw.gov.au/information-search/rehab-provider/detail?id=514,506,-33.8132774,151.0072765
Skilled Health Pty Ltd,Skilled Health Pty Ltd,Suite 1 26 Castlereagh Street,Sydney,NSW,2000,Sydney,1300 970 970,https://www.sira.nsw.gov.au/information-search/rehab-provider/detail?id=687,662,-33.8692957,151.2070786
South East Injury Management - Bega,South East Injury Management,15 Canning Street,Bega,NSW,2550,South Coast Nsw,1300 734 742,https://www.sira.nsw.gov.au/information-search/rehab-provider/detail?id=771,747,-36.6733531,149.844415
South East Injury Management - Cooma,South East Injury Management,62 Bombala Street,Cooma,NSW,2630,South East Nsw,1300 734 742,https://www.sira.nsw.gov.au/information-search/rehab-provider/detail?id=772,748,-36.2390976,149.1302603
South East Injury Management - Eden,South East Injury Management,Cnr Chandos Street & Imlays Street,Eden,NSW,2551,South Coast Nsw,1300 734 742,https://www.sira.nsw.gov.au/information-search/rehab-provider/detail?id=775,751,-37.1046464,149.8871876
South East Injury Management - Jindabyne,South East Injury Management,Thredbo Terrace,Jindabyne,NSW,2627,South East Nsw,1300 734 742,https://www.sira.nsw.gov.au/information-search/rehab-provider/detail?id=774,750,-36.4160368,148.6229571
South East Injury Management - Merimbula,South East Injury Management,3 Sapphire Coast Drive,Merimbula,NSW,2548,South Coast Nsw,1300 734 742,https://www.sira.nsw.gov.au/information-search/rehab-provider/detail?id=773,749,-36.8875344,149.9058442
Star Ims,Star Ims,"Suite 2, Level 3, 2012 Foveaux Street",Surry Hills,NSW,2000,Sydney,02 8029 0593,https://www.sira.nsw.gov.au/information-search/rehab-provider/detail?id=805,772,-33.8692957,151.2070786
Strategic Rehab Solutions,Strategic Rehab Solutions,Level 1/ 22-28 Edgeworth David Avenue,Hornsby,NSW,2077,Sydney North,02 9440 4988,https://www.sira.nsw.gov.au/information-search/rehab-provider/detail?id=536,524,-33.6982491,151.1041029
Sydney Occupational Services,Sydney Occupational Services,"Level 14, 3 Parramatta Square 153 Macquarie Street",Parramatta,NSW,2150,Sydney West,02 9615 9791,https://www.sira.nsw.gov.au/information-search/rehab-provider/detail?id=513,505,-33.8132774,151.0072765
Synergy Medical Pty Ltd,Synergy Medical Pty Ltd,1/179 Burwood Road,Burwood,NSW,2134,Sydney Central,02 9744 8809,https://www.sira.nsw.gov.au/information-search/rehab-provider/detail?id=485,478,-33.875518,151.1040538
The Procare Group - Albury,The Procare Group,459 Kiewa Street,Albury,NSW,2640,Riverina,02 6021 6762,https://www.sira.nsw.gov.au/information-search/rehab-provider/detail?id=949,923,-36.0937759,146.9186884
"The Procare Group - Bundall, Qld",The Procare Group,47 Ashmore Road,Bundall,QLD,4217,Queensland,07 5538 8988,https://www.sira.nsw.gov.au/information-search/rehab-provider/detail?id=976,950,-28.010035,153.4063545
"The Procare Group - Canberra, Act",The Procare Group,"Unit 7, 6 Phipps Close",Deakin,ACT,2600,Act,02 6171 7470,https://www.sira.nsw.gov.au/information-search/rehab-provider/detail?id=948,922,-35.3069742,149.1133679
The Procare Group - Coffs Harbour,The Procare Group,8/6 Elbow Street,Coffs Harbour,NSW,2450,Mid North Coast,02 5616 0065,https://www.sira.nsw.gov.au/information-search/rehab-provider/detail?id=950,924,-30.2941484,153.1147955
The Procare Group - Gosford,The Procare Group,Unit 4 / 3 Pioneer Avenue,Tuggerah,NSW,2259,Central Coast,02 4243 7633,https://www.sira.nsw.gov.au/information-search/rehab-provider/detail?id=951,925,-33.2417292,151.455269
The Procare Group - Lismore,The Procare Group,"1 Cook Street, South Lismore, Nsw, 2480",South Lismore,NSW,2480,Northern Rivers,02 5699 9020,https://www.sira.nsw.gov.au/information-search/rehab-provider/detail?id=952,926,-28.7788628,153.2816187
The Procare Group - Macquarie Park,The Procare Group,7 Eden Park Drive,Macquarie Park,NSW,2113,Sydney,02 8935 9426 / 0417 457 392,https://www.sira.nsw.gov.au/information-search/rehab-provider/detail?id=974,948,-33.7858211,151.1310676
The Procare Group - Newcastle,The Procare Group,"Level 2, 47 Darby Street",Cooks Hill,NSW,2300,Hunter,02 9086 8080 / 02 4047 9980,https://www.sira.nsw.gov.au/information-search/rehab-provider/detail?id=879,855,-32.9286867,151.7756084
The Procare Group - Orange,The Procare Group,"Suite 9, Level 2, Centrepoint Arcade 226-232 Summer Street",Orange,NSW,2800,Nepean Blue Mountains,02 6397 3947,https://www.sira.nsw.gov.au/information-search/rehab-provider/detail?id=953,927,-33.2899635,149.0813814
The Procare Group - Parramatta,The Procare Group,"Level 3, 90 Phillip Street",Parramatta,NSW,2150,Sydney West,02 9086 8080 / 02 8379 2984,https://www.sira.nsw.gov.au/information-search/rehab-provider/detail?id=878,854,-33.8132774,151.0072765
The Procare Group - Penrith,The Procare Group,"Unit 2, 311 High Street",Penrith,NSW,2750,"Nepean, Blue Mountains",02 9086 8000,https://www.sira.nsw.gov.au/information-search/rehab-provider/detail?id=1046,1021,-33.7539357,150.6793966
The Procare Group - Port Macquarie,The Procare Group,1/28 Gore Street,Port Macquarie,NSW,2444,Mid North Coast,02 5555 6993,https://www.sira.nsw.gov.au/information-search/rehab-provider/detail?id=954,928,-31.4348336,152.902752
The Procare Group - Sydney,The Procare Group,"Level 1, Building 3 190 Bourke Street",Alexandria,NSW,2015,Sydney Central,02 9086 8080,https://www.sira.nsw.gov.au/information-search/rehab-provider/detail?id=497,490,-33.9084474,151.1990616
The Procare Group - Sydney Cbd,The Procare Group,"Level 6, 724 -728 George Street",Haymarket,NSW,2000,Sydney Central,02 9086 8000,https://www.sira.nsw.gov.au/information-search/rehab-provider/detail?id=955,929,-33.8692957,151.2070786
The Procare Group - Tamworth,The Procare Group,1/121 Carthage House Carthage Street,Tamworth,NSW,2340,North West Slopes & Plains,02 5700 5782,https://www.sira.nsw.gov.au/information-search/rehab-provider/detail?id=956,930,-31.1062573,150.9181513
The Procare Group - Tweed Heads,The Procare Group,5/1 Sands Street,Tweed Heads,NSW,2485,Far North Coast,02 9086 8000,https://www.sira.nsw.gov.au/information-search/rehab-provider/detail?id=975,949,-28.1713523,153.5424534
The Procare Group - Wollongong,The Procare Group,201/53-61 Crown Street,Wollongong,NSW,2500,Illawarra Shoalhaven,02 4243 7632,https://www.sira.nsw.gov.au/information-search/rehab-provider/detail?id=957,931,-34.4214498,150.8900387
The Recovre Group - Bathurst,The Recovre Group,2/2 Littlebourne Street,Kelso,NSW,2795,Central West,1300 550 276,https://www.sira.nsw.gov.au/information-search/rehab-provider/detail?id=646,628,-33.4197137,149.6148781
The Recovre Group - Campbelltown,The Recovre Group,Suite 3.08 4 Hyde Parade,Campbelltown,NSW,2560,Sydney South West,1300 550 276,https://www.sira.nsw.gov.au/information-search/rehab-provider/detail?id=330,330,-34.0882935,150.81131
The Recovre Group - Canberra,The Recovre Group,Suite 5.03 Level 5 14 Moore Street,Canberra City,ACT,2600,Act,1300 550 276,https://www.sira.nsw.gov.au/information-search/rehab-provider/detail?id=225,225,-35.3069742,149.1133679
The Recovre Group - Central Coast,The Recovre Group,Nexus Business Hub 3 Amy Close,North Wyong,NSW,2259,Central Coast,1300 550 276,https://www.sira.nsw.gov.au/information-search/rehab-provider/detail?id=387,387,-33.2417292,151.455269
The Recovre Group - Dubbo,The Recovre Group,Suite 2 150 Darling Street,Dubbo,NSW,2830,Central West,1300 550 276,https://www.sira.nsw.gov.au/information-search/rehab-provider/detail?id=274,274,-32.2319157,148.6433952
The Recovre Group - Newcastle,The Recovre Group,144 Parry Street,Newcastle West,NSW,2302,Hunter,1300 550 276,https://www.sira.nsw.gov.au/information-search/rehab-provider/detail?id=229,229,-32.925113,151.7556897
The Recovre Group - Orange,The Recovre Group,135 Sale Street,Orange,NSW,2800,Central West,1300 550 276,https://www.sira.nsw.gov.au/information-search/rehab-provider/detail?id=399,399,-33.2899635,149.0813814
The Recovre Group - Parramatta,The Recovre Group,"Level 15, 60 Station Street East",Parramatta,NSW,2150,Sydney West,1300 550 276,https://www.sira.nsw.gov.au/information-search/rehab-provider/detail?id=590,549,-33.8132774,151.0072765
The Recovre Group - Sydney,The Recovre Group,One International Towers 100 Barangaroo Avenue,Sydney,NSW,2000,Sydney Central,1300 550 276,https://www.sira.nsw.gov.au/information-search/rehab-provider/detail?id=232,232,-33.8692957,151.2070786
The Recovre Group - Tamworth,The Recovre Group,307 Peel Street,East Tamworth,NSW,2340,North West Slopes & Plains,1300 550 276,https://www.sira.nsw.gov.au/information-search/rehab-provider/detail?id=233,233,-31.1062573,150.9181513
The Recovre Group - Wollongong,The Recovre Group,101 Crown Street,Wollongong,NSW,2500,Illawarra Shoalhaven,1300 550 276,https://www.sira.nsw.gov.au/information-search/rehab-provider/detail?id=273,273,-34.4262586,150.9024391
The Rehab Group,The Rehab Group,246 Pacific Highway,Crows Nest,NSW,2065,Sydney North,02 9904 2710,https://www.sira.nsw.gov.au/information-search/rehab-provider/detail?id=696,675,-33.8291387,151.2014162
The Rehabilitation Specialists - Act,The Rehabilitation Specialists,9/27 Yallourn Street,Fyshwick,ACT,2609,Act,1800 073 422,https://www.sira.nsw.gov.au/information-search/rehab-provider/detail?id=393,393,-35.3324745,149.1717406
The Rehabilitation Specialists - Sydney,The Rehabilitation Specialists,Stone And Chalk 477 Pitt Street,Haymarket,NSW,2000,Sydney Central,1800 073 422,https://www.sira.nsw.gov.au/information-search/rehab-provider/detail?id=920,895,-33.8692957,151.2070786
Work Options - Blacktown,Work Options,Tenancy 4023 Westpoint 17 Patrick Street,Blacktown,NSW,2148,Sydney West,02 9957 1300,https://www.sira.nsw.gov.au/information-search/rehab-provider/detail?id=638,621,-33.7518952,150.89233
Work Options - Canberra,Work Options,"Level 4, 15 Moore Street",Canberra,ACT,2601,Act,02 6169 4185,https://www.sira.nsw.gov.au/information-search/rehab-provider/detail?id=945,919,-35.2811197,149.1228719
Work Options - Coffs Harbour,Work Options,"Room 5, Coffs Health Hub 4/30 Orlando Street",Coffs Harbour,NSW,2450,Mid North Coast,02 6651 5516,https://www.sira.nsw.gov.au/information-search/rehab-provider/detail?id=655,636,-30.2695516,153.1027547
Work Options - Newcastle,Work Options,"Suite 16, Level 2, Otp House 10 Bradford Close",Kotara,NSW,2289,Hunter,02 4952 4433,https://www.sira.nsw.gov.au/information-search/rehab-provider/detail?id=639,622,-32.940876,151.7104695
Work Options - North Sydney,Work Options,"Suite 803, Level 8 146 Arthur Street",North Sydney,NSW,2060,Sydney North,02 9957 1300,https://www.sira.nsw.gov.au/information-search/rehab-provider/detail?id=412,412,-33.8400903,151.2107071
Work Options - Penrith,Work Options,Level 1 95 Station Street,Penrith,NSW,2750,"Nepean, Blue Mountains, Sydney West, Sydney South West, Sydney, Nsw",02 9957 1300,https://www.sira.nsw.gov.au/information-search/rehab-provider/detail?id=1042,1017,-33.7539357,150.6793966
Work Options - Tamworth,Work Options,Level 1 307 Peel Street,Tamworth,NSW,2340,"Far North Coast, Mid North Coast, New England, North Coast, Northern Rivers, North West Slopes & Plains, North Eastern Nsw, Nsw",02 9957 1300,https://www.sira.nsw.gov.au/information-search/rehab-provider/detail?id=1041,1016,-31.1062573,150.9181513
Work Options - Wollongong,Work Options,"Level 1, Burelli Street",Wollongong,NSW,2500,Illawarra Shoalhaven,02 4254 1072,https://www.sira.nsw.gov.au/information-search/rehab-provider/detail?id=946,920,-34.4214498,150.8900387
Work Rehab - Albury / Wodonga,Work Rehab,Regional Business Hub 15 High Street,Wodonga,VIC,3690,Riverina,1300 856 440,https://www.sira.nsw.gov.au/information-search/rehab-provider/detail?id=902,878,-36.1370976,146.8717861
Work Rehab - Batemans Bay,Work Rehab,12 Vesper Street,Batemans Bay,NSW,2536,South Coast,02 4415 1800,https://www.sira.nsw.gov.au/information-search/rehab-provider/detail?id=1045,1020,-35.7112338,150.1739295
Work Rehab - Bathurst,Work Rehab,103 Piper Street,Bathurst,NSW,2795,Nepean Blue Mountains,1300 856 440,https://www.sira.nsw.gov.au/information-search/rehab-provider/detail?id=906,882,-33.4154582,149.6080758
Work Rehab - Campbelltown,Work Rehab,70 Topham Road,Smeaton Grange,NSW,2567,Southern Highlands,1300 856 440,https://www.sira.nsw.gov.au/information-search/rehab-provider/detail?id=907,883,-34.0359778,150.7551036
Work Rehab - Canberra,Work Rehab,Unit 1 22 Napier Close,Deakin,ACT,2600,Act,1300 856 440,https://www.sira.nsw.gov.au/information-search/rehab-provider/detail?id=897,873,-35.3069742,149.1133679
Work Rehab - Chatswood,Work Rehab,821 Pacific Highway,Chatswood,NSW,2067,Sydney North,1300 856 440,https://www.sira.nsw.gov.au/information-search/rehab-provider/detail?id=908,884,-33.7948928,151.1792305
Work Rehab - Coffs Harbour,Work Rehab,The Professional Centre 1/9 Park Avenue,Coffs Harbour,NSW,2450,Mid North Coast,1300 856 440,https://www.sira.nsw.gov.au/information-search/rehab-provider/detail?id=835,812,-30.2695516,153.1027547
Work Rehab - Dubbo,Work Rehab,1/80 Gipps Street,Dubbo,NSW,2830,Central West,1300 856 440,https://www.sira.nsw.gov.au/information-search/rehab-provider/detail?id=905,881,-32.2524783,148.6103392
Work Rehab - Hornsby,Work Rehab,"Suite 1A, Level 2 802 Pacific Highway",Gordon,NSW,2072,Sydney North,1300 856 440,https://www.sira.nsw.gov.au/information-search/rehab-provider/detail?id=830,806,-33.7549495,151.152396
Work Rehab - Lismore,Work Rehab,50 Oliver Avenue,Goonellabah,NSW,2480,Northern Rivers,1300 856 440,https://www.sira.nsw.gov.au/information-search/rehab-provider/detail?id=900,876,-28.8243235,153.326577
Work Rehab - Liverpool,Work Rehab,2/215-219 George Street,Liverpool,NSW,2170,Sydney West,1300 856 440,https://www.sira.nsw.gov.au/information-search/rehab-provider/detail?id=831,808,-33.9314256,150.9091697
Work Rehab - Maitland,Work Rehab,48 Melbourne Street,East Maitland,NSW,2323,Hunter,1300 856 440,https://www.sira.nsw.gov.au/information-search/rehab-provider/detail?id=898,874,-32.7575206,151.5854642
Work Rehab - Miranda,Work Rehab,"Suite 210, 29 Kiora Road",Miranda,NSW,2228,Sydney South,1300 856 440,https://www.sira.nsw.gov.au/information-search/rehab-provider/detail?id=778,754,-34.0353003,151.1034653
Work Rehab - Newcastle,Work Rehab,36 Johns Street,Warners Bay,NSW,2282,Hunter,1300 856 440,https://www.sira.nsw.gov.au/information-search/rehab-provider/detail?id=829,805,-32.9715207,151.6498285
Work Rehab - North Strathfield,Work Rehab,"Suite5, Level 2, 22 George Street",North Strathfield,NSW,2137,Sydney,1300 856 440,https://www.sira.nsw.gov.au/information-search/rehab-provider/detail?id=828,804,-33.8590236,151.0881331
Work Rehab - Orange,Work Rehab,Level 1 34 Sale Street,Bathurst,NSW,2795,Central West,1300 856 440,https://www.sira.nsw.gov.au/information-search/rehab-provider/detail?id=832,809,-33.4154582,149.6080758
Work Rehab - Parramatta,Work Rehab,91 Phillip Street,Parramatta,NSW,2150,Sydney West,1300 856 440,https://www.sira.nsw.gov.au/information-search/rehab-provider/detail?id=903,879,-33.8131355,151.0062734
Work Rehab - Penrith,Work Rehab,95B Station Street,Penrith,NSW,2750,Nepean Blue Mountains,1300 856 440,https://www.sira.nsw.gov.au/information-search/rehab-provider/detail?id=904,880,-33.7521389,150.6953619
Work Rehab - Port Macquarie,Work Rehab,Glasshouse Port Macquarie Cnr Clarence And Hay Streets,Port Macquarie,NSW,2444,Mid North Coast,1300 856 440,https://www.sira.nsw.gov.au/information-search/rehab-provider/detail?id=834,811,-31.4482673,152.8830412
Work Rehab - Singleton,Work Rehab,Ground Floor 254 John Street,Singleton,NSW,2330,Hunter,1300 856 440,https://www.sira.nsw.gov.au/information-search/rehab-provider/detail?id=899,875,-32.6616548,151.0506202
Work Rehab - Tamworth,Work Rehab,Shop 7 Atrium 345 Peel Street,Tamworth,NSW,2340,North West Slopes & Plains,1300 856 440,https://www.sira.nsw.gov.au/information-search/rehab-provider/detail?id=833,810,-31.1062573,150.9181513
Work Rehab - Wollongong,Work Rehab,1 Burelli Street,Wollongong,NSW,2500,Illawarra Shoalhaven,1300 856 440,https://www.sira.nsw.gov.au/information-search/rehab-provider/detail?id=779,755,-34.4267578,150.8980948
Work Rehab - Wyong,Work Rehab,3 Amy Close,Wyong,NSW,2259,Central Coast,1300 856 440,https://www.sira.nsw.gov.au/information-search/rehab-provider/detail?id=901,877,-33.267577,151.4362717
Workactive Injury Management & Rehabilitation,Workactive Injury Management & Rehabilitation,194 Heathcote Road,Hammondville,NSW,2170,Sydney West,1300 196 752,https://www.sira.nsw.gov.au/information-search/rehab-provider/detail?id=403,403,-33.9426382,150.9430272
Workcare Group,Workcare Group,21 Darrell Road,Calala,NSW,2340,North West Slopes & Plains,0412 412 910,https://www.sira.nsw.gov.au/information-search/rehab-provider/detail?id=1048,1023,-31.1361608,150.950792
Workcom - Sydney,Workcom,44 Market Street,Sydney,NSW,2000,Sydney Central,1300 654 425,https://www.sira.nsw.gov.au/information-search/rehab-provider/detail?id=1031,1006,-33.8692957,151.2070786
Workers Health Centre - Newcastle,Workers Health Centre,"Level 2, Suite 4, Devonshire House 406-408 King Street",Newcastle West,NSW,2302,Hunter,02 9749 7666,https://www.sira.nsw.gov.au/information-search/rehab-provider/detail?id=586,618,-32.9269879,151.7625837
Workers Health Centre - Parramatta,Workers Health Centre,"Level 4, Suite 2 20 - 24 Wentworth Street",Parramatta,NSW,2150,Sydney West,02 9749 7666,https://www.sira.nsw.gov.au/information-search/rehab-provider/detail?id=587,619,-33.8132774,151.0072765
Workfocus - Orange,Workfocus,Suite 4 179-181 Byng Street,Orange,NSW,2800,Central West,02 6361 6600,https://www.sira.nsw.gov.au/information-search/rehab-provider/detail?id=463,457,-33.2899635,149.0813814
Workfocus - Albury,Workfocus,118 Hovell Street,Albury,NSW,2640,Riverina,02 6239 8700,https://www.sira.nsw.gov.au/information-search/rehab-provider/detail?id=848,825,-36.0872337,146.9171931
Workfocus - Brisbane,Workfocus,"Level 12, 295 Ann Street",Brisbane,QLD,4000,Queensland,07 3366 2775,https://www.sira.nsw.gov.au/information-search/rehab-provider/detail?id=656,639,-27.465945,153.0216801
Workfocus - Canberra,Workfocus,"Suite 343, 2 Endeavour House Captain Cook Crescent",Manuka,ACT,2603,Act,02 6239 8709,https://www.sira.nsw.gov.au/information-search/rehab-provider/detail?id=650,631,-35.3295068,149.1217019
Workfocus - Central Coast,Workfocus,"Suite 3, 11 Platinum Building 4 Ilya Avenue",Erina,NSW,2250,Central Coast,1300 570 181,https://www.sira.nsw.gov.au/information-search/rehab-provider/detail?id=549,538,-33.4111469,151.3320154
Workfocus - Deniliquin,Workfocus,282 George Street,Deniliquin,NSW,2710,Riverina,02 6239 8700,https://www.sira.nsw.gov.au/information-search/rehab-provider/detail?id=850,827,-35.7006157,144.8980893
Workfocus - Dubbo,Workfocus,1/207 Brisbane Street,Dubbo,NSW,2830,Central West,02 6361 6600,https://www.sira.nsw.gov.au/information-search/rehab-provider/detail?id=550,539,-32.2524454,148.6028578
Workfocus - Griffith,Workfocus,86 Yambil Street,Griffith,NSW,2680,Riverina,02 6239 8700,https://www.sira.nsw.gov.au/information-search/rehab-provider/detail?id=851,828,-34.2884609,146.0390207
Workfocus - Lismore,Workfocus,"Suite 9B, Conway Plaza 21 Conway Street",Lismore,NSW,2480,Northern Rivers,02 4929 6565,https://www.sira.nsw.gov.au/information-search/rehab-provider/detail?id=853,830,-28.7788628,153.2816187
Workfocus - Newcastle,Workfocus,"Level 2, 15 Lambton Road",Broadmeadow,NSW,2292,Hunter,02 4929 6565,https://www.sira.nsw.gov.au/information-search/rehab-provider/detail?id=425,425,-32.9224901,151.7310064
Workfocus - Nowra,Workfocus,108B Kinghorne Street,Nowra,NSW,2541,Illawarra Shoalhaven,02 4254 3300,https://www.sira.nsw.gov.au/information-search/rehab-provider/detail?id=849,826,-34.8827939,150.6013799
Workfocus - Port Macquarie,Workfocus,"C/- Level 3, 116 Hunter Street",Newcastle,NSW,2300,Mid North Coast,02 4929 6565,https://www.sira.nsw.gov.au/information-search/rehab-provider/detail?id=551,540,-32.9286867,151.7756084
Workfocus - Sydney,Workfocus,"Suite 1, Level 15 1 Market Street",Sydney,NSW,2000,Sydney Central,02 9098 2600,https://www.sira.nsw.gov.au/information-search/rehab-provider/detail?id=391,391,-33.8692957,151.2070786
Workfocus - Tamworth,Workfocus,Suite 14 & 15 Shop 7/345 Peel Street,Tamworth,NSW,2340,North West Slopes & Plains,02 4929 6565,https://www.sira.nsw.gov.au/information-search/rehab-provider/detail?id=552,541,-31.1062573,150.9181513
Workfocus - Wagga Wagga,Workfocus,66-70 Coleman Street,Wagga Wagga,NSW,2650,Riverina,02 6239 8700,https://www.sira.nsw.gov.au/information-search/rehab-provider/detail?id=852,829,-35.1229675,147.3631757
Workfocus - Wollongong,Workfocus,Level 5 304 Crown Street,Wollongong,NSW,2500,Illawarra Shoalhaven,02 4254 3300,https://www.sira.nsw.gov.au/information-search/rehab-provider/detail?id=553,542,-34.4214498,150.8900387
Workplace Oh&S Solutions,Workplace Oh&S Solutions,Po Box 523,Miranda,NSW,1409,"Act, Southern Highlands, Tablelands, Central Coast, Central West, Mid North Coast, Far North Coast, Hunter, Illawarra And Shoalhaven, Blue Mountains, North West Slopes And Plains, Riverina, South Coast, Sydney, Western Nsw",1800 013 429,https://www.sira.nsw.gov.au/information-search/rehab-provider/detail?id=540,529,-34.0335434,151.1037193
Workplace Rehabilitation Management,Workplace Rehabilitation Management,19 Brookhollow Avenue,Norwest Business Park,NSW,2153,"Sydney West, Sydney South West",1300 853 681,https://www.sira.nsw.gov.au/information-search/rehab-provider/detail?id=466,460,-33.7499366,150.99108
Worksmart Rehabilitation Pty Ltd,Worksmart Rehabilitation Pty Ltd,520/368 Sussex Street,Sydney,NSW,2000,Sydney Central,02 8964 9234,https://www.sira.nsw.gov.au/information-search/rehab-provider/detail?id=455,450,-33.8692957,151.2070786
